Precinct_Lon,Precinct_Lat,US_CONG,CO_SEN,CO_HSE,ARAP,COMM,Precinct,PRECINCT,HYPERLINK,created_us,created_da,last_edite,last_edi_1,Voter_Coun,Voter_Co_1,Shape_Leng,Shape_Area,VSPC_Name,Address,City,State,ZIP,VSPC_Lat,VSPC_Lon,Area_Lead,Precinct_Lead,Hand_Counter_1,Hand_Counter_2,Hand_Counter_3,Hand_Counter_4,Hand_Counter_5,Hand_Counter_6,Hand_Counter_7,Hand_Counter_8,Hand_Counter_9,Hand_Counter_10,VSPC_Rebalanced
-105.017825,39.58834113,6,16,38,3,0,6163803155,155,https://gis.arapahoegov.com/mapsandphotos/electionprecinctpdfs/Precinct_155.pdf,AC,2022/02/02,AC,2025/10/20,1233,2025/10/20,0.07418012097,0.00015560454,Arapahoe Community College,5900 S Santa Fe Dr,Littleton,CO,80120,39.5886,-105.0096,,,,,,,,,,,,,Arapahoe Community College
-105.0119419,39.59139532,6,16,38,3,0,6163803156,156,https://gis.arapahoegov.com/mapsandphotos/electionprecinctpdfs/Precinct_156.pdf,AC,2022/02/02,AC,2025/10/20,1175,2025/10/20,0.04788977759,0.00013182652,Arapahoe Community College,5900 S Santa Fe Dr,Littleton,CO,80120,39.5886,-105.0096,,,,,,,,,,,,,Arapahoe Community College
-104.9904753,39.60721506,6,16,38,3,0,6163803163,163,https://gis.arapahoegov.com/mapsandphotos/electionprecinctpdfs/Precinct_163.pdf,AC,2022/02/02,AC,2025/10/20,884,2025/10/20,0.04734285546,0.00008649911,Arapahoe Community College,5900 S Santa Fe Dr,Littleton,CO,80120,39.5886,-105.0096,,,,,,,,,,,,,Arapahoe Community College
-104.9826956,39.60715588,6,16,38,3,0,6163803164,164,https://gis.arapahoegov.com/mapsandphotos/electionprecinctpdfs/Precinct_164.pdf,AC,2022/02/02,AC,2025/10/20,864,2025/10/20,0.04179046906,0.00007724028,Arapahoe Community College,5900 S Santa Fe Dr,Littleton,CO,80120,39.5886,-105.0096,,,,,,,,,,,,,Arapahoe Community College
-105.0018105,39.59784196,6,16,38,3,0,6163803165,165,https://gis.arapahoegov.com/mapsandphotos/electionprecinctpdfs/Precinct_165.pdf,AC,2022/02/02,AC,2025/10/20,1064,2025/10/20,0.03713424656,0.0000814226,Arapahoe Community College,5900 S Santa Fe Dr,Littleton,CO,80120,39.5886,-105.0096,,,,,,,,,,,,,Arapahoe Community College
-104.9921884,39.59968968,6,16,38,3,0,6163803166,166,https://gis.arapahoegov.com/mapsandphotos/electionprecinctpdfs/Precinct_166.pdf,AC,2022/02/02,AC,2025/10/20,462,2025/10/20,0.0391283871,0.00005657079,Arapahoe Community College,5900 S Santa Fe Dr,Littleton,CO,80120,39.5886,-105.0096,,,,,,,,,,,,,Arapahoe Community College
-104.9927796,39.59363005,6,16,38,3,0,6163803167,167,https://gis.arapahoegov.com/mapsandphotos/electionprecinctpdfs/Precinct_167.pdf,AC,2022/02/02,AC,2025/10/20,955,2025/10/20,0.03531308097,0.00006388044,Arapahoe Community College,5900 S Santa Fe Dr,Littleton,CO,80120,39.5886,-105.0096,,,,,,,,,,,,,Arapahoe Community College
-105.0027118,39.58722366,6,16,38,3,0,6163803168,168,https://gis.arapahoegov.com/mapsandphotos/electionprecinctpdfs/Precinct_168.pdf,AC,2022/02/02,AC,2025/10/20,991,2025/10/20,0.04644649696,0.00012121648,Arapahoe Community College,5900 S Santa Fe Dr,Littleton,CO,80120,39.5886,-105.0096,,,,,,,,,,,,,Arapahoe Community College
-104.9930142,39.58552912,6,16,38,3,0,6163803169,169,https://gis.arapahoegov.com/mapsandphotos/electionprecinctpdfs/Precinct_169.pdf,AC,2022/02/02,AC,2025/10/20,1132,2025/10/20,0.04314226839,0.00009150889,Arapahoe Community College,5900 S Santa Fe Dr,Littleton,CO,80120,39.5886,-105.0096,,,,,,,,,,,,,Arapahoe Community College
-105.0415172,39.57361345,6,16,38,3,0,6163803170,170,https://gis.arapahoegov.com/mapsandphotos/electionprecinctpdfs/Precinct_170.pdf,AC,2022/02/02,AC,2025/10/20,1323,2025/10/20,0.07957125749,0.0003626938,Arapahoe Community College,5900 S Santa Fe Dr,Littleton,CO,80120,39.5886,-105.0096,,,,,,,,,,,,,Arapahoe Community College
-105.0150241,39.57744795,6,16,38,3,0,6163803171,171,https://gis.arapahoegov.com/mapsandphotos/electionprecinctpdfs/Precinct_171.pdf,AC,2022/02/02,AC,2025/10/20,1534,2025/10/20,0.05808773966,0.00011509218,Arapahoe Community College,5900 S Santa Fe Dr,Littleton,CO,80120,39.5886,-105.0096,,,,,,,,,,,,,Arapahoe Community College
-104.9955003,39.57876674,6,16,38,3,0,6163803172,172,https://gis.arapahoegov.com/mapsandphotos/electionprecinctpdfs/Precinct_172.pdf,AC,2022/02/02,AC,2025/10/20,850,2025/10/20,0.04687834328,0.00005807119,Arapahoe Community College,5900 S Santa Fe Dr,Littleton,CO,80120,39.5886,-105.0096,,,,,,,,,,,,,Arapahoe Community College
-104.9834234,39.57857732,6,16,38,3,0,6163803173,173,https://gis.arapahoegov.com/mapsandphotos/electionprecinctpdfs/Precinct_173.pdf,AC,2022/02/02,AC,2025/10/20,1497,2025/10/20,0.04800573054,0.0001055259,Arapahoe Community College,5900 S Santa Fe Dr,Littleton,CO,80120,39.5886,-105.0096,,,,,,,,,,,,,Arapahoe Community College
-104.9992274,39.57563645,6,16,38,3,0,6163803174,174,https://gis.arapahoegov.com/mapsandphotos/electionprecinctpdfs/Precinct_174.pdf,AC,2022/02/02,AC,2025/10/20,724,2025/10/20,0.04564013655,0.00007255068,Arapahoe Community College,5900 S Santa Fe Dr,Littleton,CO,80120,39.5886,-105.0096,,,,,,,,,,,,,Arapahoe Community College
-104.9912364,39.56980643,6,16,38,3,0,6163803175,175,https://gis.arapahoegov.com/mapsandphotos/electionprecinctpdfs/Precinct_175.pdf,AC,2022/02/02,AC,2025/10/20,994,2025/10/20,0.07943015034,0.00020829957,Arapahoe Community College,5900 S Santa Fe Dr,Littleton,CO,80120,39.5886,-105.0096,,,,,,,,,,,,,Arapahoe Community College
-105.018617,39.57039006,6,16,38,3,0,6163803176,176,https://gis.arapahoegov.com/mapsandphotos/electionprecinctpdfs/Precinct_176.pdf,AC,2022/02/02,AC,2025/10/20,1391,2025/10/20,0.08624885219,0.00021503597,Arapahoe Community College,5900 S Santa Fe Dr,Littleton,CO,80120,39.5886,-105.0096,,,,,,,,,,,,,Arapahoe Community College
-104.9806092,39.58535625,6,16,38,3,0,6163803177,177,https://gis.arapahoegov.com/mapsandphotos/electionprecinctpdfs/Precinct_177.pdf,AC,2022/02/02,AC,2025/10/20,997,2025/10/20,0.04682279848,0.00007806217,Arapahoe Community College,5900 S Santa Fe Dr,Littleton,CO,80120,39.5886,-105.0096,,,,,,,,,,,,,Arapahoe Community College
-104.9832133,39.59208834,6,16,38,3,0,6163803178,178,https://gis.arapahoegov.com/mapsandphotos/electionprecinctpdfs/Precinct_178.pdf,AC,2022/02/02,AC,2025/10/20,926,2025/10/20,0.03692485685,0.00005756394,Arapahoe Community College,5900 S Santa Fe Dr,Littleton,CO,80120,39.5886,-105.0096,,,,,,,,,,,,,Arapahoe Community College
-104.9828987,39.59847542,6,16,38,3,0,6163803179,179,https://gis.arapahoegov.com/mapsandphotos/electionprecinctpdfs/Precinct_179.pdf,AC,2022/02/02,AC,2025/10/20,707,2025/10/20,0.0426346866,0.00006535458,Arapahoe Community College,5900 S Santa Fe Dr,Littleton,CO,80120,39.5886,-105.0096,,,,,,,,,,,,,Arapahoe Community College
-104.8007686,39.71856727,6,28,42,3,0,6284203545,545,https://gis.arapahoegov.com/mapsandphotos/electionprecinctpdfs/Precinct_545.pdf,AC,2022/02/02,AC,2025/10/20,366,2025/10/20,0.07417543904,0.00026177259,Arapahoe County CentrePoint Plaza,14980 E Alameda Dr,Aurora,CO,80012,39.7226,-104.7839,,,,,,,,,,,,,Arapahoe County CentrePoint Plaza
-104.4430257,39.73067687,4,21,56,3,1,4215603348,348,https://gis.arapahoegov.com/mapsandphotos/electionprecinctpdfs/Precinct_348.pdf,AC,2022/02/02,AC,2025/10/20,0,2025/10/20,0.0671178021,0.00027779264,Arapahoe County Fairgrounds,25690 E Quincy Ave,Aurora,CO,80016,39.7027,-104.6486,,,,,,,,,,,,,Arapahoe County Fairgrounds
-104.5503903,39.64301651,4,27,56,3,1,4275603357,357,https://gis.arapahoegov.com/mapsandphotos/electionprecinctpdfs/Precinct_357.pdf,AC,2022/02/02,AC,2025/10/20,731,2025/10/20,0.7934572008,0.0171783997,Arapahoe County Fairgrounds,25690 E Quincy Ave,Aurora,CO,80016,39.7027,-104.6486,,,,,,,,,,,,,Arapahoe County Fairgrounds
-104.4622551,39.62769787,4,27,56,3,1,4275603366,366,https://gis.arapahoegov.com/mapsandphotos/electionprecinctpdfs/Precinct_366.pdf,AC,2022/02/02,AC,2025/10/20,502,2025/10/20,0.5746091866,0.01277202071,Arapahoe County Fairgrounds,25690 E Quincy Ave,Aurora,CO,80016,39.7027,-104.6486,,,,,,,,,,,,,Arapahoe County Fairgrounds
-104.6473954,39.72456829,4,28,36,3,1,4283603361,361,https://gis.arapahoegov.com/mapsandphotos/electionprecinctpdfs/Precinct_361.pdf,AC,2022/02/02,AC,2025/10/20,1713,2025/10/20,0.1953088564,0.00077914389,Arapahoe County Fairgrounds,25690 E Quincy Ave,Aurora,CO,80016,39.7027,-104.6486,,,,,,,,,,,,,Arapahoe County Fairgrounds
-104.5761736,39.69648346,4,28,56,3,1,4285603362,362,https://gis.arapahoegov.com/mapsandphotos/electionprecinctpdfs/Precinct_362.pdf,AC,2022/02/02,AC,2025/10/20,516,2025/10/20,0.4755726912,0.00647372922,Arapahoe County Fairgrounds,25690 E Quincy Ave,Aurora,CO,80016,39.7027,-104.6486,,,,,,,,,,,,,Arapahoe County Fairgrounds
-104.6360976,39.73270566,6,28,36,3,1,6283603359,359,https://gis.arapahoegov.com/mapsandphotos/electionprecinctpdfs/Precinct_359.pdf,AC,2022/02/02,AC,2025/10/20,2,2025/10/20,0.1213390897,0.00039907094,Arapahoe County Fairgrounds,25690 E Quincy Ave,Aurora,CO,80016,39.7027,-104.6486,,,,,,,,,,,,,Arapahoe County Fairgrounds
-104.6477137,39.69045623,6,28,36,3,1,6283603360,360,https://gis.arapahoegov.com/mapsandphotos/electionprecinctpdfs/Precinct_360.pdf,AC,2022/02/02,AC,2025/10/20,1503,2025/10/20,0.4019494532,0.00477731587,Arapahoe County Fairgrounds,25690 E Quincy Ave,Aurora,CO,80016,39.7027,-104.6486,,,,,,,,,,,,,Arapahoe County Fairgrounds
-104.9089864,39.57008276,6,16,37,3,0,6163703218,218,https://gis.arapahoegov.com/mapsandphotos/electionprecinctpdfs/Precinct_218.pdf,AC,2022/02/02,AC,2025/10/20,954,2025/10/20,0.03616040627,0.00007443761,Arapahoe County Lima Plaza,6954 S Lima St,Centennial,CO,80112,39.5747,-104.881,,,,,,,,,,,,,Arapahoe County Lima Plaza
-104.9089562,39.57726231,6,16,37,3,0,6163703220,220,https://gis.arapahoegov.com/mapsandphotos/electionprecinctpdfs/Precinct_220.pdf,AC,2022/02/02,AC,2025/10/20,903,2025/10/20,0.03391063481,0.00006162837,Arapahoe County Lima Plaza,6954 S Lima St,Centennial,CO,80112,39.5747,-104.881,,,,,,,,,,,,,Arapahoe County Lima Plaza
-104.908013,39.58556841,6,16,37,3,0,6163703222,222,https://gis.arapahoegov.com/mapsandphotos/electionprecinctpdfs/Precinct_222.pdf,AC,2022/02/02,AC,2025/10/20,959,2025/10/20,0.03366258568,0.000056508,Arapahoe County Lima Plaza,6954 S Lima St,Centennial,CO,80112,39.5747,-104.881,,,,,,,,,,,,,Arapahoe County Lima Plaza
-104.9075114,39.59192158,6,16,37,3,0,6163703224,224,https://gis.arapahoegov.com/mapsandphotos/electionprecinctpdfs/Precinct_224.pdf,AC,2022/02/02,AC,2025/10/20,899,2025/10/20,0.02627500951,0.0000432872,Greenwood Village City Hall,6060 S Quebec St,Greenwood Village,CO,80111,39.6139,-104.8893,,,,,,,,,,,,,Arapahoe County Lima Plaza
-104.8991965,39.59164561,6,27,37,3,0,6273703235,235,https://gis.arapahoegov.com/mapsandphotos/electionprecinctpdfs/Precinct_235.pdf,AC,2022/02/02,AC,2025/10/20,728,2025/10/20,0.03426247332,0.00007131844,Arapahoe County Lima Plaza,6954 S Lima St,Centennial,CO,80112,39.5747,-104.881,,,,,,,,,,,,,Arapahoe County Lima Plaza
-104.8888993,39.59092482,6,27,37,3,0,6273703236,236,https://gis.arapahoegov.com/mapsandphotos/electionprecinctpdfs/Precinct_236.pdf,AC,2022/02/02,AC,2025/10/20,675,2025/10/20,0.03934110499,0.00007838998,Arapahoe County Lima Plaza,6954 S Lima St,Centennial,CO,80112,39.5747,-104.881,,,,,,,,,,,,,Arapahoe County Lima Plaza
-104.8972767,39.58474981,6,27,37,3,0,6273703237,237,https://gis.arapahoegov.com/mapsandphotos/electionprecinctpdfs/Precinct_237.pdf,AC,2022/02/02,AC,2025/10/20,1221,2025/10/20,0.04921048207,0.00009058503,Arapahoe County Lima Plaza,6954 S Lima St,Centennial,CO,80112,39.5747,-104.881,,,,,,,,,,,,,Arapahoe County Lima Plaza
-104.8857763,39.58345502,6,27,37,3,0,6273703238,238,https://gis.arapahoegov.com/mapsandphotos/electionprecinctpdfs/Precinct_238.pdf,AC,2022/02/02,AC,2025/10/20,911,2025/10/20,0.06012179305,0.00009603768,Arapahoe County Lima Plaza,6954 S Lima St,Centennial,CO,80112,39.5747,-104.881,,,,,,,,,,,,,Arapahoe County Lima Plaza
-104.8988111,39.57634564,6,27,37,3,0,6273703239,239,https://gis.arapahoegov.com/mapsandphotos/electionprecinctpdfs/Precinct_239.pdf,AC,2022/02/02,AC,2025/10/20,890,2025/10/20,0.04022323182,0.00006074594,Arapahoe County Lima Plaza,6954 S Lima St,Centennial,CO,80112,39.5747,-104.881,,,,,,,,,,,,,Arapahoe County Lima Plaza
-104.8830128,39.57416117,6,27,37,3,0,6273703240,240,https://gis.arapahoegov.com/mapsandphotos/electionprecinctpdfs/Precinct_240.pdf,AC,2022/02/02,AC,2025/10/20,1822,2025/10/20,0.07483673916,0.00023740405,Arapahoe County Lima Plaza,6954 S Lima St,Centennial,CO,80112,39.5747,-104.881,,,,,,,,,,,,,Arapahoe County Lima Plaza
-104.8990499,39.56968671,6,27,37,3,0,6273703241,241,https://gis.arapahoegov.com/mapsandphotos/electionprecinctpdfs/Precinct_241.pdf,AC,2022/02/02,AC,2025/10/20,1056,2025/10/20,0.04789482282,0.00008589649,Arapahoe County Lima Plaza,6954 S Lima St,Centennial,CO,80112,39.5747,-104.881,,,,,,,,,,,,,Arapahoe County Lima Plaza
-104.8891874,39.57036788,6,27,37,3,0,6273703242,242,https://gis.arapahoegov.com/mapsandphotos/electionprecinctpdfs/Precinct_242.pdf,AC,2022/02/02,AC,2025/10/20,747,2025/10/20,0.03074283685,0.00005437614,Arapahoe County Lima Plaza,6954 S Lima St,Centennial,CO,80112,39.5747,-104.881,,,,,,,,,,,,,Arapahoe County Lima Plaza
-104.8705905,39.7219384,6,28,42,3,0,6284203505,505,https://gis.arapahoegov.com/mapsandphotos/electionprecinctpdfs/Precinct_505.pdf,AC,2022/02/02,AC,2025/10/20,1094,2025/10/20,0.03299381146,0.00006828234,Aurora Center for Active Adults,30 Del Mar Cir,Aurora,CO,80011,39.7291,-104.864,,,,,,,,,,,,,Aurora Center for Active Adults
-104.8564765,39.73655409,6,28,42,3,0,6284203506,506,https://gis.arapahoegov.com/mapsandphotos/electionprecinctpdfs/Precinct_506.pdf,AC,2022/02/02,AC,2025/10/20,1828,2025/10/20,0.05198562842,0.0001369948,Aurora Center for Active Adults,30 Del Mar Cir,Aurora,CO,80011,39.7291,-104.864,,,,,,,,,,,,,Aurora Center for Active Adults
-104.8614732,39.72942141,6,28,42,3,0,6284203507,507,https://gis.arapahoegov.com/mapsandphotos/electionprecinctpdfs/Precinct_507.pdf,AC,2022/02/02,AC,2025/10/20,1035,2025/10/20,0.03615422681,0.00006309789,Aurora Center for Active Adults,30 Del Mar Cir,Aurora,CO,80011,39.7291,-104.864,,,,,,,,,,,,,Aurora Center for Active Adults
-104.852267,39.7290894,6,28,42,3,0,6284203508,508,https://gis.arapahoegov.com/mapsandphotos/electionprecinctpdfs/Precinct_508.pdf,AC,2022/02/02,AC,2025/10/20,794,2025/10/20,0.03601763753,0.00007321055,Aurora Center for Active Adults,30 Del Mar Cir,Aurora,CO,80011,39.7291,-104.864,,,,,,,,,,,,,Aurora Center for Active Adults
-104.8612949,39.72283153,6,28,42,3,0,6284203509,509,https://gis.arapahoegov.com/mapsandphotos/electionprecinctpdfs/Precinct_509.pdf,AC,2022/02/02,AC,2025/10/20,669,2025/10/20,0.02816524285,0.00004697696,Aurora Center for Active Adults,30 Del Mar Cir,Aurora,CO,80011,39.7291,-104.864,,,,,,,,,,,,,Aurora Center for Active Adults
-104.8528163,39.72248238,6,28,42,3,0,6284203510,510,https://gis.arapahoegov.com/mapsandphotos/electionprecinctpdfs/Precinct_510.pdf,AC,2022/02/02,AC,2025/10/20,704,2025/10/20,0.03277139258,0.00006041364,Aurora Center for Active Adults,30 Del Mar Cir,Aurora,CO,80011,39.7291,-104.864,,,,,,,,,,,,,Aurora Center for Active Adults
-104.8635582,39.71564632,6,28,42,3,0,6284203511,511,https://gis.arapahoegov.com/mapsandphotos/electionprecinctpdfs/Precinct_511.pdf,AC,2022/02/02,AC,2025/10/20,1076,2025/10/20,0.05536816388,0.00011320521,Aurora Center for Active Adults,30 Del Mar Cir,Aurora,CO,80011,39.7291,-104.864,,,,,,,,,,,,,Aurora Center for Active Adults
-104.854672,39.71275346,6,28,42,3,0,6284203513,513,https://gis.arapahoegov.com/mapsandphotos/electionprecinctpdfs/Precinct_513.pdf,AC,2022/02/02,AC,2025/10/20,1016,2025/10/20,0.03345952949,0.00004226774,Aurora Center for Active Adults,30 Del Mar Cir,Aurora,CO,80011,39.7291,-104.864,,,,,,,,,,,,,Aurora Center for Active Adults
-104.8604118,39.70749514,6,29,42,3,0,6294203514,514,https://gis.arapahoegov.com/mapsandphotos/electionprecinctpdfs/Precinct_514.pdf,AC,2022/02/02,AC,2025/10/20,733,2025/10/20,0.03674448198,0.00008048955,Aurora Center for Active Adults,30 Del Mar Cir,Aurora,CO,80011,39.7291,-104.864,,,,,,,,,,,,,Aurora Center for Active Adults
-104.8509918,39.70722029,6,29,42,3,0,6294203515,515,https://gis.arapahoegov.com/mapsandphotos/electionprecinctpdfs/Precinct_515.pdf,AC,2022/02/02,AC,2025/10/20,1108,2025/10/20,0.0306470864,0.00005931125,Aurora Center for Active Adults,30 Del Mar Cir,Aurora,CO,80011,39.7291,-104.864,,,,,,,,,,,,,Aurora Center for Active Adults
-104.8612592,39.70171413,6,29,42,3,0,6294203516,516,https://gis.arapahoegov.com/mapsandphotos/electionprecinctpdfs/Precinct_516.pdf,AC,2022/02/02,AC,2025/10/20,837,2025/10/20,0.04813889163,0.00006705565,Aurora Center for Active Adults,30 Del Mar Cir,Aurora,CO,80011,39.7291,-104.864,,,,,,,,,,,,,Aurora Center for Active Adults
-104.8589005,39.69838301,6,29,42,3,0,6294203517,517,https://gis.arapahoegov.com/mapsandphotos/electionprecinctpdfs/Precinct_517.pdf,AC,2022/02/02,AC,2025/10/20,866,2025/10/20,0.03546722917,0.00005111756,Aurora Center for Active Adults,30 Del Mar Cir,Aurora,CO,80011,39.7291,-104.864,,,,,,,,,,,,,Aurora Center for Active Adults
-104.8419283,39.73829397,6,28,42,3,0,6284203528,528,https://gis.arapahoegov.com/mapsandphotos/electionprecinctpdfs/Precinct_528.pdf,AC,2022/02/02,AC,2025/10/20,625,2025/10/20,0.03432715051,0.00004218813,Aurora Public Schools Educational Service Center 4,1085 Peoria St,Aurora,CO,80011,39.7406,-104.8363,,,,,,,,,,,,,Aurora Public Schools Educational Service Center 4
-104.8326381,39.73808631,6,28,42,3,0,6284203529,529,https://gis.arapahoegov.com/mapsandphotos/electionprecinctpdfs/Precinct_529.pdf,AC,2022/02/02,AC,2025/10/20,935,2025/10/20,0.02721266456,0.00003665111,Aurora Public Schools Educational Service Center 4,1085 Peoria St,Aurora,CO,80011,39.7406,-104.8363,,,,,,,,,,,,,Aurora Public Schools Educational Service Center 4
-104.7957761,39.73685181,6,28,36,3,0,6283603549,549,https://gis.arapahoegov.com/mapsandphotos/electionprecinctpdfs/Precinct_549.pdf,AC,2022/02/02,AC,2025/10/20,576,2025/10/20,0.03303429663,0.0000641672,Aurora Public Schools Professional Learning & Conference Center,15771 E 1st Ave,Aurora,CO,80011,39.7411,-104.7988,,,,,,,,,,,,,Aurora Public Schools Professional Learning & Conference Center
-104.8049285,39.73852608,6,28,42,3,0,6284203548,548,https://gis.arapahoegov.com/mapsandphotos/electionprecinctpdfs/Precinct_548.pdf,AC,2022/02/02,AC,2025/10/20,486,2025/10/20,0.02633674977,0.00003092376,Aurora Public Schools Professional Learning & Conference Center,15771 E 1st Ave,Aurora,CO,80011,39.7411,-104.7988,,,,,,,,,,,,,Aurora Public Schools Professional Learning & Conference Center
-104.7959967,39.72954021,6,28,36,3,0,6283603547,547,https://gis.arapahoegov.com/mapsandphotos/electionprecinctpdfs/Precinct_547.pdf,AC,2022/02/02,AC,2025/10/20,1173,2025/10/20,0.03457017819,0.00007381675,Beck Recreation Center,800 Telluride St,Aurora,CO,80011,39.7316,-104.8071,,,,,,,,,,,,,Beck Recreation Center
-104.8136765,39.73385496,6,28,42,3,0,6284203531,531,https://gis.arapahoegov.com/mapsandphotos/electionprecinctpdfs/Precinct_531.pdf,AC,2022/02/02,AC,2025/10/20,991,2025/10/20,0.04773905113,0.00009935807,Beck Recreation Center,800 Telluride St,Aurora,CO,80011,39.7316,-104.8071,,,,,,,,,,,,,Beck Recreation Center
-104.8144894,39.71758516,6,28,42,3,0,6284203533,533,https://gis.arapahoegov.com/mapsandphotos/electionprecinctpdfs/Precinct_533.pdf,AC,2022/02/02,AC,2025/10/20,1605,2025/10/20,0.05064712333,0.0001497658,Heather Gardens,2888 S Heather Gardens Way,Aurora,CO,80014,39.7067,-104.8125,,,,,,,,,,,,,Beck Recreation Center
-104.8054244,39.73123795,6,28,42,3,0,6284203546,546,https://gis.arapahoegov.com/mapsandphotos/electionprecinctpdfs/Precinct_546.pdf,AC,2022/02/02,AC,2025/10/20,1102,2025/10/20,0.04287284066,0.0001070083,Beck Recreation Center,800 Telluride St,Aurora,CO,80011,39.7316,-104.8071,,,,,,,,,,,,,Beck Recreation Center
-104.9885243,39.61630398,6,16,38,3,0,6163803126,126,https://gis.arapahoegov.com/mapsandphotos/electionprecinctpdfs/Precinct_126.pdf,AC,2022/02/02,AC,2025/10/20,1036,2025/10/20,0.05046196834,0.00008859446,Bemis Public Library,6014 S Datura St,Littleton,CO,80120,39.6072,-105.026,,,,,,,,,,,,,Bemis Public Library
-105.0317227,39.61742741,6,16,38,3,0,6163803143,143,https://gis.arapahoegov.com/mapsandphotos/electionprecinctpdfs/Precinct_143.pdf,AC,2022/02/02,AC,2025/10/20,1559,2025/10/20,0.04731432496,0.00010978198,Bemis Public Library,6014 S Datura St,Littleton,CO,80120,39.6072,-105.026,,,,,,,,,,,,,Bemis Public Library
-105.0441725,39.61366311,6,16,38,3,0,6163803144,144,https://gis.arapahoegov.com/mapsandphotos/electionprecinctpdfs/Precinct_144.pdf,AC,2022/02/02,AC,2025/10/20,841,2025/10/20,0.05864685039,0.00013000616,Bemis Public Library,6014 S Datura St,Littleton,CO,80120,39.6072,-105.026,,,,,,,,,,,,,Bemis Public Library
-105.0482645,39.60630823,6,16,38,3,0,6163803146,146,https://gis.arapahoegov.com/mapsandphotos/electionprecinctpdfs/Precinct_146.pdf,AC,2022/02/02,AC,2025/10/20,840,2025/10/20,0.04709531094,0.00007569345,Bemis Public Library,6014 S Datura St,Littleton,CO,80120,39.6072,-105.026,,,,,,,,,,,,,Bemis Public Library
-105.0482494,39.59572416,6,16,38,3,0,6163803147,147,https://gis.arapahoegov.com/mapsandphotos/electionprecinctpdfs/Precinct_147.pdf,AC,2022/02/02,AC,2025/10/20,1511,2025/10/20,0.07989356834,0.00019217352,Bemis Public Library,6014 S Datura St,Littleton,CO,80120,39.6072,-105.026,,,,,,,,,,,,,Bemis Public Library
-105.035446,39.59927743,6,16,38,3,0,6163803149,149,https://gis.arapahoegov.com/mapsandphotos/electionprecinctpdfs/Precinct_149.pdf,AC,2022/02/02,AC,2025/10/20,1499,2025/10/20,0.08469805979,0.00028188075,Bemis Public Library,6014 S Datura St,Littleton,CO,80120,39.6072,-105.026,,,,,,,,,,,,,Bemis Public Library
-105.0315185,39.59172247,6,16,38,3,0,6163803150,150,https://gis.arapahoegov.com/mapsandphotos/electionprecinctpdfs/Precinct_150.pdf,AC,2022/02/02,AC,2025/10/20,1305,2025/10/20,0.1369741485,0.00041588843,Bemis Public Library,6014 S Datura St,Littleton,CO,80120,39.6072,-105.026,,,,,,,,,,,,,Bemis Public Library
-105.0225322,39.61743294,6,16,38,3,0,6163803152,152,https://gis.arapahoegov.com/mapsandphotos/electionprecinctpdfs/Precinct_152.pdf,AC,2022/02/02,AC,2025/10/20,867,2025/10/20,0.03740690395,0.00006432149,Bemis Public Library,6014 S Datura St,Littleton,CO,80120,39.6072,-105.026,,,,,,,,,,,,,Bemis Public Library
-105.011791,39.61968198,6,16,38,3,0,6163803153,153,https://gis.arapahoegov.com/mapsandphotos/electionprecinctpdfs/Precinct_153.pdf,AC,2022/02/02,AC,2025/10/20,1545,2025/10/20,0.05205267219,0.00014139592,Bemis Public Library,6014 S Datura St,Littleton,CO,80120,39.6072,-105.026,,,,,,,,,,,,,Bemis Public Library
-105.0159485,39.60711669,6,16,38,3,0,6163803154,154,https://gis.arapahoegov.com/mapsandphotos/electionprecinctpdfs/Precinct_154.pdf,AC,2022/02/02,AC,2025/10/20,1200,2025/10/20,0.04498175537,0.00012032021,Bemis Public Library,6014 S Datura St,Littleton,CO,80120,39.6072,-105.026,,,,,,,,,,,,,Bemis Public Library
-105.0091783,39.60523529,6,16,38,3,0,6163803158,158,https://gis.arapahoegov.com/mapsandphotos/electionprecinctpdfs/Precinct_158.pdf,AC,2022/02/02,AC,2025/10/20,944,2025/10/20,0.04196679309,0.00007469028,Bemis Public Library,6014 S Datura St,Littleton,CO,80120,39.6072,-105.026,,,,,,,,,,,,,Bemis Public Library
-105.0045118,39.60780405,6,16,38,3,0,6163803159,159,https://gis.arapahoegov.com/mapsandphotos/electionprecinctpdfs/Precinct_159.pdf,AC,2022/02/02,AC,2025/10/20,885,2025/10/20,0.03116737373,0.00005125025,Bemis Public Library,6014 S Datura St,Littleton,CO,80120,39.6072,-105.026,,,,,,,,,,,,,Bemis Public Library
-104.9977855,39.60862027,6,16,38,3,0,6163803160,160,https://gis.arapahoegov.com/mapsandphotos/electionprecinctpdfs/Precinct_160.pdf,AC,2022/02/02,AC,2025/10/20,934,2025/10/20,0.04293219225,0.00008719485,Bemis Public Library,6014 S Datura St,Littleton,CO,80120,39.6072,-105.026,,,,,,,,,,,,,Bemis Public Library
-105.0025941,39.61656346,6,16,38,3,0,6163803161,161,https://gis.arapahoegov.com/mapsandphotos/electionprecinctpdfs/Precinct_161.pdf,AC,2022/02/02,AC,2025/10/20,819,2025/10/20,0.03330226494,0.00006009697,Bemis Public Library,6014 S Datura St,Littleton,CO,80120,39.6072,-105.026,,,,,,,,,,,,,Bemis Public Library
-104.9973396,39.61956067,6,16,38,3,0,6163803162,162,https://gis.arapahoegov.com/mapsandphotos/electionprecinctpdfs/Precinct_162.pdf,AC,2022/02/02,AC,2025/10/20,934,2025/10/20,0.0333640112,0.00004482062,Bemis Public Library,6014 S Datura St,Littleton,CO,80120,39.6072,-105.026,,,,,,,,,,,,,Bemis Public Library
-104.7642462,39.73272842,6,28,36,3,0,6283603550,550,https://gis.arapahoegov.com/mapsandphotos/electionprecinctpdfs/Precinct_550.pdf,AC,2022/02/02,AC,2025/10/20,88,2025/10/20,0.1508577783,0.00079909124,Central Recreation Center,18150 E Vassar Pl,Aurora,CO,80013,39.737,-104.774,,,,,,,,,,,,,Central Recreation Center
-104.9363795,39.58421181,6,16,37,3,0,6163703148,148,https://gis.arapahoegov.com/mapsandphotos/electionprecinctpdfs/Precinct_148.pdf,AC,2022/02/02,AC,2025/10/20,1057,2025/10/20,0.03955102282,0.00007725175,Cherry Creek School District Instructional Support Facility,5416 S Riviera Way,Centennial,CO,80112,39.5794,-104.9389,,,,,,,,,,,,,Cherry Creek School District Instructional Support Facility
-104.9338765,39.57272255,6,16,37,3,0,6163703157,157,https://gis.arapahoegov.com/mapsandphotos/electionprecinctpdfs/Precinct_157.pdf,AC,2022/02/02,AC,2025/10/20,709,2025/10/20,0.06419553477,0.00017777236,Cherry Creek School District Instructional Support Facility,5416 S Riviera Way,Centennial,CO,80112,39.5794,-104.9389,,,,,,,,,,,,,Cherry Creek School District Instructional Support Facility
-104.9269528,39.57606796,6,16,37,3,0,6163703181,181,https://gis.arapahoegov.com/mapsandphotos/electionprecinctpdfs/Precinct_181.pdf,AC,2022/02/02,AC,2025/10/20,931,2025/10/20,0.04080836713,0.0000745037,Cherry Creek School District Instructional Support Facility,5416 S Riviera Way,Centennial,CO,80112,39.5794,-104.9389,,,,,,,,,,,,,Cherry Creek School District Instructional Support Facility
-104.938994,39.56771444,6,16,37,3,1,6163703199,199,https://gis.arapahoegov.com/mapsandphotos/electionprecinctpdfs/Precinct_199.pdf,AC,2022/02/02,AC,2025/10/20,219,2025/10/20,0.02629839154,0.00001844073,Cherry Creek School District Instructional Support Facility,5416 S Riviera Way,Centennial,CO,80112,39.5794,-104.9389,,,,,,,,,,,,,Cherry Creek School District Instructional Support Facility
-104.9275356,39.60594423,6,16,37,3,0,6163703209,209,https://gis.arapahoegov.com/mapsandphotos/electionprecinctpdfs/Precinct_209.pdf,AC,2022/02/02,AC,2025/10/20,1033,2025/10/20,0.03334213525,0.00006814818,Cherry Creek School District Instructional Support Facility,5416 S Riviera Way,Centennial,CO,80112,39.5794,-104.9389,,,,,,,,,,,,,Cherry Creek School District Instructional Support Facility
-104.930563,39.59856885,6,16,37,3,0,6163703210,210,https://gis.arapahoegov.com/mapsandphotos/electionprecinctpdfs/Precinct_210.pdf,AC,2022/02/02,AC,2025/10/20,1654,2025/10/20,0.05646856409,0.0001110413,Cherry Creek School District Instructional Support Facility,5416 S Riviera Way,Centennial,CO,80112,39.5794,-104.9389,,,,,,,,,,,,,Cherry Creek School District Instructional Support Facility
-104.9368471,39.59151303,6,16,37,3,0,6163703211,211,https://gis.arapahoegov.com/mapsandphotos/electionprecinctpdfs/Precinct_211.pdf,AC,2022/02/02,AC,2025/10/20,949,2025/10/20,0.03234453214,0.00006417597,Cherry Creek School District Instructional Support Facility,5416 S Riviera Way,Centennial,CO,80112,39.5794,-104.9389,,,,,,,,,,,,,Cherry Creek School District Instructional Support Facility
-104.9277675,39.59155948,6,16,37,3,0,6163703212,212,https://gis.arapahoegov.com/mapsandphotos/electionprecinctpdfs/Precinct_212.pdf,AC,2022/02/02,AC,2025/10/20,1293,2025/10/20,0.03275970911,0.00006606519,Cherry Creek School District Instructional Support Facility,5416 S Riviera Way,Centennial,CO,80112,39.5794,-104.9389,,,,,,,,,,,,,Cherry Creek School District Instructional Support Facility
-104.9269089,39.58441718,6,16,37,3,0,6163703214,214,https://gis.arapahoegov.com/mapsandphotos/electionprecinctpdfs/Precinct_214.pdf,AC,2022/02/02,AC,2025/10/20,883,2025/10/20,0.03308279851,0.0000621513,Cherry Creek School District Instructional Support Facility,5416 S Riviera Way,Centennial,CO,80112,39.5794,-104.9389,,,,,,,,,,,,,Cherry Creek School District Instructional Support Facility
-104.9182942,39.5696492,6,16,37,3,0,6163703217,217,https://gis.arapahoegov.com/mapsandphotos/electionprecinctpdfs/Precinct_217.pdf,AC,2022/02/02,AC,2025/10/20,882,2025/10/20,0.03476737696,0.00006847049,Cherry Creek School District Instructional Support Facility,5416 S Riviera Way,Centennial,CO,80112,39.5794,-104.9389,,,,,,,,,,,,,Cherry Creek School District Instructional Support Facility
-104.918346,39.57691257,6,16,37,3,0,6163703219,219,https://gis.arapahoegov.com/mapsandphotos/electionprecinctpdfs/Precinct_219.pdf,AC,2022/02/02,AC,2025/10/20,1173,2025/10/20,0.03297520698,0.00006669345,Cherry Creek School District Instructional Support Facility,5416 S Riviera Way,Centennial,CO,80112,39.5794,-104.9389,,,,,,,,,,,,,Cherry Creek School District Instructional Support Facility
-104.9165258,39.58451049,6,16,37,3,0,6163703221,221,https://gis.arapahoegov.com/mapsandphotos/electionprecinctpdfs/Precinct_221.pdf,AC,2022/02/02,AC,2025/10/20,817,2025/10/20,0.04455260987,0.00010473743,Cherry Creek School District Instructional Support Facility,5416 S Riviera Way,Centennial,CO,80112,39.5794,-104.9389,,,,,,,,,,,,,Cherry Creek School District Instructional Support Facility
-104.9175076,39.59212579,6,16,37,3,0,6163703223,223,https://gis.arapahoegov.com/mapsandphotos/electionprecinctpdfs/Precinct_223.pdf,AC,2022/02/02,AC,2025/10/20,1108,2025/10/20,0.0386185308,0.00006666403,Cherry Creek School District Instructional Support Facility,5416 S Riviera Way,Centennial,CO,80112,39.5794,-104.9389,,,,,,,,,,,,,Cherry Creek School District Instructional Support Facility
-104.9170055,39.59880307,6,16,37,3,0,6163703225,225,https://gis.arapahoegov.com/mapsandphotos/electionprecinctpdfs/Precinct_225.pdf,AC,2022/02/02,AC,2025/10/20,987,2025/10/20,0.05021520618,0.0000833092,Cherry Creek School District Instructional Support Facility,5416 S Riviera Way,Centennial,CO,80112,39.5794,-104.9389,,,,,,,,,,,,,Cherry Creek School District Instructional Support Facility
-104.9490045,39.56954234,6,16,38,3,1,6163803191,191,https://gis.arapahoegov.com/mapsandphotos/electionprecinctpdfs/Precinct_191.pdf,AC,2022/02/02,AC,2025/10/20,905,2025/10/20,0.03921609549,0.00006553034,Cherry Creek School District Instructional Support Facility,5416 S Riviera Way,Centennial,CO,80112,39.5794,-104.9389,,,,,,,,,,,,,Cherry Creek School District Instructional Support Facility
-104.944916,39.57517804,6,16,38,3,0,6163803192,192,https://gis.arapahoegov.com/mapsandphotos/electionprecinctpdfs/Precinct_192.pdf,AC,2022/02/02,AC,2025/10/20,1111,2025/10/20,0.0386348492,0.00007753687,Cherry Creek School District Instructional Support Facility,5416 S Riviera Way,Centennial,CO,80112,39.5794,-104.9389,,,,,,,,,,,,,Cherry Creek School District Instructional Support Facility
-104.8044655,39.63643115,6,27,40,3,0,6274003291,291,https://gis.arapahoegov.com/mapsandphotos/electionprecinctpdfs/Precinct_291.pdf,AC,2022/02/02,AC,2025/10/20,1122,2025/10/20,0.03136386745,0.0000467849,City of Aurora Municipal Center,15151 E Alameda Pkwy,Aurora,CO,80012,39.7008,-104.7999,,,,,,,,,,,,,City of Aurora Municipal Center
-104.7988796,39.70976934,6,28,42,3,0,6284203544,544,https://gis.arapahoegov.com/mapsandphotos/electionprecinctpdfs/Precinct_544.pdf,AC,2022/02/02,AC,2025/10/20,1474,2025/10/20,0.05380772348,0.00008102158,City of Aurora Municipal Center,15151 E Alameda Pkwy,Aurora,CO,80012,39.7008,-104.7999,,,,,,,,,,,,,City of Aurora Municipal Center
-104.8209661,39.6477681,6,29,40,3,0,6294003446,446,https://gis.arapahoegov.com/mapsandphotos/electionprecinctpdfs/Precinct_446.pdf,AC,2022/02/02,AC,2025/10/20,835,2025/10/20,0.06127784139,0.00014240817,City of Aurora Municipal Center,15151 E Alameda Pkwy,Aurora,CO,80012,39.7008,-104.7999,,,,,,,,,,,,,City of Aurora Municipal Center
-104.812455,39.64579531,6,29,40,3,1,6294003447,447,https://gis.arapahoegov.com/mapsandphotos/electionprecinctpdfs/Precinct_447.pdf,AC,2022/02/02,AC,2025/10/20,1664,2025/10/20,0.03853413507,0.00006823927,City of Aurora Municipal Center,15151 E Alameda Pkwy,Aurora,CO,80012,39.7008,-104.7999,,,,,,,,,,,,,City of Aurora Municipal Center
-104.7868621,39.66308096,6,29,40,3,0,6294003453,453,https://gis.arapahoegov.com/mapsandphotos/electionprecinctpdfs/Precinct_453.pdf,AC,2022/02/02,AC,2025/10/20,943,2025/10/20,0.03506062519,0.00006251511,City of Aurora Municipal Center,15151 E Alameda Pkwy,Aurora,CO,80012,39.7008,-104.7999,,,,,,,,,,,,,City of Aurora Municipal Center
-104.800198,39.64078178,6,29,40,3,0,6294003461,461,https://gis.arapahoegov.com/mapsandphotos/electionprecinctpdfs/Precinct_461.pdf,AC,2022/02/02,AC,2025/10/20,1352,2025/10/20,0.03923303043,0.00005513892,City of Aurora Municipal Center,15151 E Alameda Pkwy,Aurora,CO,80012,39.7008,-104.7999,,,,,,,,,,,,,City of Aurora Municipal Center
-104.8068362,39.64648725,6,29,40,3,0,6294003462,462,https://gis.arapahoegov.com/mapsandphotos/electionprecinctpdfs/Precinct_462.pdf,AC,2022/02/02,AC,2025/10/20,1265,2025/10/20,0.04564584423,0.0000885895,City of Aurora Municipal Center,15151 E Alameda Pkwy,Aurora,CO,80012,39.7008,-104.7999,,,,,,,,,,,,,City of Aurora Municipal Center
-104.7965752,39.64561901,6,29,40,3,0,6294003463,463,https://gis.arapahoegov.com/mapsandphotos/electionprecinctpdfs/Precinct_463.pdf,AC,2022/02/02,AC,2025/10/20,1480,2025/10/20,0.04954592261,0.00008943236,City of Aurora Municipal Center,15151 E Alameda Pkwy,Aurora,CO,80012,39.7008,-104.7999,,,,,,,,,,,,,City of Aurora Municipal Center
-104.7972136,39.65133756,6,29,40,3,0,6294003464,464,https://gis.arapahoegov.com/mapsandphotos/electionprecinctpdfs/Precinct_464.pdf,AC,2022/02/02,AC,2025/10/20,940,2025/10/20,0.03100153072,0.0000408547,City of Aurora Municipal Center,15151 E Alameda Pkwy,Aurora,CO,80012,39.7008,-104.7999,,,,,,,,,,,,,City of Aurora Municipal Center
-104.8355933,39.66543014,6,29,41,3,0,6294103426,426,https://gis.arapahoegov.com/mapsandphotos/electionprecinctpdfs/Precinct_426.pdf,AC,2022/02/02,AC,2025/10/20,780,2025/10/20,0.02506960931,0.0000344458,City of Aurora Municipal Center,15151 E Alameda Pkwy,Aurora,CO,80012,39.7008,-104.7999,,,,,,,,,,,,,City of Aurora Municipal Center
-104.8145876,39.69127248,6,29,41,3,0,6294103435,435,https://gis.arapahoegov.com/mapsandphotos/electionprecinctpdfs/Precinct_435.pdf,AC,2022/02/02,AC,2025/10/20,1502,2025/10/20,0.04111286573,0.00009974242,City of Aurora Municipal Center,15151 E Alameda Pkwy,Aurora,CO,80012,39.7008,-104.7999,,,,,,,,,,,,,City of Aurora Municipal Center
-104.814639,39.68033057,6,29,41,3,0,6294103437,437,https://gis.arapahoegov.com/mapsandphotos/electionprecinctpdfs/Precinct_437.pdf,AC,2022/02/02,AC,2025/10/20,1529,2025/10/20,0.04232517709,0.00010601029,City of Aurora Municipal Center,15151 E Alameda Pkwy,Aurora,CO,80012,39.7008,-104.7999,,,,,,,,,,,,,City of Aurora Municipal Center
-104.8244954,39.67500502,6,29,41,3,0,6294103438,438,https://gis.arapahoegov.com/mapsandphotos/electionprecinctpdfs/Precinct_438.pdf,AC,2022/02/02,AC,2025/10/20,1493,2025/10/20,0.04876732026,0.0001298916,City of Aurora Municipal Center,15151 E Alameda Pkwy,Aurora,CO,80012,39.7008,-104.7999,,,,,,,,,,,,,City of Aurora Municipal Center
-104.81606,39.67173198,6,29,41,3,0,6294103439,439,https://gis.arapahoegov.com/mapsandphotos/electionprecinctpdfs/Precinct_439.pdf,AC,2022/02/02,AC,2025/10/20,1025,2025/10/20,0.03461819456,0.00006040893,City of Aurora Municipal Center,15151 E Alameda Pkwy,Aurora,CO,80012,39.7008,-104.7999,,,,,,,,,,,,,City of Aurora Municipal Center
-104.8239096,39.66612924,6,29,41,3,0,6294103440,440,https://gis.arapahoegov.com/mapsandphotos/electionprecinctpdfs/Precinct_440.pdf,AC,2022/02/02,AC,2025/10/20,846,2025/10/20,0.02976860458,0.00002725349,City of Aurora Municipal Center,15151 E Alameda Pkwy,Aurora,CO,80012,39.7008,-104.7999,,,,,,,,,,,,,City of Aurora Municipal Center
-104.8266926,39.66324883,6,29,41,3,0,6294103441,441,https://gis.arapahoegov.com/mapsandphotos/electionprecinctpdfs/Precinct_441.pdf,AC,2022/02/02,AC,2025/10/20,819,2025/10/20,0.01519407558,0.00001144554,City of Aurora Municipal Center,15151 E Alameda Pkwy,Aurora,CO,80012,39.7008,-104.7999,,,,,,,,,,,,,City of Aurora Municipal Center
-104.8343122,39.66145916,6,29,41,3,0,6294103442,442,https://gis.arapahoegov.com/mapsandphotos/electionprecinctpdfs/Precinct_442.pdf,AC,2022/02/02,AC,2025/10/20,764,2025/10/20,0.04297413151,0.00005546847,City of Aurora Municipal Center,15151 E Alameda Pkwy,Aurora,CO,80012,39.7008,-104.7999,,,,,,,,,,,,,City of Aurora Municipal Center
-104.8314612,39.65994665,6,29,41,3,0,6294103443,443,https://gis.arapahoegov.com/mapsandphotos/electionprecinctpdfs/Precinct_443.pdf,AC,2022/02/02,AC,2025/10/20,531,2025/10/20,0.02209644752,0.00001388136,City of Aurora Municipal Center,15151 E Alameda Pkwy,Aurora,CO,80012,39.7008,-104.7999,,,,,,,,,,,,,City of Aurora Municipal Center
-104.8190502,39.66146379,6,29,41,3,0,6294103444,444,https://gis.arapahoegov.com/mapsandphotos/electionprecinctpdfs/Precinct_444.pdf,AC,2022/02/02,AC,2025/10/20,719,2025/10/20,0.08694664033,0.00026200495,City of Aurora Municipal Center,15151 E Alameda Pkwy,Aurora,CO,80012,39.7008,-104.7999,,,,,,,,,,,,,City of Aurora Municipal Center
-104.8132366,39.65663845,6,29,41,3,0,6294103445,445,https://gis.arapahoegov.com/mapsandphotos/electionprecinctpdfs/Precinct_445.pdf,AC,2022/02/02,AC,2025/10/20,722,2025/10/20,0.02838022481,0.00004751964,City of Aurora Municipal Center,15151 E Alameda Pkwy,Aurora,CO,80012,39.7008,-104.7999,,,,,,,,,,,,,City of Aurora Municipal Center
-104.7951657,39.6566799,6,29,41,3,0,6294103465,465,https://gis.arapahoegov.com/mapsandphotos/electionprecinctpdfs/Precinct_465.pdf,AC,2022/02/02,AC,2025/10/20,695,2025/10/20,0.03037896982,0.00005979407,City of Aurora Municipal Center,15151 E Alameda Pkwy,Aurora,CO,80012,39.7008,-104.7999,,,,,,,,,,,,,City of Aurora Municipal Center
-104.8048329,39.65642178,6,29,41,3,0,6294103466,466,https://gis.arapahoegov.com/mapsandphotos/electionprecinctpdfs/Precinct_466.pdf,AC,2022/02/02,AC,2025/10/20,990,2025/10/20,0.03601315944,0.0000699615,City of Aurora Municipal Center,15151 E Alameda Pkwy,Aurora,CO,80012,39.7008,-104.7999,,,,,,,,,,,,,City of Aurora Municipal Center
-104.8049527,39.66305188,6,29,41,3,0,6294103467,467,https://gis.arapahoegov.com/mapsandphotos/electionprecinctpdfs/Precinct_467.pdf,AC,2022/02/02,AC,2025/10/20,991,2025/10/20,0.03386783409,0.00006730619,City of Aurora Municipal Center,15151 E Alameda Pkwy,Aurora,CO,80012,39.7008,-104.7999,,,,,,,,,,,,,City of Aurora Municipal Center
-104.7962047,39.66420046,6,29,41,3,0,6294103468,468,https://gis.arapahoegov.com/mapsandphotos/electionprecinctpdfs/Precinct_468.pdf,AC,2022/02/02,AC,2025/10/20,943,2025/10/20,0.03552119144,0.00007227222,City of Aurora Municipal Center,15151 E Alameda Pkwy,Aurora,CO,80012,39.7008,-104.7999,,,,,,,,,,,,,City of Aurora Municipal Center
-104.8025747,39.67111098,6,29,41,3,0,6294103469,469,https://gis.arapahoegov.com/mapsandphotos/electionprecinctpdfs/Precinct_469.pdf,AC,2022/02/02,AC,2025/10/20,756,2025/10/20,0.04469199141,0.00004996361,City of Aurora Municipal Center,15151 E Alameda Pkwy,Aurora,CO,80012,39.7008,-104.7999,,,,,,,,,,,,,City of Aurora Municipal Center
-104.8063912,39.67843037,6,29,41,3,0,6294103470,470,https://gis.arapahoegov.com/mapsandphotos/electionprecinctpdfs/Precinct_470.pdf,AC,2022/02/02,AC,2025/10/20,1228,2025/10/20,0.02907390839,0.00005185497,City of Aurora Municipal Center,15151 E Alameda Pkwy,Aurora,CO,80012,39.7008,-104.7999,,,,,,,,,,,,,City of Aurora Municipal Center
-104.7970101,39.67780907,6,29,41,3,0,6294103471,471,https://gis.arapahoegov.com/mapsandphotos/electionprecinctpdfs/Precinct_471.pdf,AC,2022/02/02,AC,2025/10/20,1189,2025/10/20,0.04073952644,0.00010107418,City of Aurora Municipal Center,15151 E Alameda Pkwy,Aurora,CO,80012,39.7008,-104.7999,,,,,,,,,,,,,City of Aurora Municipal Center
-104.8072653,39.69082988,6,29,41,3,0,6294103537,537,https://gis.arapahoegov.com/mapsandphotos/electionprecinctpdfs/Precinct_537.pdf,AC,2022/02/02,AC,2025/10/20,1182,2025/10/20,0.03384754343,0.00005619817,City of Aurora Municipal Center,15151 E Alameda Pkwy,Aurora,CO,80012,39.7008,-104.7999,,,,,,,,,,,,,City of Aurora Municipal Center
-104.8011342,39.69060933,6,29,41,3,0,6294103538,538,https://gis.arapahoegov.com/mapsandphotos/electionprecinctpdfs/Precinct_538.pdf,AC,2022/02/02,AC,2025/10/20,1243,2025/10/20,0.03898592395,0.00007338025,City of Aurora Municipal Center,15151 E Alameda Pkwy,Aurora,CO,80012,39.7008,-104.7999,,,,,,,,,,,,,City of Aurora Municipal Center
-104.8004414,39.68388366,6,29,41,3,0,6294103564,564,https://gis.arapahoegov.com/mapsandphotos/electionprecinctpdfs/Precinct_564.pdf,AC,2022/02/02,AC,2025/10/20,813,2025/10/20,0.04502990343,0.00006838398,City of Aurora Municipal Center,15151 E Alameda Pkwy,Aurora,CO,80012,39.7008,-104.7999,,,,,,,,,,,,,City of Aurora Municipal Center
-104.803577,39.70244107,6,29,42,3,0,6294203541,541,https://gis.arapahoegov.com/mapsandphotos/electionprecinctpdfs/Precinct_541.pdf,AC,2022/02/02,AC,2025/10/20,778,2025/10/20,0.03479727518,0.00004790517,City of Aurora Municipal Center,15151 E Alameda Pkwy,Aurora,CO,80012,39.7008,-104.7999,,,,,,,,,,,,,City of Aurora Municipal Center
-104.796123,39.70362209,6,29,42,3,0,6294203543,543,https://gis.arapahoegov.com/mapsandphotos/electionprecinctpdfs/Precinct_543.pdf,AC,2022/02/02,AC,2025/10/20,1026,2025/10/20,0.03225743643,0.00006570701,City of Aurora Municipal Center,15151 E Alameda Pkwy,Aurora,CO,80012,39.7008,-104.7999,,,,,,,,,,,,,City of Aurora Municipal Center
-105.048855,39.62353819,6,16,38,3,0,6163803141,141,https://gis.arapahoegov.com/mapsandphotos/electionprecinctpdfs/Precinct_141.pdf,AC,2022/02/02,AC,2025/10/20,477,2025/10/20,0.0529344259,0.00014718219,Bemis Public Library,6014 S Datura St,Littleton,CO,80120,39.6072,-105.026,,,,,,,,,,,,,City of Sheridan Municipal Building
-105.0392596,39.62308639,6,16,38,3,0,6163803142,142,https://gis.arapahoegov.com/mapsandphotos/electionprecinctpdfs/Precinct_142.pdf,AC,2022/02/02,AC,2025/10/20,949,2025/10/20,0.04134773316,0.00008335093,Bemis Public Library,6014 S Datura St,Littleton,CO,80120,39.6072,-105.026,,,,,,,,,,,,,City of Sheridan Municipal Building
-105.019753,39.62393839,6,16,38,3,0,6163803151,151,https://gis.arapahoegov.com/mapsandphotos/electionprecinctpdfs/Precinct_151.pdf,AC,2022/02/02,AC,2025/10/20,1021,2025/10/20,0.06026080351,0.00008240714,Bemis Public Library,6014 S Datura St,Littleton,CO,80120,39.6072,-105.026,,,,,,,,,,,,,City of Sheridan Municipal Building
-105.029567,39.64944859,6,26,3,3,0,6260303101,101,https://gis.arapahoegov.com/mapsandphotos/electionprecinctpdfs/Precinct_101.pdf,AC,2022/02/02,AC,2025/10/20,1610,2025/10/20,0.04887845784,0.00012356439,City of Sheridan Municipal Building,4101 S Federal Blvd,Sheridan,CO,80110,39.6515,-105.0212,,,,,,,,,,,,,City of Sheridan Municipal Building
-105.0143341,39.64681685,6,26,3,3,0,6260303102,102,https://gis.arapahoegov.com/mapsandphotos/electionprecinctpdfs/Precinct_102.pdf,AC,2022/02/02,AC,2025/10/20,1389,2025/10/20,0.1159668835,0.00049006895,City of Sheridan Municipal Building,4101 S Federal Blvd,Sheridan,CO,80110,39.6515,-105.0212,,,,,,,,,,,,,City of Sheridan Municipal Building
-105.0274704,39.63867132,6,26,3,3,0,6260303103,103,https://gis.arapahoegov.com/mapsandphotos/electionprecinctpdfs/Precinct_103.pdf,AC,2022/02/02,AC,2025/10/20,869,2025/10/20,0.04109523911,0.00006920927,City of Sheridan Municipal Building,4101 S Federal Blvd,Sheridan,CO,80110,39.6515,-105.0212,,,,,,,,,,,,,City of Sheridan Municipal Building
-105.0084259,39.66608061,6,26,3,3,0,6260303104,104,https://gis.arapahoegov.com/mapsandphotos/electionprecinctpdfs/Precinct_104.pdf,AC,2022/02/02,AC,2025/10/20,844,2025/10/20,0.1021306243,0.00026608575,City of Sheridan Municipal Building,4101 S Federal Blvd,Sheridan,CO,80110,39.6515,-105.0212,,,,,,,,,,,,,City of Sheridan Municipal Building
-104.991751,39.66122898,6,26,3,3,0,6260303105,105,https://gis.arapahoegov.com/mapsandphotos/electionprecinctpdfs/Precinct_105.pdf,AC,2022/02/02,AC,2025/10/20,1921,2025/10/20,0.04917501013,0.00011341623,Englewood Civic Center,1000 Englewood Pkwy,Englewood,CO,80110,39.6476,-104.9877,,,,,,,,,,,,,City of Sheridan Municipal Building
-104.9969691,39.65654862,6,26,3,3,0,6260303106,106,https://gis.arapahoegov.com/mapsandphotos/electionprecinctpdfs/Precinct_106.pdf,AC,2022/02/02,AC,2025/10/20,581,2025/10/20,0.03253289722,0.00004916074,Englewood Civic Center,1000 Englewood Pkwy,Englewood,CO,80110,39.6476,-104.9877,,,,,,,,,,,,,City of Sheridan Municipal Building
-104.9852448,39.66227681,6,26,3,3,0,6260303107,107,https://gis.arapahoegov.com/mapsandphotos/electionprecinctpdfs/Precinct_107.pdf,AC,2022/02/02,AC,2025/10/20,988,2025/10/20,0.0311769997,0.00005099382,Englewood Civic Center,1000 Englewood Pkwy,Englewood,CO,80110,39.6476,-104.9877,,,,,,,,,,,,,City of Sheridan Municipal Building
-104.9781839,39.66498765,6,26,3,3,0,6260303108,108,https://gis.arapahoegov.com/mapsandphotos/electionprecinctpdfs/Precinct_108.pdf,AC,2022/02/02,AC,2025/10/20,727,2025/10/20,0.02968876782,0.00005071359,Englewood Civic Center,1000 Englewood Pkwy,Englewood,CO,80110,39.6476,-104.9877,,,,,,,,,,,,,City of Sheridan Municipal Building
-105.022904,39.63011054,6,26,3,3,0,6260303122,122,https://gis.arapahoegov.com/mapsandphotos/electionprecinctpdfs/Precinct_122.pdf,AC,2022/02/02,AC,2025/10/20,1357,2025/10/20,0.1050752881,0.00016709387,City of Sheridan Municipal Building,4101 S Federal Blvd,Sheridan,CO,80110,39.6515,-105.0212,,,,,,,,,,,,,City of Sheridan Municipal Building
-104.8292036,39.73147211,6,28,42,3,0,6284203527,527,https://gis.arapahoegov.com/mapsandphotos/electionprecinctpdfs/Precinct_527.pdf,AC,2022/02/02,AC,2025/10/20,1253,2025/10/20,0.05243384293,0.00010200766,Community College of Aurora CentreTech Campus,16000 E CentreTech Pkwy,Aurora,CO,80011,39.7329,-104.8304,,,,,,,,,,,,,Community College of Aurora CentreTech Campus
-104.8208846,39.73230337,6,28,42,3,0,6284203530,530,https://gis.arapahoegov.com/mapsandphotos/electionprecinctpdfs/Precinct_530.pdf,AC,2022/02/02,AC,2025/10/20,1177,2025/10/20,0.04873762188,0.0001223611,Community College of Aurora CentreTech Campus,16000 E CentreTech Pkwy,Aurora,CO,80011,39.7329,-104.8304,,,,,,,,,,,,,Community College of Aurora CentreTech Campus
-104.822804,39.71798793,6,28,42,3,0,6284203532,532,https://gis.arapahoegov.com/mapsandphotos/electionprecinctpdfs/Precinct_532.pdf,AC,2022/02/02,AC,2025/10/20,1003,2025/10/20,0.04187426279,0.00009866678,Heather Gardens,2888 S Heather Gardens Way,Aurora,CO,80014,39.7067,-104.8125,,,,,,,,,,,,,Community College of Aurora CentreTech Campus
-104.9174714,39.66236835,1,32,9,3,0,1320903137,137,https://gis.arapahoegov.com/mapsandphotos/electionprecinctpdfs/Precinct_137.pdf,AC,2022/02/02,AC,2025/10/20,930,2025/10/20,0.04239513359,0.00006559307,Cook Park Recreation Center,7100 Cherry Creek S Dr,Denver,CO,80224,39.6948,-104.9162,,,,,,,,,,,,,Cook Park Recreation Center
-104.919925,39.67096341,1,32,9,3,0,1320903138,138,https://gis.arapahoegov.com/mapsandphotos/electionprecinctpdfs/Precinct_138.pdf,AC,2022/02/02,AC,2025/10/20,427,2025/10/20,0.02276026221,0.00002893291,Cook Park Recreation Center,7100 Cherry Creek S Dr,Denver,CO,80224,39.6948,-104.9162,,,,,,,,,,,,,Cook Park Recreation Center
-104.9268481,39.6718792,1,32,9,3,0,1320903139,139,https://gis.arapahoegov.com/mapsandphotos/electionprecinctpdfs/Precinct_139.pdf,AC,2022/02/02,AC,2025/10/20,731,2025/10/20,0.05934441615,0.0000618919,Cook Park Recreation Center,7100 Cherry Creek S Dr,Denver,CO,80224,39.6948,-104.9162,,,,,,,,,,,,,Cook Park Recreation Center
-104.9352656,39.70585753,1,32,9,3,0,1320903460,460,https://gis.arapahoegov.com/mapsandphotos/electionprecinctpdfs/Precinct_460.pdf,AC,2022/02/02,AC,2025/10/20,1370,2025/10/20,0.06281450995,0.00011115381,Cook Park Recreation Center,7100 Cherry Creek S Dr,Denver,CO,80224,39.6948,-104.9162,,,,,,,,,,,,,Cook Park Recreation Center
-104.9349924,39.69797089,1,32,9,3,0,1320903474,474,https://gis.arapahoegov.com/mapsandphotos/electionprecinctpdfs/Precinct_474.pdf,AC,2022/02/02,AC,2025/10/20,1079,2025/10/20,0.05641673899,0.00004497932,Cook Park Recreation Center,7100 Cherry Creek S Dr,Denver,CO,80224,39.6948,-104.9162,,,,,,,,,,,,,Cook Park Recreation Center
-104.8983253,39.69379584,6,26,9,3,0,6260903401,401,https://gis.arapahoegov.com/mapsandphotos/electionprecinctpdfs/Precinct_401.pdf,AC,2022/02/02,AC,2025/10/20,1193,2025/10/20,0.05188941498,0.00005729902,Cook Park Recreation Center,7100 Cherry Creek S Dr,Denver,CO,80224,39.6948,-104.9162,,,,,,,,,,,,,Cook Park Recreation Center
-104.8965823,39.67729958,6,26,9,3,1,6260903403,403,https://gis.arapahoegov.com/mapsandphotos/electionprecinctpdfs/Precinct_403.pdf,AC,2022/02/02,AC,2025/10/20,797,2025/10/20,0.03782390757,0.00004951043,Cook Park Recreation Center,7100 Cherry Creek S Dr,Denver,CO,80224,39.6948,-104.9162,,,,,,,,,,,,,Cook Park Recreation Center
-104.8959821,39.67227439,6,26,9,3,0,6260903404,404,https://gis.arapahoegov.com/mapsandphotos/electionprecinctpdfs/Precinct_404.pdf,AC,2022/02/02,AC,2025/10/20,683,2025/10/20,0.04140938149,0.00006988432,Cook Park Recreation Center,7100 Cherry Creek S Dr,Denver,CO,80224,39.6948,-104.9162,,,,,,,,,,,,,Cook Park Recreation Center
-104.8997268,39.66924606,6,26,9,3,0,6260903405,405,https://gis.arapahoegov.com/mapsandphotos/electionprecinctpdfs/Precinct_405.pdf,AC,2022/02/02,AC,2025/10/20,766,2025/10/20,0.0238352236,0.00002713489,Cook Park Recreation Center,7100 Cherry Creek S Dr,Denver,CO,80224,39.6948,-104.9162,,,,,,,,,,,,,Cook Park Recreation Center
-104.8884,39.67820204,6,26,9,3,0,6260903406,406,https://gis.arapahoegov.com/mapsandphotos/electionprecinctpdfs/Precinct_406.pdf,AC,2022/02/02,AC,2025/10/20,573,2025/10/20,0.02761998626,0.00004716033,Cook Park Recreation Center,7100 Cherry Creek S Dr,Denver,CO,80224,39.6948,-104.9162,,,,,,,,,,,,,Cook Park Recreation Center
-104.8828381,39.6698621,6,26,9,3,0,6260903407,407,https://gis.arapahoegov.com/mapsandphotos/electionprecinctpdfs/Precinct_407.pdf,AC,2022/02/02,AC,2025/10/20,1451,2025/10/20,0.06367470501,0.00013848035,Cook Park Recreation Center,7100 Cherry Creek S Dr,Denver,CO,80224,39.6948,-104.9162,,,,,,,,,,,,,Cook Park Recreation Center
-104.8787846,39.69288631,6,26,9,3,0,6260903408,408,https://gis.arapahoegov.com/mapsandphotos/electionprecinctpdfs/Precinct_408.pdf,AC,2022/02/02,AC,2025/10/20,927,2025/10/20,0.02862281158,0.00005042144,Cook Park Recreation Center,7100 Cherry Creek S Dr,Denver,CO,80224,39.6948,-104.9162,,,,,,,,,,,,,Cook Park Recreation Center
-104.886912,39.69301655,6,26,9,3,0,6260903409,409,https://gis.arapahoegov.com/mapsandphotos/electionprecinctpdfs/Precinct_409.pdf,AC,2022/02/02,AC,2025/10/20,1648,2025/10/20,0.03224511555,0.00006647532,Cook Park Recreation Center,7100 Cherry Creek S Dr,Denver,CO,80224,39.6948,-104.9162,,,,,,,,,,,,,Cook Park Recreation Center
-104.883895,39.68170992,6,26,9,3,0,6260903410,410,https://gis.arapahoegov.com/mapsandphotos/electionprecinctpdfs/Precinct_410.pdf,AC,2022/02/02,AC,2025/10/20,1328,2025/10/20,0.06838222018,0.00013054643,Cook Park Recreation Center,7100 Cherry Creek S Dr,Denver,CO,80224,39.6948,-104.9162,,,,,,,,,,,,,Cook Park Recreation Center
-104.8799986,39.68567868,6,26,9,3,0,6260903412,412,https://gis.arapahoegov.com/mapsandphotos/electionprecinctpdfs/Precinct_412.pdf,AC,2022/02/02,AC,2025/10/20,1605,2025/10/20,0.04316348135,0.00007691959,Cook Park Recreation Center,7100 Cherry Creek S Dr,Denver,CO,80224,39.6948,-104.9162,,,,,,,,,,,,,Cook Park Recreation Center
-104.8710061,39.69321923,6,29,41,3,0,6294103411,411,https://gis.arapahoegov.com/mapsandphotos/electionprecinctpdfs/Precinct_411.pdf,AC,2022/02/02,AC,2025/10/20,1459,2025/10/20,0.04150264548,0.00007230208,Cook Park Recreation Center,7100 Cherry Creek S Dr,Denver,CO,80224,39.6948,-104.9162,,,,,,,,,,,,,Cook Park Recreation Center
-104.870587,39.68566722,6,29,41,3,0,6294103413,413,https://gis.arapahoegov.com/mapsandphotos/electionprecinctpdfs/Precinct_413.pdf,AC,2022/02/02,AC,2025/10/20,1090,2025/10/20,0.03333792901,0.00006779599,Cook Park Recreation Center,7100 Cherry Creek S Dr,Denver,CO,80224,39.6948,-104.9162,,,,,,,,,,,,,Cook Park Recreation Center
-104.8698115,39.67798388,6,29,41,3,0,6294103414,414,https://gis.arapahoegov.com/mapsandphotos/electionprecinctpdfs/Precinct_414.pdf,AC,2022/02/02,AC,2025/10/20,974,2025/10/20,0.03607761825,0.00006950023,Cook Park Recreation Center,7100 Cherry Creek S Dr,Denver,CO,80224,39.6948,-104.9162,,,,,,,,,,,,,Cook Park Recreation Center
-104.8614205,39.67575896,6,29,41,3,0,6294103419,419,https://gis.arapahoegov.com/mapsandphotos/electionprecinctpdfs/Precinct_419.pdf,AC,2022/02/02,AC,2025/10/20,1140,2025/10/20,0.04409718025,0.00011558138,Cook Park Recreation Center,7100 Cherry Creek S Dr,Denver,CO,80224,39.6948,-104.9162,,,,,,,,,,,,,Cook Park Recreation Center
-104.9000904,39.6849343,6,32,9,3,0,6320903402,402,https://gis.arapahoegov.com/mapsandphotos/electionprecinctpdfs/Precinct_402.pdf,AC,2022/02/02,AC,2025/10/20,0,2025/10/20,0.01081393336,0.0000045223,Cook Park Recreation Center,7100 Cherry Creek S Dr,Denver,CO,80224,39.6948,-104.9162,,,,,,,,,,,,,Cook Park Recreation Center
-104.906139,39.68076847,6,32,9,3,1,6320903415,415,https://gis.arapahoegov.com/mapsandphotos/electionprecinctpdfs/Precinct_415.pdf,AC,2022/02/02,AC,2025/10/20,186,2025/10/20,0.03581985098,0.00002160208,Cook Park Recreation Center,7100 Cherry Creek S Dr,Denver,CO,80224,39.6948,-104.9162,,,,,,,,,,,,,Cook Park Recreation Center
-104.9708618,39.66107372,6,26,3,3,0,6260303109,109,https://gis.arapahoegov.com/mapsandphotos/electionprecinctpdfs/Precinct_109.pdf,AC,2022/02/02,AC,2025/10/20,677,2025/10/20,0.02982210899,0.0000467335,Englewood Civic Center,1000 Englewood Pkwy,Englewood,CO,80110,39.6476,-104.9877,,,,,,,,,,,,,Englewood Civic Center
-104.9632429,39.65888298,6,26,3,3,0,6260303110,110,https://gis.arapahoegov.com/mapsandphotos/electionprecinctpdfs/Precinct_110.pdf,AC,2022/02/02,AC,2025/10/20,530,2025/10/20,0.02596498398,0.00003388351,Englewood Civic Center,1000 Englewood Pkwy,Englewood,CO,80110,39.6476,-104.9877,,,,,,,,,,,,,Englewood Civic Center
-104.9793778,39.6549712,6,26,3,3,0,6260303111,111,https://gis.arapahoegov.com/mapsandphotos/electionprecinctpdfs/Precinct_111.pdf,AC,2022/02/02,AC,2025/10/20,1425,2025/10/20,0.04018866196,0.0000601878,Englewood Civic Center,1000 Englewood Pkwy,Englewood,CO,80110,39.6476,-104.9877,,,,,,,,,,,,,Englewood Civic Center
-104.9782066,39.65954838,6,26,3,3,0,6260303112,112,https://gis.arapahoegov.com/mapsandphotos/electionprecinctpdfs/Precinct_112.pdf,AC,2022/02/02,AC,2025/10/20,964,2025/10/20,0.02981982004,0.00005180914,Englewood Civic Center,1000 Englewood Pkwy,Englewood,CO,80110,39.6476,-104.9877,,,,,,,,,,,,,Englewood Civic Center
-104.9597441,39.65491041,6,26,3,3,0,6260303113,113,https://gis.arapahoegov.com/mapsandphotos/electionprecinctpdfs/Precinct_113.pdf,AC,2022/02/02,AC,2025/10/20,749,2025/10/20,0.03056610426,0.00003832649,Englewood Civic Center,1000 Englewood Pkwy,Englewood,CO,80110,39.6476,-104.9877,,,,,,,,,,,,,Englewood Civic Center
-104.9680826,39.65508035,6,26,3,3,0,6260303114,114,https://gis.arapahoegov.com/mapsandphotos/electionprecinctpdfs/Precinct_114.pdf,AC,2022/02/02,AC,2025/10/20,1020,2025/10/20,0.02169279926,0.00002219804,Englewood Civic Center,1000 Englewood Pkwy,Englewood,CO,80110,39.6476,-104.9877,,,,,,,,,,,,,Englewood Civic Center
-104.9949385,39.64938512,6,26,3,3,0,6260303115,115,https://gis.arapahoegov.com/mapsandphotos/electionprecinctpdfs/Precinct_115.pdf,AC,2022/02/02,AC,2025/10/20,1260,2025/10/20,0.04448302596,0.00010703897,Englewood Civic Center,1000 Englewood Pkwy,Englewood,CO,80110,39.6476,-104.9877,,,,,,,,,,,,,Englewood Civic Center
-104.9939293,39.6420228,6,26,3,3,0,6260303116,116,https://gis.arapahoegov.com/mapsandphotos/electionprecinctpdfs/Precinct_116.pdf,AC,2022/02/02,AC,2025/10/20,1313,2025/10/20,0.05516331787,0.00009447242,Englewood Civic Center,1000 Englewood Pkwy,Englewood,CO,80110,39.6476,-104.9877,,,,,,,,,,,,,Englewood Civic Center
-104.9807255,39.65156089,6,26,3,3,0,6260303117,117,https://gis.arapahoegov.com/mapsandphotos/electionprecinctpdfs/Precinct_117.pdf,AC,2022/02/02,AC,2025/10/20,1426,2025/10/20,0.04020854264,0.00004736202,Englewood Civic Center,1000 Englewood Pkwy,Englewood,CO,80110,39.6476,-104.9877,,,,,,,,,,,,,Englewood Civic Center
-104.9830193,39.64583441,6,26,3,3,0,6260303118,118,https://gis.arapahoegov.com/mapsandphotos/electionprecinctpdfs/Precinct_118.pdf,AC,2022/02/02,AC,2025/10/20,934,2025/10/20,0.03333090935,0.00006848718,Englewood Civic Center,1000 Englewood Pkwy,Englewood,CO,80110,39.6476,-104.9877,,,,,,,,,,,,,Englewood Civic Center
-104.9831061,39.63946351,6,26,3,3,0,6260303119,119,https://gis.arapahoegov.com/mapsandphotos/electionprecinctpdfs/Precinct_119.pdf,AC,2022/02/02,AC,2025/10/20,904,2025/10/20,0.02964008008,0.00005093787,Englewood Civic Center,1000 Englewood Pkwy,Englewood,CO,80110,39.6476,-104.9877,,,,,,,,,,,,,Englewood Civic Center
-104.9990357,39.64034398,6,26,3,3,0,6260303120,120,https://gis.arapahoegov.com/mapsandphotos/electionprecinctpdfs/Precinct_120.pdf,AC,2022/02/02,AC,2025/10/20,884,2025/10/20,0.0335399032,0.00004742697,Englewood Civic Center,1000 Englewood Pkwy,Englewood,CO,80110,39.6476,-104.9877,,,,,,,,,,,,,Englewood Civic Center
-105.0008009,39.63621222,6,26,3,3,0,6260303121,121,https://gis.arapahoegov.com/mapsandphotos/electionprecinctpdfs/Precinct_121.pdf,AC,2022/02/02,AC,2025/10/20,613,2025/10/20,0.0410486306,0.000066466,Englewood Civic Center,1000 Englewood Pkwy,Englewood,CO,80110,39.6476,-104.9877,,,,,,,,,,,,,Englewood Civic Center
-104.9943457,39.63221199,6,26,3,3,0,6260303123,123,https://gis.arapahoegov.com/mapsandphotos/electionprecinctpdfs/Precinct_123.pdf,AC,2022/02/02,AC,2025/10/20,1070,2025/10/20,0.03663291072,0.00007009957,Englewood Civic Center,1000 Englewood Pkwy,Englewood,CO,80110,39.6476,-104.9877,,,,,,,,,,,,,Englewood Civic Center
-104.9997661,39.62700605,6,26,3,3,0,6260303124,124,https://gis.arapahoegov.com/mapsandphotos/electionprecinctpdfs/Precinct_124.pdf,AC,2022/02/02,AC,2025/10/20,1150,2025/10/20,0.07003170887,0.00015593966,Englewood Civic Center,1000 Englewood Pkwy,Englewood,CO,80110,39.6476,-104.9877,,,,,,,,,,,,,Englewood Civic Center
-104.9880147,39.62076968,6,26,3,3,0,6260303125,125,https://gis.arapahoegov.com/mapsandphotos/electionprecinctpdfs/Precinct_125.pdf,AC,2022/02/02,AC,2025/10/20,682,2025/10/20,0.04105364896,0.00004942071,Englewood Civic Center,1000 Englewood Pkwy,Englewood,CO,80110,39.6476,-104.9877,,,,,,,,,,,,,Englewood Civic Center
-104.9825917,39.62135211,6,26,3,3,1,6260303128,128,https://gis.arapahoegov.com/mapsandphotos/electionprecinctpdfs/Precinct_128.pdf,AC,2022/02/02,AC,2025/10/20,435,2025/10/20,0.02359520125,0.00002930293,Englewood Civic Center,1000 Englewood Pkwy,Englewood,CO,80110,39.6476,-104.9877,,,,,,,,,,,,,Englewood Civic Center
-104.9832428,39.62678499,6,26,3,3,0,6260303129,129,https://gis.arapahoegov.com/mapsandphotos/electionprecinctpdfs/Precinct_129.pdf,AC,2022/02/02,AC,2025/10/20,677,2025/10/20,0.02968727374,0.00005121797,Englewood Civic Center,1000 Englewood Pkwy,Englewood,CO,80110,39.6476,-104.9877,,,,,,,,,,,,,Englewood Civic Center
-104.983189,39.63313315,6,26,3,3,0,6260303130,130,https://gis.arapahoegov.com/mapsandphotos/electionprecinctpdfs/Precinct_130.pdf,AC,2022/02/02,AC,2025/10/20,1048,2025/10/20,0.03322779015,0.00006799408,Englewood Civic Center,1000 Englewood Pkwy,Englewood,CO,80110,39.6476,-104.9877,,,,,,,,,,,,,Englewood Civic Center
-104.9691386,39.63135056,6,26,3,3,0,6260303131,131,https://gis.arapahoegov.com/mapsandphotos/electionprecinctpdfs/Precinct_131.pdf,AC,2022/02/02,AC,2025/10/20,1023,2025/10/20,0.06579452422,0.00027215155,Englewood Civic Center,1000 Englewood Pkwy,Englewood,CO,80110,39.6476,-104.9877,,,,,,,,,,,,,Englewood Civic Center
-104.959224,39.6456909,6,26,3,3,0,6260303132,132,https://gis.arapahoegov.com/mapsandphotos/electionprecinctpdfs/Precinct_132.pdf,AC,2022/02/02,AC,2025/10/20,1142,2025/10/20,0.1055787319,0.0005324426,Englewood Civic Center,1000 Englewood Pkwy,Englewood,CO,80110,39.6476,-104.9877,,,,,,,,,,,,,Englewood Civic Center
-104.9411009,39.63138263,6,26,3,3,0,6260303133,133,https://gis.arapahoegov.com/mapsandphotos/electionprecinctpdfs/Precinct_133.pdf,AC,2022/02/02,AC,2025/10/20,1023,2025/10/20,0.1031004226,0.0005336036,Englewood Civic Center,1000 Englewood Pkwy,Englewood,CO,80110,39.6476,-104.9877,,,,,,,,,,,,,Englewood Civic Center
-104.9363354,39.64584689,6,26,3,3,0,6260303134,134,https://gis.arapahoegov.com/mapsandphotos/electionprecinctpdfs/Precinct_134.pdf,AC,2022/02/02,AC,2025/10/20,576,2025/10/20,0.04707187184,0.0001289132,Englewood Civic Center,1000 Englewood Pkwy,Englewood,CO,80110,39.6476,-104.9877,,,,,,,,,,,,,Englewood Civic Center
-104.9795616,39.62064595,6,26,37,3,1,6263703198,198,https://gis.arapahoegov.com/mapsandphotos/electionprecinctpdfs/Precinct_198.pdf,AC,2022/02/02,AC,2025/10/20,62,2025/10/20,0.01686997832,0.00000437496,Englewood Civic Center,1000 Englewood Pkwy,Englewood,CO,80110,39.6476,-104.9877,,,,,,,,,,,,,Englewood Civic Center
-104.9744087,39.6204562,6,26,37,3,0,6263703201,201,https://gis.arapahoegov.com/mapsandphotos/electionprecinctpdfs/Precinct_201.pdf,AC,2022/02/02,AC,2025/10/20,405,2025/10/20,0.04431247928,0.00007463408,Englewood Civic Center,1000 Englewood Pkwy,Englewood,CO,80110,39.6476,-104.9877,,,,,,,,,,,,,Englewood Civic Center
-104.9079985,39.59846927,6,16,37,3,0,6163703226,226,https://gis.arapahoegov.com/mapsandphotos/electionprecinctpdfs/Precinct_226.pdf,AC,2022/02/02,AC,2025/10/20,732,2025/10/20,0.03222563716,0.00005278105,Greenwood Village City Hall,6060 S Quebec St,Greenwood Village,CO,80111,39.6139,-104.8893,,,,,,,,,,,,,Greenwood Village City Hall
-104.9182699,39.60537537,6,16,37,3,0,6163703227,227,https://gis.arapahoegov.com/mapsandphotos/electionprecinctpdfs/Precinct_227.pdf,AC,2022/02/02,AC,2025/10/20,726,2025/10/20,0.03279547689,0.00005204269,Greenwood Village City Hall,6060 S Quebec St,Greenwood Village,CO,80111,39.6139,-104.8893,,,,,,,,,,,,,Greenwood Village City Hall
-104.9093611,39.60606052,6,16,37,3,0,6163703228,228,https://gis.arapahoegov.com/mapsandphotos/electionprecinctpdfs/Precinct_228.pdf,AC,2022/02/02,AC,2025/10/20,925,2025/10/20,0.0394593494,0.00007605345,Greenwood Village City Hall,6060 S Quebec St,Greenwood Village,CO,80111,39.6139,-104.8893,,,,,,,,,,,,,Greenwood Village City Hall
-104.9180094,39.63137601,6,26,3,3,0,6260303135,135,https://gis.arapahoegov.com/mapsandphotos/electionprecinctpdfs/Precinct_135.pdf,AC,2022/02/02,AC,2025/10/20,392,2025/10/20,0.04776840739,0.00013613471,Greenwood Village City Hall,6060 S Quebec St,Greenwood Village,CO,80111,39.6139,-104.8893,,,,,,,,,,,,,Greenwood Village City Hall
-104.9246767,39.64183316,6,26,3,3,0,6260303136,136,https://gis.arapahoegov.com/mapsandphotos/electionprecinctpdfs/Precinct_136.pdf,AC,2022/02/02,AC,2025/10/20,945,2025/10/20,0.04738240746,0.0001021099,Greenwood Village City Hall,6060 S Quebec St,Greenwood Village,CO,80111,39.6139,-104.8893,,,,,,,,,,,,,Greenwood Village City Hall
-104.9034518,39.6251539,6,26,3,3,0,6260303230,230,https://gis.arapahoegov.com/mapsandphotos/electionprecinctpdfs/Precinct_230.pdf,AC,2022/02/02,AC,2025/10/20,0,2025/10/20,0.00708515926,0.00000209144,Greenwood Village City Hall,6060 S Quebec St,Greenwood Village,CO,80111,39.6139,-104.8893,,,,,,,,,,,,,Greenwood Village City Hall
-104.9081584,39.61443392,6,26,37,3,0,6263703229,229,https://gis.arapahoegov.com/mapsandphotos/electionprecinctpdfs/Precinct_229.pdf,AC,2022/02/02,AC,2025/10/20,1254,2025/10/20,0.1049577809,0.00045650314,Greenwood Village City Hall,6060 S Quebec St,Greenwood Village,CO,80111,39.6139,-104.8893,,,,,,,,,,,,,Greenwood Village City Hall
-104.8932447,39.6172366,6,26,37,3,0,6263703231,231,https://gis.arapahoegov.com/mapsandphotos/electionprecinctpdfs/Precinct_231.pdf,AC,2022/02/02,AC,2025/10/20,1164,2025/10/20,0.05302869342,0.00013194357,Greenwood Village City Hall,6060 S Quebec St,Greenwood Village,CO,80111,39.6139,-104.8893,,,,,,,,,,,,,Greenwood Village City Hall
-104.8823859,39.61736543,6,26,37,3,0,6263703232,232,https://gis.arapahoegov.com/mapsandphotos/electionprecinctpdfs/Precinct_232.pdf,AC,2022/02/02,AC,2025/10/20,1657,2025/10/20,0.054045705,0.00018417049,Greenwood Village City Hall,6060 S Quebec St,Greenwood Village,CO,80111,39.6139,-104.8893,,,,,,,,,,,,,Greenwood Village City Hall
-104.8849753,39.60010688,6,26,37,3,0,6263703234,234,https://gis.arapahoegov.com/mapsandphotos/electionprecinctpdfs/Precinct_234.pdf,AC,2022/02/02,AC,2025/10/20,1463,2025/10/20,0.1279877457,0.00029738545,Greenwood Village City Hall,6060 S Quebec St,Greenwood Village,CO,80111,39.6139,-104.8893,,,,,,,,,,,,,Greenwood Village City Hall
-104.8711379,39.60203034,6,26,37,3,0,6263703247,247,https://gis.arapahoegov.com/mapsandphotos/electionprecinctpdfs/Precinct_247.pdf,AC,2022/02/02,AC,2025/10/20,1617,2025/10/20,0.03615211531,0.00008023909,Greenwood Village City Hall,6060 S Quebec St,Greenwood Village,CO,80111,39.6139,-104.8893,,,,,,,,,,,,,Greenwood Village City Hall
-104.8789144,39.6017967,6,26,37,3,0,6263703248,248,https://gis.arapahoegov.com/mapsandphotos/electionprecinctpdfs/Precinct_248.pdf,AC,2022/02/02,AC,2025/10/20,674,2025/10/20,0.03260493038,0.00002432478,Greenwood Village City Hall,6060 S Quebec St,Greenwood Village,CO,80111,39.6139,-104.8893,,,,,,,,,,,,,Greenwood Village City Hall
-104.8712567,39.61319821,6,26,37,3,0,6263703249,249,https://gis.arapahoegov.com/mapsandphotos/electionprecinctpdfs/Precinct_249.pdf,AC,2022/02/02,AC,2025/10/20,871,2025/10/20,0.03361549198,0.00006930542,Greenwood Village City Hall,6060 S Quebec St,Greenwood Village,CO,80111,39.6139,-104.8893,,,,,,,,,,,,,Greenwood Village City Hall
-104.8662897,39.60781639,6,26,37,3,0,6263703250,250,https://gis.arapahoegov.com/mapsandphotos/electionprecinctpdfs/Precinct_250.pdf,AC,2022/02/02,AC,2025/10/20,1040,2025/10/20,0.05115448537,0.00006677523,Greenwood Village City Hall,6060 S Quebec St,Greenwood Village,CO,80111,39.6139,-104.8893,,,,,,,,,,,,,Greenwood Village City Hall
-104.8585787,39.61242817,6,26,37,3,0,6263703251,251,https://gis.arapahoegov.com/mapsandphotos/electionprecinctpdfs/Precinct_251.pdf,AC,2022/02/02,AC,2025/10/20,1551,2025/10/20,0.05476912558,0.00009457695,Greenwood Village City Hall,6060 S Quebec St,Greenwood Village,CO,80111,39.6139,-104.8893,,,,,,,,,,,,,Greenwood Village City Hall
-104.8586287,39.61947523,6,26,37,3,1,6263703252,252,https://gis.arapahoegov.com/mapsandphotos/electionprecinctpdfs/Precinct_252.pdf,AC,2022/02/02,AC,2025/10/20,1493,2025/10/20,0.07282987781,0.00020213364,Greenwood Village City Hall,6060 S Quebec St,Greenwood Village,CO,80111,39.6139,-104.8893,,,,,,,,,,,,,Greenwood Village City Hall
-104.8699989,39.62059579,6,26,37,3,0,6263703253,253,https://gis.arapahoegov.com/mapsandphotos/electionprecinctpdfs/Precinct_253.pdf,AC,2022/02/02,AC,2025/10/20,1714,2025/10/20,0.1667300701,0.00016312441,Greenwood Village City Hall,6060 S Quebec St,Greenwood Village,CO,80111,39.6139,-104.8893,,,,,,,,,,,,,Greenwood Village City Hall
-104.8800186,39.63762635,6,26,37,3,0,6263703254,254,https://gis.arapahoegov.com/mapsandphotos/electionprecinctpdfs/Precinct_254.pdf,AC,2022/02/02,AC,2025/10/20,436,2025/10/20,0.04980916287,0.00010205874,Greenwood Village City Hall,6060 S Quebec St,Greenwood Village,CO,80111,39.6139,-104.8893,,,,,,,,,,,,,Greenwood Village City Hall
-104.8778525,39.64928602,6,27,3,3,1,6270303258,258,https://gis.arapahoegov.com/mapsandphotos/electionprecinctpdfs/Precinct_258.pdf,AC,2022/02/02,AC,2025/10/20,825,2025/10/20,0.02564063931,0.00003328572,Greenwood Village City Hall,6060 S Quebec St,Greenwood Village,CO,80111,39.6139,-104.8893,,,,,,,,,,,,,Greenwood Village City Hall
-104.9001337,39.5990226,6,27,37,3,0,6273703233,233,https://gis.arapahoegov.com/mapsandphotos/electionprecinctpdfs/Precinct_233.pdf,AC,2022/02/02,AC,2025/10/20,1051,2025/10/20,0.03744957098,0.00005551017,Greenwood Village City Hall,6060 S Quebec St,Greenwood Village,CO,80111,39.6139,-104.8893,,,,,,,,,,,,,Greenwood Village City Hall
-104.845192,39.63170844,6,27,40,3,1,6274003255,255,https://gis.arapahoegov.com/mapsandphotos/electionprecinctpdfs/Precinct_255.pdf,AC,2022/02/02,AC,2025/10/20,201,2025/10/20,0.2519700194,0.00192166489,Greenwood Village City Hall,6060 S Quebec St,Greenwood Village,CO,80111,39.6139,-104.8893,,,,,,,,,,,,,Greenwood Village City Hall
-104.8248043,39.63553599,6,27,40,3,0,6274003269,269,https://gis.arapahoegov.com/mapsandphotos/electionprecinctpdfs/Precinct_269.pdf,AC,2022/02/02,AC,2025/10/20,1365,2025/10/20,0.0274738789,0.00004610337,Greenwood Village City Hall,6060 S Quebec St,Greenwood Village,CO,80111,39.6139,-104.8893,,,,,,,,,,,,,Greenwood Village City Hall
-104.819837,39.63308099,6,27,40,3,0,6274003270,270,https://gis.arapahoegov.com/mapsandphotos/electionprecinctpdfs/Precinct_270.pdf,AC,2022/02/02,AC,2025/10/20,1239,2025/10/20,0.04694344581,0.00006524635,Greenwood Village City Hall,6060 S Quebec St,Greenwood Village,CO,80111,39.6139,-104.8893,,,,,,,,,,,,,Greenwood Village City Hall
-104.8126432,39.63192165,6,27,40,3,1,6274003271,271,https://gis.arapahoegov.com/mapsandphotos/electionprecinctpdfs/Precinct_271.pdf,AC,2022/02/02,AC,2025/10/20,1116,2025/10/20,0.04294671376,0.00006526111,Greenwood Village City Hall,6060 S Quebec St,Greenwood Village,CO,80111,39.6139,-104.8893,,,,,,,,,,,,,Greenwood Village City Hall
-104.8261167,39.62761783,6,27,40,3,0,6274003272,272,https://gis.arapahoegov.com/mapsandphotos/electionprecinctpdfs/Precinct_272.pdf,AC,2022/02/02,AC,2025/10/20,560,2025/10/20,0.03875998125,0.00003899976,Greenwood Village City Hall,6060 S Quebec St,Greenwood Village,CO,80111,39.6139,-104.8893,,,,,,,,,,,,,Greenwood Village City Hall
-104.8176288,39.62705844,6,27,40,3,0,6274003273,273,https://gis.arapahoegov.com/mapsandphotos/electionprecinctpdfs/Precinct_273.pdf,AC,2022/02/02,AC,2025/10/20,1177,2025/10/20,0.03173772351,0.00005070799,Greenwood Village City Hall,6060 S Quebec St,Greenwood Village,CO,80111,39.6139,-104.8893,,,,,,,,,,,,,Greenwood Village City Hall
-104.8470751,39.6581735,6,27,40,3,0,6274003424,424,https://gis.arapahoegov.com/mapsandphotos/electionprecinctpdfs/Precinct_424.pdf,AC,2022/02/02,AC,2025/10/20,52,2025/10/20,0.01480660792,0.00000512211,Greenwood Village City Hall,6060 S Quebec St,Greenwood Village,CO,80111,39.6139,-104.8893,,,,,,,,,,,,,Greenwood Village City Hall
-104.8242267,39.64215377,6,29,40,3,0,6294003448,448,https://gis.arapahoegov.com/mapsandphotos/electionprecinctpdfs/Precinct_448.pdf,AC,2022/02/02,AC,2025/10/20,1679,2025/10/20,0.03381822184,0.00006737346,Greenwood Village City Hall,6060 S Quebec St,Greenwood Village,CO,80111,39.6139,-104.8893,,,,,,,,,,,,,Greenwood Village City Hall
-104.8564482,39.69278957,6,29,41,3,0,6294103416,416,https://gis.arapahoegov.com/mapsandphotos/electionprecinctpdfs/Precinct_416.pdf,AC,2022/02/02,AC,2025/10/20,1615,2025/10/20,0.05257865294,0.00014187034,Heather Gardens,2888 S Heather Gardens Way,Aurora,CO,80014,39.7067,-104.8125,,,,,,,,,,,,,Heather Gardens
-104.8608556,39.68580059,6,29,41,3,0,6294103417,417,https://gis.arapahoegov.com/mapsandphotos/electionprecinctpdfs/Precinct_417.pdf,AC,2022/02/02,AC,2025/10/20,1102,2025/10/20,0.03650948592,0.00007246761,Heather Gardens,2888 S Heather Gardens Way,Aurora,CO,80014,39.7067,-104.8125,,,,,,,,,,,,,Heather Gardens
-104.8515303,39.6852304,6,29,41,3,0,6294103418,418,https://gis.arapahoegov.com/mapsandphotos/electionprecinctpdfs/Precinct_418.pdf,AC,2022/02/02,AC,2025/10/20,963,2025/10/20,0.03121097058,0.00005831298,Heather Gardens,2888 S Heather Gardens Way,Aurora,CO,80014,39.7067,-104.8125,,,,,,,,,,,,,Heather Gardens
-104.8519318,39.67842015,6,29,41,3,0,6294103420,420,https://gis.arapahoegov.com/mapsandphotos/electionprecinctpdfs/Precinct_420.pdf,AC,2022/02/02,AC,2025/10/20,1613,2025/10/20,0.03327991918,0.00006798906,Heather Gardens,2888 S Heather Gardens Way,Aurora,CO,80014,39.7067,-104.8125,,,,,,,,,,,,,Heather Gardens
-104.8552987,39.67088317,6,29,41,3,0,6294103421,421,https://gis.arapahoegov.com/mapsandphotos/electionprecinctpdfs/Precinct_421.pdf,AC,2022/02/02,AC,2025/10/20,550,2025/10/20,0.033796577,0.00004832473,Heather Gardens,2888 S Heather Gardens Way,Aurora,CO,80014,39.7067,-104.8125,,,,,,,,,,,,,Heather Gardens
-104.8496435,39.67077558,6,29,41,3,0,6294103422,422,https://gis.arapahoegov.com/mapsandphotos/electionprecinctpdfs/Precinct_422.pdf,AC,2022/02/02,AC,2025/10/20,722,2025/10/20,0.02494657261,0.00003292615,Heather Gardens,2888 S Heather Gardens Way,Aurora,CO,80014,39.7067,-104.8125,,,,,,,,,,,,,Heather Gardens
-104.856793,39.66395211,6,29,41,3,0,6294103423,423,https://gis.arapahoegov.com/mapsandphotos/electionprecinctpdfs/Precinct_423.pdf,AC,2022/02/02,AC,2025/10/20,1468,2025/10/20,0.0587318195,0.00014990871,Heather Gardens,2888 S Heather Gardens Way,Aurora,CO,80014,39.7067,-104.8125,,,,,,,,,,,,,Heather Gardens
-104.8429973,39.66320587,6,29,41,3,0,6294103425,425,https://gis.arapahoegov.com/mapsandphotos/electionprecinctpdfs/Precinct_425.pdf,AC,2022/02/02,AC,2025/10/20,1504,2025/10/20,0.03932230692,0.00007256678,Heather Gardens,2888 S Heather Gardens Way,Aurora,CO,80014,39.7067,-104.8125,,,,,,,,,,,,,Heather Gardens
-104.8419737,39.67134633,6,29,41,3,0,6294103427,427,https://gis.arapahoegov.com/mapsandphotos/electionprecinctpdfs/Precinct_427.pdf,AC,2022/02/02,AC,2025/10/20,1518,2025/10/20,0.03954629251,0.00007649211,Heather Gardens,2888 S Heather Gardens Way,Aurora,CO,80014,39.7067,-104.8125,,,,,,,,,,,,,Heather Gardens
-104.833077,39.67118691,6,29,41,3,0,6294103428,428,https://gis.arapahoegov.com/mapsandphotos/electionprecinctpdfs/Precinct_428.pdf,AC,2022/02/02,AC,2025/10/20,1057,2025/10/20,0.02952970141,0.00005611357,Heather Gardens,2888 S Heather Gardens Way,Aurora,CO,80014,39.7067,-104.8125,,,,,,,,,,,,,Heather Gardens
-104.8425475,39.67847588,6,29,41,3,0,6294103429,429,https://gis.arapahoegov.com/mapsandphotos/electionprecinctpdfs/Precinct_429.pdf,AC,2022/02/02,AC,2025/10/20,824,2025/10/20,0.03318781646,0.00006765673,Heather Gardens,2888 S Heather Gardens Way,Aurora,CO,80014,39.7067,-104.8125,,,,,,,,,,,,,Heather Gardens
-104.8332892,39.67849203,6,29,41,3,0,6294103430,430,https://gis.arapahoegov.com/mapsandphotos/electionprecinctpdfs/Precinct_430.pdf,AC,2022/02/02,AC,2025/10/20,1087,2025/10/20,0.03213144156,0.00006399306,Heather Gardens,2888 S Heather Gardens Way,Aurora,CO,80014,39.7067,-104.8125,,,,,,,,,,,,,Heather Gardens
-104.8427776,39.68551382,6,29,41,3,0,6294103431,431,https://gis.arapahoegov.com/mapsandphotos/electionprecinctpdfs/Precinct_431.pdf,AC,2022/02/02,AC,2025/10/20,653,2025/10/20,0.0324460502,0.00006270889,Heather Gardens,2888 S Heather Gardens Way,Aurora,CO,80014,39.7067,-104.8125,,,,,,,,,,,,,Heather Gardens
-104.8424162,39.69270872,6,29,41,3,0,6294103432,432,https://gis.arapahoegov.com/mapsandphotos/electionprecinctpdfs/Precinct_432.pdf,AC,2022/02/02,AC,2025/10/20,1306,2025/10/20,0.03588242814,0.0000709791,Heather Gardens,2888 S Heather Gardens Way,Aurora,CO,80014,39.7067,-104.8125,,,,,,,,,,,,,Heather Gardens
-104.833424,39.68926028,6,29,41,3,0,6294103433,433,https://gis.arapahoegov.com/mapsandphotos/electionprecinctpdfs/Precinct_433.pdf,AC,2022/02/02,AC,2025/10/20,964,2025/10/20,0.04926895491,0.00013353292,Heather Gardens,2888 S Heather Gardens Way,Aurora,CO,80014,39.7067,-104.8125,,,,,,,,,,,,,Heather Gardens
-104.8240937,39.69301867,6,29,41,3,0,6294103434,434,https://gis.arapahoegov.com/mapsandphotos/electionprecinctpdfs/Precinct_434.pdf,AC,2022/02/02,AC,2025/10/20,1178,2025/10/20,0.03412943102,0.00007014391,Heather Gardens,2888 S Heather Gardens Way,Aurora,CO,80014,39.7067,-104.8125,,,,,,,,,,,,,Heather Gardens
-104.8240162,39.68573065,6,29,41,3,0,6294103436,436,https://gis.arapahoegov.com/mapsandphotos/electionprecinctpdfs/Precinct_436.pdf,AC,2022/02/02,AC,2025/10/20,1475,2025/10/20,0.03365180967,0.00006891106,Heather Gardens,2888 S Heather Gardens Way,Aurora,CO,80014,39.7067,-104.8125,,,,,,,,,,,,,Heather Gardens
-104.8311892,39.7036484,6,29,42,3,0,6294203521,521,https://gis.arapahoegov.com/mapsandphotos/electionprecinctpdfs/Precinct_521.pdf,AC,2022/02/02,AC,2025/10/20,910,2025/10/20,0.04450069274,0.00008009888,Heather Gardens,2888 S Heather Gardens Way,Aurora,CO,80014,39.7067,-104.8125,,,,,,,,,,,,,Heather Gardens
-104.823865,39.70347061,6,29,42,3,0,6294203534,534,https://gis.arapahoegov.com/mapsandphotos/electionprecinctpdfs/Precinct_534.pdf,AC,2022/02/02,AC,2025/10/20,962,2025/10/20,0.04699888341,0.00013146143,Heather Gardens,2888 S Heather Gardens Way,Aurora,CO,80014,39.7067,-104.8125,,,,,,,,,,,,,Heather Gardens
-104.8144115,39.70415199,6,29,42,3,0,6294203535,535,https://gis.arapahoegov.com/mapsandphotos/electionprecinctpdfs/Precinct_535.pdf,AC,2022/02/02,AC,2025/10/20,924,2025/10/20,0.04417743224,0.00010093852,Heather Gardens,2888 S Heather Gardens Way,Aurora,CO,80014,39.7067,-104.8125,,,,,,,,,,,,,Heather Gardens
-104.8167273,39.69856025,6,29,42,3,0,6294203536,536,https://gis.arapahoegov.com/mapsandphotos/electionprecinctpdfs/Precinct_536.pdf,AC,2022/02/02,AC,2025/10/20,731,2025/10/20,0.01855848716,0.00002148489,Heather Gardens,2888 S Heather Gardens Way,Aurora,CO,80014,39.7067,-104.8125,,,,,,,,,,,,,Heather Gardens
-104.8078533,39.70255907,6,29,42,3,0,6294203542,542,https://gis.arapahoegov.com/mapsandphotos/electionprecinctpdfs/Precinct_542.pdf,AC,2022/02/02,AC,2025/10/20,523,2025/10/20,0.03288355971,0.00004983043,Heather Gardens,2888 S Heather Gardens Way,Aurora,CO,80014,39.7067,-104.8125,,,,,,,,,,,,,Heather Gardens
-104.3507434,39.65137371,4,21,56,3,1,4215603363,363,https://gis.arapahoegov.com/mapsandphotos/electionprecinctpdfs/Precinct_363.pdf,AC,2022/02/02,AC,2025/10/20,2043,2025/10/20,0.6101889203,0.02280338921,Kelver Library,585 S Main St,Byers,CO,80103,39.7088,-104.2235,,,,,,,,,,,,,Kelver Library
-104.2107624,39.66274318,4,21,56,3,0,4215603364,364,https://gis.arapahoegov.com/mapsandphotos/electionprecinctpdfs/Precinct_364.pdf,AC,2022/02/02,AC,2025/10/20,1647,2025/10/20,0.7224522247,0.02442685737,Kelver Library,585 S Main St,Byers,CO,80103,39.7088,-104.2235,,,,,,,,,,,,,Kelver Library
-103.9273048,39.6496516,4,21,56,3,0,4215603365,365,https://gis.arapahoegov.com/mapsandphotos/electionprecinctpdfs/Precinct_365.pdf,AC,2022/02/02,AC,2025/10/20,1082,2025/10/20,1.279903586,0.07609648614,Kelver Library,585 S Main St,Byers,CO,80103,39.7088,-104.2235,,,,,,,,,,,,,Kelver Library
-104.759915,39.70695454,6,28,36,3,1,6283603551,551,https://gis.arapahoegov.com/mapsandphotos/electionprecinctpdfs/Precinct_551.pdf,AC,2022/02/02,AC,2025/10/20,929,2025/10/20,0.2051239159,0.00161469053,Mission Viejo Library,15324 E Hampden Cir,Aurora,CO,80013,39.708,-104.7846,,,,,,,,,,,,,Mission Viejo Library
-104.7848698,39.70319861,6,29,36,3,0,6293603552,552,https://gis.arapahoegov.com/mapsandphotos/electionprecinctpdfs/Precinct_552.pdf,AC,2022/02/02,AC,2025/10/20,1110,2025/10/20,0.03682436857,0.00007072561,Mission Viejo Library,15324 E Hampden Cir,Aurora,CO,80013,39.708,-104.7846,,,,,,,,,,,,,Mission Viejo Library
-104.7810712,39.69886856,6,29,36,3,0,6293603553,553,https://gis.arapahoegov.com/mapsandphotos/electionprecinctpdfs/Precinct_553.pdf,AC,2022/02/02,AC,2025/10/20,1433,2025/10/20,0.04634383328,0.00008037817,Mission Viejo Library,15324 E Hampden Cir,Aurora,CO,80013,39.708,-104.7846,,,,,,,,,,,,,Mission Viejo Library
-104.7947645,39.67086261,6,29,41,3,0,6294103451,451,https://gis.arapahoegov.com/mapsandphotos/electionprecinctpdfs/Precinct_451.pdf,AC,2022/02/02,AC,2025/10/20,681,2025/10/20,0.02915170823,0.00004427783,City of Aurora Municipal Center,15151 E Alameda Pkwy,Aurora,CO,80012,39.7008,-104.7999,,,,,,,,,,,,,Mission Viejo Library
-104.7860446,39.67773106,6,29,41,3,0,6294103472,472,https://gis.arapahoegov.com/mapsandphotos/electionprecinctpdfs/Precinct_472.pdf,AC,2022/02/02,AC,2025/10/20,1200,2025/10/20,0.03859594412,0.00008381093,City of Aurora Municipal Center,15151 E Alameda Pkwy,Aurora,CO,80012,39.7008,-104.7999,,,,,,,,,,,,,Mission Viejo Library
-104.7947687,39.69189471,6,29,41,3,0,6294103539,539,https://gis.arapahoegov.com/mapsandphotos/electionprecinctpdfs/Precinct_539.pdf,AC,2022/02/02,AC,2025/10/20,1143,2025/10/20,0.03935467047,0.0000758912,City of Aurora Municipal Center,15151 E Alameda Pkwy,Aurora,CO,80012,39.7008,-104.7999,,,,,,,,,,,,,Mission Viejo Library
-104.7841103,39.69400199,6,29,41,3,0,6294103554,554,https://gis.arapahoegov.com/mapsandphotos/electionprecinctpdfs/Precinct_554.pdf,AC,2022/02/02,AC,2025/10/20,1188,2025/10/20,0.03706507427,0.00006685334,City of Aurora Municipal Center,15151 E Alameda Pkwy,Aurora,CO,80012,39.7008,-104.7999,,,,,,,,,,,,,Mission Viejo Library
-104.7744762,39.69203797,6,29,41,3,0,6294103555,555,https://gis.arapahoegov.com/mapsandphotos/electionprecinctpdfs/Precinct_555.pdf,AC,2022/02/02,AC,2025/10/20,1042,2025/10/20,0.03166589919,0.00004209714,Mission Viejo Library,15324 E Hampden Cir,Aurora,CO,80013,39.708,-104.7846,,,,,,,,,,,,,Mission Viejo Library
-104.7861766,39.68881154,6,29,41,3,0,6294103558,558,https://gis.arapahoegov.com/mapsandphotos/electionprecinctpdfs/Precinct_558.pdf,AC,2022/02/02,AC,2025/10/20,1108,2025/10/20,0.03193637697,0.00006083948,City of Aurora Municipal Center,15151 E Alameda Pkwy,Aurora,CO,80012,39.7008,-104.7999,,,,,,,,,,,,,Mission Viejo Library
-104.7775475,39.6861986,6,29,41,3,0,6294103559,559,https://gis.arapahoegov.com/mapsandphotos/electionprecinctpdfs/Precinct_559.pdf,AC,2022/02/02,AC,2025/10/20,915,2025/10/20,0.03823113133,0.00006901692,Mission Viejo Library,15324 E Hampden Cir,Aurora,CO,80013,39.708,-104.7846,,,,,,,,,,,,,Mission Viejo Library
-104.7864444,39.68380376,6,29,41,3,0,6294103560,560,https://gis.arapahoegov.com/mapsandphotos/electionprecinctpdfs/Precinct_560.pdf,AC,2022/02/02,AC,2025/10/20,535,2025/10/20,0.02540034351,0.00003237025,City of Aurora Municipal Center,15151 E Alameda Pkwy,Aurora,CO,80012,39.7008,-104.7999,,,,,,,,,,,,,Mission Viejo Library
-104.7966197,39.69839995,6,29,42,3,0,6294203540,540,https://gis.arapahoegov.com/mapsandphotos/electionprecinctpdfs/Precinct_540.pdf,AC,2022/02/02,AC,2025/10/20,775,2025/10/20,0.03213228535,0.00004110364,City of Aurora Municipal Center,15151 E Alameda Pkwy,Aurora,CO,80012,39.7008,-104.7999,,,,,,,,,,,,,Mission Viejo Library
-104.7230072,39.69119165,6,28,36,3,0,6283603501,501,https://gis.arapahoegov.com/mapsandphotos/electionprecinctpdfs/Precinct_501.pdf,AC,2022/02/02,AC,2025/10/20,776,2025/10/20,0.1378897388,0.0005205954,The Avenue Church,13231 E Mississippi Ave,Aurora,CO,80012,39.6824,-104.742,,,,,,,,,,,,,Parkside Village Retirement Resort
-104.7196444,39.71721566,6,28,36,3,0,6283603502,502,https://gis.arapahoegov.com/mapsandphotos/electionprecinctpdfs/Precinct_502.pdf,AC,2022/02/02,AC,2025/10/20,2970,2025/10/20,0.1688100049,0.00145192176,Parkside Village Retirement Resort,14501 E Crestline Dr,Aurora,CO,80015,39.7093,-104.7195,,,,,,,,,,,,,Parkside Village Retirement Resort
-104.694361,39.72992906,6,28,36,3,0,6283603561,561,https://gis.arapahoegov.com/mapsandphotos/electionprecinctpdfs/Precinct_561.pdf,AC,2022/02/02,AC,2025/10/20,1921,2025/10/20,0.1335156158,0.00068304226,Parkside Village Retirement Resort,14501 E Crestline Dr,Aurora,CO,80015,39.7093,-104.7195,,,,,,,,,,,,,Parkside Village Retirement Resort
-104.6924896,39.71835722,6,28,36,3,0,6283603563,563,https://gis.arapahoegov.com/mapsandphotos/electionprecinctpdfs/Precinct_563.pdf,AC,2022/02/02,AC,2025/10/20,1930,2025/10/20,0.04786177341,0.00013694654,Parkside Village Retirement Resort,14501 E Crestline Dr,Aurora,CO,80015,39.7093,-104.7195,,,,,,,,,,,,,Parkside Village Retirement Resort
-104.8752443,39.7364978,6,28,42,3,0,6284203503,503,https://gis.arapahoegov.com/mapsandphotos/electionprecinctpdfs/Precinct_503.pdf,AC,2022/02/02,AC,2025/10/20,2073,2025/10/20,0.0523056869,0.00013768244,Aurora Center for Active Adults,30 Del Mar Cir,Aurora,CO,80011,39.7291,-104.864,,,,,,,,,,,,,Pickens Technical College
-104.8752962,39.72925115,6,28,42,3,0,6284203504,504,https://gis.arapahoegov.com/mapsandphotos/electionprecinctpdfs/Precinct_504.pdf,AC,2022/02/02,AC,2025/10/20,1049,2025/10/20,0.05307482853,0.00013699472,Aurora Center for Active Adults,30 Del Mar Cir,Aurora,CO,80011,39.7291,-104.864,,,,,,,,,,,,,Pickens Technical College
-104.8502789,39.71696406,6,28,42,3,0,6284203512,512,https://gis.arapahoegov.com/mapsandphotos/electionprecinctpdfs/Precinct_512.pdf,AC,2022/02/02,AC,2025/10/20,1021,2025/10/20,0.02969352709,0.00004405874,Pickens Technical College,500 Airport Blvd Bldg E,Aurora,CO,80011,39.7299,-104.8395,,,,,,,,,,,,,Pickens Technical College
-104.837046,39.71668204,6,28,42,3,0,6284203523,523,https://gis.arapahoegov.com/mapsandphotos/electionprecinctpdfs/Precinct_523.pdf,AC,2022/02/02,AC,2025/10/20,1356,2025/10/20,0.06484624471,0.00022665308,Pickens Technical College,500 Airport Blvd Bldg E,Aurora,CO,80011,39.7299,-104.8395,,,,,,,,,,,,,Pickens Technical College
-104.8356851,39.72388828,6,28,42,3,0,6284203524,524,https://gis.arapahoegov.com/mapsandphotos/electionprecinctpdfs/Precinct_524.pdf,AC,2022/02/02,AC,2025/10/20,919,2025/10/20,0.05239113019,0.00007884908,Pickens Technical College,500 Airport Blvd Bldg E,Aurora,CO,80011,39.7299,-104.8395,,,,,,,,,,,,,Pickens Technical College
-104.8431938,39.73032548,6,28,42,3,0,6284203525,525,https://gis.arapahoegov.com/mapsandphotos/electionprecinctpdfs/Precinct_525.pdf,AC,2022/02/02,AC,2025/10/20,962,2025/10/20,0.04257810536,0.00007978604,Pickens Technical College,500 Airport Blvd Bldg E,Aurora,CO,80011,39.7299,-104.8395,,,,,,,,,,,,,Pickens Technical College
-104.8367953,39.73189568,6,28,42,3,0,6284203526,526,https://gis.arapahoegov.com/mapsandphotos/electionprecinctpdfs/Precinct_526.pdf,AC,2022/02/02,AC,2025/10/20,904,2025/10/20,0.03590522568,0.00005978659,Pickens Technical College,500 Airport Blvd Bldg E,Aurora,CO,80011,39.7299,-104.8395,,,,,,,,,,,,,Pickens Technical College
-104.8495241,39.69994283,6,29,42,3,0,6294203518,518,https://gis.arapahoegov.com/mapsandphotos/electionprecinctpdfs/Precinct_518.pdf,AC,2022/02/02,AC,2025/10/20,701,2025/10/20,0.02316383352,0.00003148269,Heather Gardens,2888 S Heather Gardens Way,Aurora,CO,80014,39.7067,-104.8125,,,,,,,,,,,,,Pickens Technical College
-104.8438643,39.69997867,6,29,42,3,0,6294203519,519,https://gis.arapahoegov.com/mapsandphotos/electionprecinctpdfs/Precinct_519.pdf,AC,2022/02/02,AC,2025/10/20,788,2025/10/20,0.02690150645,0.00004369529,Heather Gardens,2888 S Heather Gardens Way,Aurora,CO,80014,39.7067,-104.8125,,,,,,,,,,,,,Pickens Technical College
-104.8364769,39.70383933,6,29,42,3,0,6294203520,520,https://gis.arapahoegov.com/mapsandphotos/electionprecinctpdfs/Precinct_520.pdf,AC,2022/02/02,AC,2025/10/20,1017,2025/10/20,0.04556290776,0.00007674204,Heather Gardens,2888 S Heather Gardens Way,Aurora,CO,80014,39.7067,-104.8125,,,,,,,,,,,,,Pickens Technical College
-104.8425699,39.70723691,6,29,42,3,0,6294203522,522,https://gis.arapahoegov.com/mapsandphotos/electionprecinctpdfs/Precinct_522.pdf,AC,2022/02/02,AC,2025/10/20,1110,2025/10/20,0.03736637963,0.00007379167,Pickens Technical College,500 Airport Blvd Bldg E,Aurora,CO,80011,39.7299,-104.8395,,,,,,,,,,,,,Pickens Technical College
-104.8544019,39.60693539,6,26,37,3,0,6263703245,245,https://gis.arapahoegov.com/mapsandphotos/electionprecinctpdfs/Precinct_245.pdf,AC,2022/02/02,AC,2025/10/20,514,2025/10/20,0.02160771919,0.0000246601,Smoky Hill Library,5430 S Biscay Cir,Centennial,CO,80015,39.582,-104.8664,,,,,,,,,,,,,Smoky Hill Library
-104.8619697,39.60298809,6,26,37,3,0,6263703246,246,https://gis.arapahoegov.com/mapsandphotos/electionprecinctpdfs/Precinct_246.pdf,AC,2022/02/02,AC,2025/10/20,1122,2025/10/20,0.0418963836,0.00005833237,Smoky Hill Library,5430 S Biscay Cir,Centennial,CO,80015,39.582,-104.8664,,,,,,,,,,,,,Smoky Hill Library
-104.7969095,39.59204775,6,27,37,3,0,6273703206,206,https://gis.arapahoegov.com/mapsandphotos/electionprecinctpdfs/Precinct_206.pdf,AC,2022/02/02,AC,2025/10/20,46,2025/10/20,0.03751287801,0.00004650397,Smoky Hill Library,5430 S Biscay Cir,Centennial,CO,80015,39.582,-104.8664,,,,,,,,,,,,,Smoky Hill Library
-104.7840868,39.58755652,6,27,37,3,0,6273703207,207,https://gis.arapahoegov.com/mapsandphotos/electionprecinctpdfs/Precinct_207.pdf,AC,2022/02/02,AC,2025/10/20,622,2025/10/20,0.075415707,0.00031300095,Smoky Hill Library,5430 S Biscay Cir,Centennial,CO,80015,39.582,-104.8664,,,,,,,,,,,,,Smoky Hill Library
-104.7685542,39.58232179,6,27,37,3,1,6273703213,213,https://gis.arapahoegov.com/mapsandphotos/electionprecinctpdfs/Precinct_213.pdf,AC,2022/02/02,AC,2025/10/20,1534,2025/10/20,0.1293395662,0.0005875792,Smoky Hill Library,5430 S Biscay Cir,Centennial,CO,80015,39.582,-104.8664,,,,,,,,,,,,,Smoky Hill Library
-104.7438236,39.58518741,6,27,37,3,0,6273703216,216,https://gis.arapahoegov.com/mapsandphotos/electionprecinctpdfs/Precinct_216.pdf,AC,2022/02/02,AC,2025/10/20,306,2025/10/20,0.09286478387,0.00015971695,Smoky Hill Library,5430 S Biscay Cir,Centennial,CO,80015,39.582,-104.8664,,,,,,,,,,,,,Smoky Hill Library
-104.8340363,39.57928748,6,27,37,3,0,6273703243,243,https://gis.arapahoegov.com/mapsandphotos/electionprecinctpdfs/Precinct_243.pdf,AC,2022/02/02,AC,2025/10/20,1668,2025/10/20,0.1654448703,0.00135790609,Smoky Hill Library,5430 S Biscay Cir,Centennial,CO,80015,39.582,-104.8664,,,,,,,,,,,,,Smoky Hill Library
-104.8445199,39.59934294,6,27,37,3,0,6273703244,244,https://gis.arapahoegov.com/mapsandphotos/electionprecinctpdfs/Precinct_244.pdf,AC,2022/02/02,AC,2025/10/20,1519,2025/10/20,0.1407357449,0.00038960609,Smoky Hill Library,5430 S Biscay Cir,Centennial,CO,80015,39.582,-104.8664,,,,,,,,,,,,,Smoky Hill Library
-104.8074356,39.59114056,6,27,37,3,1,6273703256,256,https://gis.arapahoegov.com/mapsandphotos/electionprecinctpdfs/Precinct_256.pdf,AC,2022/02/02,AC,2025/10/20,493,2025/10/20,0.04981394015,0.00010771507,Smoky Hill Library,5430 S Biscay Cir,Centennial,CO,80015,39.582,-104.8664,,,,,,,,,,,,,Smoky Hill Library
-104.8080087,39.58492895,6,27,37,3,0,6273703259,259,https://gis.arapahoegov.com/mapsandphotos/electionprecinctpdfs/Precinct_259.pdf,AC,2022/02/02,AC,2025/10/20,1810,2025/10/20,0.08434051148,0.0001634543,Smoky Hill Library,5430 S Biscay Cir,Centennial,CO,80015,39.582,-104.8664,,,,,,,,,,,,,Smoky Hill Library
-104.7968377,39.57328092,6,27,37,3,0,6273703260,260,https://gis.arapahoegov.com/mapsandphotos/electionprecinctpdfs/Precinct_260.pdf,AC,2022/02/02,AC,2025/10/20,2078,2025/10/20,0.07107534721,0.00022700704,Smoky Hill Library,5430 S Biscay Cir,Centennial,CO,80015,39.582,-104.8664,,,,,,,,,,,,,Smoky Hill Library
-104.8114015,39.60392966,6,27,37,3,0,6273703284,284,https://gis.arapahoegov.com/mapsandphotos/electionprecinctpdfs/Precinct_284.pdf,AC,2022/02/02,AC,2025/10/20,944,2025/10/20,0.0590336018,0.0001021829,Smoky Hill Library,5430 S Biscay Cir,Centennial,CO,80015,39.582,-104.8664,,,,,,,,,,,,,Smoky Hill Library
-104.8668371,39.58153186,6,27,37,3,0,6273703286,286,https://gis.arapahoegov.com/mapsandphotos/electionprecinctpdfs/Precinct_286.pdf,AC,2022/02/02,AC,2025/10/20,2051,2025/10/20,0.1090472448,0.00051971256,Smoky Hill Library,5430 S Biscay Cir,Centennial,CO,80015,39.582,-104.8664,,,,,,,,,,,,,Smoky Hill Library
-104.8167109,39.59957357,6,27,37,3,1,6273703287,287,https://gis.arapahoegov.com/mapsandphotos/electionprecinctpdfs/Precinct_287.pdf,AC,2022/02/02,AC,2025/10/20,197,2025/10/20,0.05481726226,0.00014068976,Smoky Hill Library,5430 S Biscay Cir,Centennial,CO,80015,39.582,-104.8664,,,,,,,,,,,,,Smoky Hill Library
-104.8144217,39.61880264,6,27,40,3,0,6274003274,274,https://gis.arapahoegov.com/mapsandphotos/electionprecinctpdfs/Precinct_274.pdf,AC,2022/02/02,AC,2025/10/20,1050,2025/10/20,0.05082152113,0.00008774223,Smoky Hill Library,5430 S Biscay Cir,Centennial,CO,80015,39.582,-104.8664,,,,,,,,,,,,,Smoky Hill Library
-104.8043997,39.62914923,6,27,40,3,0,6274003275,275,https://gis.arapahoegov.com/mapsandphotos/electionprecinctpdfs/Precinct_275.pdf,AC,2022/02/02,AC,2025/10/20,1224,2025/10/20,0.04742669796,0.00012395498,Smoky Hill Library,5430 S Biscay Cir,Centennial,CO,80015,39.582,-104.8664,,,,,,,,,,,,,Smoky Hill Library
-104.7488722,39.57103452,6,27,61,3,1,6276103215,215,https://gis.arapahoegov.com/mapsandphotos/electionprecinctpdfs/Precinct_215.pdf,AC,2022/02/02,AC,2025/10/20,1351,2025/10/20,0.1612572719,0.00064232671,Smoky Hill Library,5430 S Biscay Cir,Centennial,CO,80015,39.582,-104.8664,,,,,,,,,,,,,Smoky Hill Library
-104.8015451,39.60523561,6,27,61,3,1,6276103257,257,https://gis.arapahoegov.com/mapsandphotos/electionprecinctpdfs/Precinct_257.pdf,AC,2022/02/02,AC,2025/10/20,1332,2025/10/20,0.07907614273,0.00022898376,Smoky Hill Library,5430 S Biscay Cir,Centennial,CO,80015,39.582,-104.8664,,,,,,,,,,,,,Smoky Hill Library
-104.7880057,39.60045324,6,27,61,3,0,6276103261,261,https://gis.arapahoegov.com/mapsandphotos/electionprecinctpdfs/Precinct_261.pdf,AC,2022/02/02,AC,2025/10/20,1692,2025/10/20,0.06143169895,0.00015459767,Smoky Hill Library,5430 S Biscay Cir,Centennial,CO,80015,39.582,-104.8664,,,,,,,,,,,,,Smoky Hill Library
-104.7951114,39.61640989,6,27,61,3,0,6276103262,262,https://gis.arapahoegov.com/mapsandphotos/electionprecinctpdfs/Precinct_262.pdf,AC,2022/02/02,AC,2025/10/20,1357,2025/10/20,0.03730203901,0.00007120518,Smoky Hill Library,5430 S Biscay Cir,Centennial,CO,80015,39.582,-104.8664,,,,,,,,,,,,,Smoky Hill Library
-104.8034228,39.61575517,6,27,61,3,0,6276103263,263,https://gis.arapahoegov.com/mapsandphotos/electionprecinctpdfs/Precinct_263.pdf,AC,2022/02/02,AC,2025/10/20,1055,2025/10/20,0.0444238064,0.00007130124,Smoky Hill Library,5430 S Biscay Cir,Centennial,CO,80015,39.582,-104.8664,,,,,,,,,,,,,Smoky Hill Library
-104.8015338,39.62203615,6,27,61,3,0,6276103264,264,https://gis.arapahoegov.com/mapsandphotos/electionprecinctpdfs/Precinct_264.pdf,AC,2022/02/02,AC,2025/10/20,1263,2025/10/20,0.04750679899,0.00007262656,Smoky Hill Library,5430 S Biscay Cir,Centennial,CO,80015,39.582,-104.8664,,,,,,,,,,,,,Smoky Hill Library
-104.787936,39.6158605,6,27,61,3,0,6276103278,278,https://gis.arapahoegov.com/mapsandphotos/electionprecinctpdfs/Precinct_278.pdf,AC,2022/02/02,AC,2025/10/20,524,2025/10/20,0.02796697035,0.00002883467,Smoky Hill Library,5430 S Biscay Cir,Centennial,CO,80015,39.582,-104.8664,,,,,,,,,,,,,Smoky Hill Library
-104.7823998,39.61191723,6,27,61,3,0,6276103281,281,https://gis.arapahoegov.com/mapsandphotos/electionprecinctpdfs/Precinct_281.pdf,AC,2022/02/02,AC,2025/10/20,1245,2025/10/20,0.04477755037,0.00006395141,Smoky Hill Library,5430 S Biscay Cir,Centennial,CO,80015,39.582,-104.8664,,,,,,,,,,,,,Smoky Hill Library
-104.7820615,39.60685227,6,27,61,3,0,6276103282,282,https://gis.arapahoegov.com/mapsandphotos/electionprecinctpdfs/Precinct_282.pdf,AC,2022/02/02,AC,2025/10/20,1644,2025/10/20,0.04910258001,0.00011417147,Smoky Hill Library,5430 S Biscay Cir,Centennial,CO,80015,39.582,-104.8664,,,,,,,,,,,,,Smoky Hill Library
-104.7762094,39.60006035,6,27,61,3,0,6276103285,285,https://gis.arapahoegov.com/mapsandphotos/electionprecinctpdfs/Precinct_285.pdf,AC,2022/02/02,AC,2025/10/20,823,2025/10/20,0.03530653068,0.00005579796,Smoky Hill Library,5430 S Biscay Cir,Centennial,CO,80015,39.582,-104.8664,,,,,,,,,,,,,Smoky Hill Library
-104.7965543,39.62591293,6,27,61,3,0,6276103288,288,https://gis.arapahoegov.com/mapsandphotos/electionprecinctpdfs/Precinct_288.pdf,AC,2022/02/02,AC,2025/10/20,0,2025/10/20,0.0147390734,0.00001320721,Smoky Hill Library,5430 S Biscay Cir,Centennial,CO,80015,39.582,-104.8664,,,,,,,,,,,,,Smoky Hill Library
-104.9379056,39.604562,6,16,37,3,1,6163703208,208,https://gis.arapahoegov.com/mapsandphotos/electionprecinctpdfs/Precinct_208.pdf,AC,2022/02/02,AC,2025/10/20,1162,2025/10/20,0.05410538164,0.00009638647,Southglenn Library,6972 S Vine St,Centennial,CO,80122,39.5825,-104.9508,,,,,,,,,,,,,Southglenn Library
-104.9549198,39.60567278,6,16,38,3,0,6163803127,127,https://gis.arapahoegov.com/mapsandphotos/electionprecinctpdfs/Precinct_127.pdf,AC,2022/02/02,AC,2025/10/20,692,2025/10/20,0.03228442944,0.00005957641,Southglenn Library,6972 S Vine St,Centennial,CO,80122,39.5825,-104.9508,,,,,,,,,,,,,Southglenn Library
-104.9463843,39.60565906,6,16,38,3,1,6163803140,140,https://gis.arapahoegov.com/mapsandphotos/electionprecinctpdfs/Precinct_140.pdf,AC,2022/02/02,AC,2025/10/20,757,2025/10/20,0.03145838485,0.00006085421,Southglenn Library,6972 S Vine St,Centennial,CO,80122,39.5825,-104.9508,,,,,,,,,,,,,Southglenn Library
-104.9498268,39.5987071,6,16,38,3,0,6163803145,145,https://gis.arapahoegov.com/mapsandphotos/electionprecinctpdfs/Precinct_145.pdf,AC,2022/02/02,AC,2025/10/20,1186,2025/10/20,0.05321808854,0.00012188833,Southglenn Library,6972 S Vine St,Centennial,CO,80122,39.5825,-104.9508,,,,,,,,,,,,,Southglenn Library
-104.9680622,39.60334463,6,16,38,3,0,6163803180,180,https://gis.arapahoegov.com/mapsandphotos/electionprecinctpdfs/Precinct_180.pdf,AC,2022/02/02,AC,2025/10/20,1501,2025/10/20,0.07152428659,0.00019482112,Southglenn Library,6972 S Vine St,Centennial,CO,80122,39.5825,-104.9508,,,,,,,,,,,,,Southglenn Library
-104.9720161,39.59839495,6,16,38,3,0,6163803182,182,https://gis.arapahoegov.com/mapsandphotos/electionprecinctpdfs/Precinct_182.pdf,AC,2022/02/02,AC,2025/10/20,967,2025/10/20,0.03562888184,0.00007294183,Southglenn Library,6972 S Vine St,Centennial,CO,80122,39.5825,-104.9508,,,,,,,,,,,,,Southglenn Library
-104.9698503,39.59159687,6,16,38,3,0,6163803183,183,https://gis.arapahoegov.com/mapsandphotos/electionprecinctpdfs/Precinct_183.pdf,AC,2022/02/02,AC,2025/10/20,1369,2025/10/20,0.05156360919,0.0001253796,Southglenn Library,6972 S Vine St,Centennial,CO,80122,39.5825,-104.9508,,,,,,,,,,,,,Southglenn Library
-104.9703025,39.58488416,6,16,38,3,0,6163803184,184,https://gis.arapahoegov.com/mapsandphotos/electionprecinctpdfs/Precinct_184.pdf,AC,2022/02/02,AC,2025/10/20,726,2025/10/20,0.0317842996,0.00005338558,Southglenn Library,6972 S Vine St,Centennial,CO,80122,39.5825,-104.9508,,,,,,,,,,,,,Southglenn Library
-104.963873,39.58467024,6,16,38,3,0,6163803185,185,https://gis.arapahoegov.com/mapsandphotos/electionprecinctpdfs/Precinct_185.pdf,AC,2022/02/02,AC,2025/10/20,960,2025/10/20,0.03775190452,0.00005695489,Southglenn Library,6972 S Vine St,Centennial,CO,80122,39.5825,-104.9508,,,,,,,,,,,,,Southglenn Library
-104.9748845,39.57682611,6,16,38,3,0,6163803186,186,https://gis.arapahoegov.com/mapsandphotos/electionprecinctpdfs/Precinct_186.pdf,AC,2022/02/02,AC,2025/10/20,962,2025/10/20,0.03197279183,0.00005719135,Southglenn Library,6972 S Vine St,Centennial,CO,80122,39.5825,-104.9508,,,,,,,,,,,,,Southglenn Library
-104.9657378,39.57737726,6,16,38,3,0,6163803187,187,https://gis.arapahoegov.com/mapsandphotos/electionprecinctpdfs/Precinct_187.pdf,AC,2022/02/02,AC,2025/10/20,938,2025/10/20,0.03868138891,0.00007198898,Southglenn Library,6972 S Vine St,Centennial,CO,80122,39.5825,-104.9508,,,,,,,,,,,,,Southglenn Library
-104.9737294,39.5699658,6,16,38,3,0,6163803188,188,https://gis.arapahoegov.com/mapsandphotos/electionprecinctpdfs/Precinct_188.pdf,AC,2022/02/02,AC,2025/10/20,658,2025/10/20,0.03176633789,0.00004490805,Southglenn Library,6972 S Vine St,Centennial,CO,80122,39.5825,-104.9508,,,,,,,,,,,,,Southglenn Library
-104.9654893,39.57016762,6,16,38,3,0,6163803189,189,https://gis.arapahoegov.com/mapsandphotos/electionprecinctpdfs/Precinct_189.pdf,AC,2022/02/02,AC,2025/10/20,1115,2025/10/20,0.04073346912,0.00007657759,Southglenn Library,6972 S Vine St,Centennial,CO,80122,39.5825,-104.9508,,,,,,,,,,,,,Southglenn Library
-104.9573076,39.57137364,6,16,38,3,0,6163803190,190,https://gis.arapahoegov.com/mapsandphotos/electionprecinctpdfs/Precinct_190.pdf,AC,2022/02/02,AC,2025/10/20,1309,2025/10/20,0.03729616144,0.00006897533,Southglenn Library,6972 S Vine St,Centennial,CO,80122,39.5825,-104.9508,,,,,,,,,,,,,Southglenn Library
-104.9539499,39.57742635,6,16,38,3,0,6163803193,193,https://gis.arapahoegov.com/mapsandphotos/electionprecinctpdfs/Precinct_193.pdf,AC,2022/02/02,AC,2025/10/20,885,2025/10/20,0.03557674341,0.00005980143,Southglenn Library,6972 S Vine St,Centennial,CO,80122,39.5825,-104.9508,,,,,,,,,,,,,Southglenn Library
-104.9563794,39.58428891,6,16,38,3,0,6163803194,194,https://gis.arapahoegov.com/mapsandphotos/electionprecinctpdfs/Precinct_194.pdf,AC,2022/02/02,AC,2025/10/20,1258,2025/10/20,0.04194477084,0.00006221312,Southglenn Library,6972 S Vine St,Centennial,CO,80122,39.5825,-104.9508,,,,,,,,,,,,,Southglenn Library
-104.9475164,39.58496961,6,16,38,3,0,6163803195,195,https://gis.arapahoegov.com/mapsandphotos/electionprecinctpdfs/Precinct_195.pdf,AC,2022/02/02,AC,2025/10/20,1059,2025/10/20,0.04621159423,0.00008825115,Southglenn Library,6972 S Vine St,Centennial,CO,80122,39.5825,-104.9508,,,,,,,,,,,,,Southglenn Library
-104.951013,39.59063058,6,16,38,3,0,6163803196,196,https://gis.arapahoegov.com/mapsandphotos/electionprecinctpdfs/Precinct_196.pdf,AC,2022/02/02,AC,2025/10/20,654,2025/10/20,0.0534301827,0.00006809262,Southglenn Library,6972 S Vine St,Centennial,CO,80122,39.5825,-104.9508,,,,,,,,,,,,,Southglenn Library
-104.9497141,39.59321092,6,16,38,3,0,6163803197,197,https://gis.arapahoegov.com/mapsandphotos/electionprecinctpdfs/Precinct_197.pdf,AC,2022/02/02,AC,2025/10/20,736,2025/10/20,0.03834819005,0.0000540253,Southglenn Library,6972 S Vine St,Centennial,CO,80122,39.5825,-104.9508,,,,,,,,,,,,,Southglenn Library
-104.9736335,39.61292261,6,26,37,3,0,6263703202,202,https://gis.arapahoegov.com/mapsandphotos/electionprecinctpdfs/Precinct_202.pdf,AC,2022/02/02,AC,2025/10/20,376,2025/10/20,0.04453306517,0.00007934893,Southglenn Library,6972 S Vine St,Centennial,CO,80122,39.5825,-104.9508,,,,,,,,,,,,,Southglenn Library
-104.9641499,39.61639095,6,26,37,3,0,6263703203,203,https://gis.arapahoegov.com/mapsandphotos/electionprecinctpdfs/Precinct_203.pdf,AC,2022/02/02,AC,2025/10/20,752,2025/10/20,0.05331813923,0.00014229499,Southglenn Library,6972 S Vine St,Centennial,CO,80122,39.5825,-104.9508,,,,,,,,,,,,,Southglenn Library
-104.941636,39.61675493,6,26,37,3,0,6263703204,204,https://gis.arapahoegov.com/mapsandphotos/electionprecinctpdfs/Precinct_204.pdf,AC,2022/02/02,AC,2025/10/20,1672,2025/10/20,0.1074190624,0.00054797528,Southglenn Library,6972 S Vine St,Centennial,CO,80122,39.5825,-104.9508,,,,,,,,,,,,,Southglenn Library
-104.6972418,39.63138838,4,27,61,3,1,4276103350,350,https://gis.arapahoegov.com/mapsandphotos/electionprecinctpdfs/Precinct_350.pdf,AC,2022/02/02,AC,2025/10/20,6,2025/10/20,0.1568222189,0.00046473081,Tallyns Reach Library,23911 E Arapahoe Rd,Aurora,CO,80016,39.6806,-104.6871,,,,,,,,,,,,,Tallyns Reach Library
-104.664244,39.65351786,4,28,36,3,1,4283603358,358,https://gis.arapahoegov.com/mapsandphotos/electionprecinctpdfs/Precinct_358.pdf,AC,2022/02/02,AC,2025/10/20,3,2025/10/20,0.3328848125,0.00324932776,Tallyns Reach Library,23911 E Arapahoe Rd,Aurora,CO,80016,39.6806,-104.6871,,,,,,,,,,,,,Tallyns Reach Library
-104.6733911,39.58840011,6,27,56,3,1,6275603355,355,https://gis.arapahoegov.com/mapsandphotos/electionprecinctpdfs/Precinct_355.pdf,AC,2022/02/02,AC,2025/10/20,2591,2025/10/20,0.06152960659,0.00018809521,Tallyns Reach Library,23911 E Arapahoe Rd,Aurora,CO,80016,39.6806,-104.6871,,,,,,,,,,,,,Tallyns Reach Library
-104.6737119,39.61722021,6,27,56,3,1,6275603372,372,https://gis.arapahoegov.com/mapsandphotos/electionprecinctpdfs/Precinct_372.pdf,AC,2022/02/02,AC,2025/10/20,978,2025/10/20,0.2438820056,0.0012293292,Tallyns Reach Library,23911 E Arapahoe Rd,Aurora,CO,80016,39.6806,-104.6871,,,,,,,,,,,,,Tallyns Reach Library
-104.6815843,39.60447752,6,27,56,3,1,6275603373,373,https://gis.arapahoegov.com/mapsandphotos/electionprecinctpdfs/Precinct_373.pdf,AC,2022/02/02,AC,2025/10/20,1305,2025/10/20,0.0703543343,0.00013803254,Tallyns Reach Library,23911 E Arapahoe Rd,Aurora,CO,80016,39.6806,-104.6871,,,,,,,,,,,,,Tallyns Reach Library
-104.6656287,39.59048869,6,27,56,3,1,6275603384,384,https://gis.arapahoegov.com/mapsandphotos/electionprecinctpdfs/Precinct_384.pdf,AC,2022/02/02,AC,2025/10/20,1500,2025/10/20,0.07661253534,0.00014429131,Tallyns Reach Library,23911 E Arapahoe Rd,Aurora,CO,80016,39.6806,-104.6871,,,,,,,,,,,,,Tallyns Reach Library
-104.6985318,39.5712004,6,27,61,3,0,6276103266,266,https://gis.arapahoegov.com/mapsandphotos/electionprecinctpdfs/Precinct_266.pdf,AC,2022/02/02,AC,2025/10/20,1760,2025/10/20,0.06899793217,0.00019697007,Tallyns Reach Library,23911 E Arapahoe Rd,Aurora,CO,80016,39.6806,-104.6871,,,,,,,,,,,,,Tallyns Reach Library
-104.7125553,39.57304631,6,27,61,3,0,6276103268,268,https://gis.arapahoegov.com/mapsandphotos/electionprecinctpdfs/Precinct_268.pdf,AC,2022/02/02,AC,2025/10/20,1422,2025/10/20,0.05912907871,0.00016307795,Tallyns Reach Library,23911 E Arapahoe Rd,Aurora,CO,80016,39.6806,-104.6871,,,,,,,,,,,,,Tallyns Reach Library
-104.7083046,39.62480821,6,27,61,3,0,6276103351,351,https://gis.arapahoegov.com/mapsandphotos/electionprecinctpdfs/Precinct_351.pdf,AC,2022/02/02,AC,2025/10/20,2119,2025/10/20,0.06906151234,0.00020658346,Tallyns Reach Library,23911 E Arapahoe Rd,Aurora,CO,80016,39.6806,-104.6871,,,,,,,,,,,,,Tallyns Reach Library
-104.7050499,39.60506739,6,27,61,3,1,6276103352,352,https://gis.arapahoegov.com/mapsandphotos/electionprecinctpdfs/Precinct_352.pdf,AC,2022/02/02,AC,2025/10/20,2405,2025/10/20,0.0851246766,0.00031586376,Tallyns Reach Library,23911 E Arapahoe Rd,Aurora,CO,80016,39.6806,-104.6871,,,,,,,,,,,,,Tallyns Reach Library
-104.7002195,39.59147675,6,27,61,3,0,6276103353,353,https://gis.arapahoegov.com/mapsandphotos/electionprecinctpdfs/Precinct_353.pdf,AC,2022/02/02,AC,2025/10/20,1195,2025/10/20,0.04654331121,0.00011246661,Tallyns Reach Library,23911 E Arapahoe Rd,Aurora,CO,80016,39.6806,-104.6871,,,,,,,,,,,,,Tallyns Reach Library
-104.6983273,39.58334264,6,27,61,3,0,6276103354,354,https://gis.arapahoegov.com/mapsandphotos/electionprecinctpdfs/Precinct_354.pdf,AC,2022/02/02,AC,2025/10/20,1818,2025/10/20,0.06650904893,0.00017839048,Tallyns Reach Library,23911 E Arapahoe Rd,Aurora,CO,80016,39.6806,-104.6871,,,,,,,,,,,,,Tallyns Reach Library
-104.7152717,39.58262351,6,27,61,3,0,6276103375,375,https://gis.arapahoegov.com/mapsandphotos/electionprecinctpdfs/Precinct_375.pdf,AC,2022/02/02,AC,2025/10/20,1619,2025/10/20,0.05194659978,0.00011726935,Tallyns Reach Library,23911 E Arapahoe Rd,Aurora,CO,80016,39.6806,-104.6871,,,,,,,,,,,,,Tallyns Reach Library
-104.6833833,39.57420793,6,27,61,3,1,6276103377,377,https://gis.arapahoegov.com/mapsandphotos/electionprecinctpdfs/Precinct_377.pdf,AC,2022/02/02,AC,2025/10/20,1202,2025/10/20,0.09100413115,0.0002595217,Tallyns Reach Library,23911 E Arapahoe Rd,Aurora,CO,80016,39.6806,-104.6871,,,,,,,,,,,,,Tallyns Reach Library
-104.6899923,39.59969009,6,27,61,3,1,6276103378,378,https://gis.arapahoegov.com/mapsandphotos/electionprecinctpdfs/Precinct_378.pdf,AC,2022/02/02,AC,2025/10/20,1982,2025/10/20,0.06225350477,0.00011612559,Tallyns Reach Library,23911 E Arapahoe Rd,Aurora,CO,80016,39.6806,-104.6871,,,,,,,,,,,,,Tallyns Reach Library
-104.7126877,39.59400709,6,27,61,3,0,6276103380,380,https://gis.arapahoegov.com/mapsandphotos/electionprecinctpdfs/Precinct_380.pdf,AC,2022/02/02,AC,2025/10/20,1108,2025/10/20,0.04249268859,0.00011213659,Tallyns Reach Library,23911 E Arapahoe Rd,Aurora,CO,80016,39.6806,-104.6871,,,,,,,,,,,,,Tallyns Reach Library
-104.6852206,39.58960388,6,27,61,3,1,6276103383,383,https://gis.arapahoegov.com/mapsandphotos/electionprecinctpdfs/Precinct_383.pdf,AC,2022/02/02,AC,2025/10/20,1445,2025/10/20,0.06140490668,0.00017683145,Tallyns Reach Library,23911 E Arapahoe Rd,Aurora,CO,80016,39.6806,-104.6871,,,,,,,,,,,,,Tallyns Reach Library
-104.700589,39.6211067,6,27,61,3,1,6276103385,385,https://gis.arapahoegov.com/mapsandphotos/electionprecinctpdfs/Precinct_385.pdf,AC,2022/02/02,AC,2025/10/20,865,2025/10/20,0.05011872618,0.00007987546,Tallyns Reach Library,23911 E Arapahoe Rd,Aurora,CO,80016,39.6806,-104.6871,,,,,,,,,,,,,Tallyns Reach Library
-104.6601025,39.57164618,6,27,61,3,1,6276103388,388,https://gis.arapahoegov.com/mapsandphotos/electionprecinctpdfs/Precinct_388.pdf,AC,2022/02/02,AC,2025/10/20,1439,2025/10/20,0.09280640679,0.00034585629,Tallyns Reach Library,23911 E Arapahoe Rd,Aurora,CO,80016,39.6806,-104.6871,,,,,,,,,,,,,Tallyns Reach Library
-104.669421,39.64575614,6,28,36,3,0,6283603349,349,https://gis.arapahoegov.com/mapsandphotos/electionprecinctpdfs/Precinct_349.pdf,AC,2022/02/02,AC,2025/10/20,0,2025/10/20,0.067008953,0.00027746768,Tallyns Reach Library,23911 E Arapahoe Rd,Aurora,CO,80016,39.6806,-104.6871,,,,,,,,,,,,,Tallyns Reach Library
-104.7055484,39.69241292,6,28,36,3,0,6283603562,562,https://gis.arapahoegov.com/mapsandphotos/electionprecinctpdfs/Precinct_562.pdf,AC,2022/02/02,AC,2025/10/20,1995,2025/10/20,0.05655014845,0.00014529398,Tallyns Reach Library,23911 E Arapahoe Rd,Aurora,CO,80016,39.6806,-104.6871,,,,,,,,,,,,,Tallyns Reach Library
-104.7310946,39.63193908,4,27,40,3,1,4274003340,340,https://gis.arapahoegov.com/mapsandphotos/electionprecinctpdfs/Precinct_340.pdf,AC,2022/02/02,AC,2025/10/20,2374,2025/10/20,0.04631768116,0.00013991333,The Avenue Church,13231 E Mississippi Ave,Aurora,CO,80012,39.6824,-104.742,,,,,,,,,,,,,The Avenue Church
-104.7444016,39.63389998,4,27,40,3,0,4274003369,369,https://gis.arapahoegov.com/mapsandphotos/electionprecinctpdfs/Precinct_369.pdf,AC,2022/02/02,AC,2025/10/20,2313,2025/10/20,0.06106854252,0.00015776826,The Avenue Church,13231 E Mississippi Ave,Aurora,CO,80012,39.6824,-104.742,,,,,,,,,,,,,The Avenue Church
-104.7476584,39.62707297,4,27,40,3,0,4274003370,370,https://gis.arapahoegov.com/mapsandphotos/electionprecinctpdfs/Precinct_370.pdf,AC,2022/02/02,AC,2025/10/20,1743,2025/10/20,0.04806968551,0.00008427897,The Avenue Church,13231 E Mississippi Ave,Aurora,CO,80012,39.6824,-104.742,,,,,,,,,,,,,The Avenue Church
-104.7233933,39.63052041,4,27,40,3,1,4274003387,387,https://gis.arapahoegov.com/mapsandphotos/electionprecinctpdfs/Precinct_387.pdf,AC,2022/02/02,AC,2025/10/20,1319,2025/10/20,0.06381571025,0.0001153439,The Avenue Church,13231 E Mississippi Ave,Aurora,CO,80012,39.6824,-104.742,,,,,,,,,,,,,The Avenue Church
-104.7343916,39.61043536,4,27,61,3,1,4276103334,334,https://gis.arapahoegov.com/mapsandphotos/electionprecinctpdfs/Precinct_334.pdf,AC,2022/02/02,AC,2025/10/20,1497,2025/10/20,0.05348471921,0.00008521268,The Avenue Church,13231 E Mississippi Ave,Aurora,CO,80012,39.6824,-104.742,,,,,,,,,,,,,The Avenue Church
-104.7246404,39.60901824,4,27,61,3,0,4276103335,335,https://gis.arapahoegov.com/mapsandphotos/electionprecinctpdfs/Precinct_335.pdf,AC,2022/02/02,AC,2025/10/20,1801,2025/10/20,0.04770227125,0.00008512325,The Avenue Church,13231 E Mississippi Ave,Aurora,CO,80012,39.6824,-104.742,,,,,,,,,,,,,The Avenue Church
-104.7217699,39.61816391,4,27,61,3,0,4276103336,336,https://gis.arapahoegov.com/mapsandphotos/electionprecinctpdfs/Precinct_336.pdf,AC,2022/02/02,AC,2025/10/20,1597,2025/10/20,0.03940251853,0.00007711648,The Avenue Church,13231 E Mississippi Ave,Aurora,CO,80012,39.6824,-104.742,,,,,,,,,,,,,The Avenue Church
-104.7317136,39.62046843,4,27,61,3,0,4276103337,337,https://gis.arapahoegov.com/mapsandphotos/electionprecinctpdfs/Precinct_337.pdf,AC,2022/02/02,AC,2025/10/20,1502,2025/10/20,0.04888109488,0.00011750092,The Avenue Church,13231 E Mississippi Ave,Aurora,CO,80012,39.6824,-104.742,,,,,,,,,,,,,The Avenue Church
-104.7190434,39.60659349,4,27,61,3,0,4276103368,368,https://gis.arapahoegov.com/mapsandphotos/electionprecinctpdfs/Precinct_368.pdf,AC,2022/02/02,AC,2025/10/20,739,2025/10/20,0.03529912704,0.0000430429,The Avenue Church,13231 E Mississippi Ave,Aurora,CO,80012,39.6824,-104.742,,,,,,,,,,,,,The Avenue Church
-104.7352313,39.6155056,4,27,61,3,1,4276103382,382,https://gis.arapahoegov.com/mapsandphotos/electionprecinctpdfs/Precinct_382.pdf,AC,2022/02/02,AC,2025/10/20,638,2025/10/20,0.0295335771,0.00003392428,The Avenue Church,13231 E Mississippi Ave,Aurora,CO,80012,39.6824,-104.742,,,,,,,,,,,,,The Avenue Church
-104.748366,39.64925225,4,28,40,3,1,4284003318,318,https://gis.arapahoegov.com/mapsandphotos/electionprecinctpdfs/Precinct_318.pdf,AC,2022/02/02,AC,2025/10/20,1100,2025/10/20,0.03438818556,0.00006681469,The Avenue Church,13231 E Mississippi Ave,Aurora,CO,80012,39.6824,-104.742,,,,,,,,,,,,,The Avenue Church
-104.7471988,39.64249693,4,28,40,3,0,4284003341,341,https://gis.arapahoegov.com/mapsandphotos/electionprecinctpdfs/Precinct_341.pdf,AC,2022/02/02,AC,2025/10/20,1872,2025/10/20,0.04451694212,0.00009781439,The Avenue Church,13231 E Mississippi Ave,Aurora,CO,80012,39.6824,-104.742,,,,,,,,,,,,,The Avenue Church
-104.7386967,39.64632499,4,28,40,3,0,4284003343,343,https://gis.arapahoegov.com/mapsandphotos/electionprecinctpdfs/Precinct_343.pdf,AC,2022/02/02,AC,2025/10/20,1435,2025/10/20,0.04966058889,0.00010293036,The Avenue Church,13231 E Mississippi Ave,Aurora,CO,80012,39.6824,-104.742,,,,,,,,,,,,,The Avenue Church
-104.7949747,39.63292565,6,27,40,3,0,6274003290,290,https://gis.arapahoegov.com/mapsandphotos/electionprecinctpdfs/Precinct_290.pdf,AC,2022/02/02,AC,2025/10/20,941,2025/10/20,0.03894659302,0.00008037798,The Avenue Church,13231 E Mississippi Ave,Aurora,CO,80012,39.6824,-104.742,,,,,,,,,,,,,The Avenue Church
-104.7733707,39.63478728,6,27,40,3,0,6274003302,302,https://gis.arapahoegov.com/mapsandphotos/electionprecinctpdfs/Precinct_302.pdf,AC,2022/02/02,AC,2025/10/20,925,2025/10/20,0.07154124896,0.00017147054,The Avenue Church,13231 E Mississippi Ave,Aurora,CO,80012,39.6824,-104.742,,,,,,,,,,,,,The Avenue Church
-104.7874649,39.63390942,6,27,40,3,0,6274003303,303,https://gis.arapahoegov.com/mapsandphotos/electionprecinctpdfs/Precinct_303.pdf,AC,2022/02/02,AC,2025/10/20,1128,2025/10/20,0.0365221749,0.00006416075,The Avenue Church,13231 E Mississippi Ave,Aurora,CO,80012,39.6824,-104.742,,,,,,,,,,,,,The Avenue Church
-104.7872881,39.62700118,6,27,40,3,0,6274003304,304,https://gis.arapahoegov.com/mapsandphotos/electionprecinctpdfs/Precinct_304.pdf,AC,2022/02/02,AC,2025/10/20,999,2025/10/20,0.03229972443,0.00004153669,The Avenue Church,13231 E Mississippi Ave,Aurora,CO,80012,39.6824,-104.742,,,,,,,,,,,,,The Avenue Church
-104.7795492,39.62690724,6,27,40,3,0,6274003305,305,https://gis.arapahoegov.com/mapsandphotos/electionprecinctpdfs/Precinct_305.pdf,AC,2022/02/02,AC,2025/10/20,825,2025/10/20,0.03856930949,0.00005073246,The Avenue Church,13231 E Mississippi Ave,Aurora,CO,80012,39.6824,-104.742,,,,,,,,,,,,,The Avenue Church
-104.7679602,39.62880064,6,27,40,3,0,6274003306,306,https://gis.arapahoegov.com/mapsandphotos/electionprecinctpdfs/Precinct_306.pdf,AC,2022/02/02,AC,2025/10/20,915,2025/10/20,0.02737704437,0.00004578046,The Avenue Church,13231 E Mississippi Ave,Aurora,CO,80012,39.6824,-104.742,,,,,,,,,,,,,The Avenue Church
-104.7708515,39.62677931,6,27,40,3,0,6274003307,307,https://gis.arapahoegov.com/mapsandphotos/electionprecinctpdfs/Precinct_307.pdf,AC,2022/02/02,AC,2025/10/20,906,2025/10/20,0.04369157302,0.00004020343,The Avenue Church,13231 E Mississippi Ave,Aurora,CO,80012,39.6824,-104.742,,,,,,,,,,,,,The Avenue Church
-104.76186,39.61047391,6,27,61,3,0,6276103205,205,https://gis.arapahoegov.com/mapsandphotos/electionprecinctpdfs/Precinct_205.pdf,AC,2022/02/02,AC,2025/10/20,1203,2025/10/20,0.03738949309,0.00007392837,The Avenue Church,13231 E Mississippi Ave,Aurora,CO,80012,39.6824,-104.742,,,,,,,,,,,,,The Avenue Church
-104.7423611,39.60289854,6,27,61,3,0,6276103265,265,https://gis.arapahoegov.com/mapsandphotos/electionprecinctpdfs/Precinct_265.pdf,AC,2022/02/02,AC,2025/10/20,735,2025/10/20,0.06300001173,0.00013631456,The Avenue Church,13231 E Mississippi Ave,Aurora,CO,80012,39.6824,-104.742,,,,,,,,,,,,,The Avenue Church
-104.7578669,39.59982332,6,27,61,3,1,6276103267,267,https://gis.arapahoegov.com/mapsandphotos/electionprecinctpdfs/Precinct_267.pdf,AC,2022/02/02,AC,2025/10/20,1747,2025/10/20,0.1003032849,0.00023982011,The Avenue Church,13231 E Mississippi Ave,Aurora,CO,80012,39.6824,-104.742,,,,,,,,,,,,,The Avenue Church
-104.7813591,39.61973283,6,27,61,3,0,6276103276,276,https://gis.arapahoegov.com/mapsandphotos/electionprecinctpdfs/Precinct_276.pdf,AC,2022/02/02,AC,2025/10/20,323,2025/10/20,0.01888543316,0.00001884108,The Avenue Church,13231 E Mississippi Ave,Aurora,CO,80012,39.6824,-104.742,,,,,,,,,,,,,The Avenue Church
-104.7874171,39.62091545,6,27,61,3,0,6276103277,277,https://gis.arapahoegov.com/mapsandphotos/electionprecinctpdfs/Precinct_277.pdf,AC,2022/02/02,AC,2025/10/20,917,2025/10/20,0.03691899459,0.00005890043,The Avenue Church,13231 E Mississippi Ave,Aurora,CO,80012,39.6824,-104.742,,,,,,,,,,,,,The Avenue Church
-104.7775283,39.61611836,6,27,61,3,0,6276103279,279,https://gis.arapahoegov.com/mapsandphotos/electionprecinctpdfs/Precinct_279.pdf,AC,2022/02/02,AC,2025/10/20,963,2025/10/20,0.03373565351,0.00005777945,The Avenue Church,13231 E Mississippi Ave,Aurora,CO,80012,39.6824,-104.742,,,,,,,,,,,,,The Avenue Church
-104.7693012,39.61355181,6,27,61,3,0,6276103280,280,https://gis.arapahoegov.com/mapsandphotos/electionprecinctpdfs/Precinct_280.pdf,AC,2022/02/02,AC,2025/10/20,1238,2025/10/20,0.03268576493,0.00006043554,The Avenue Church,13231 E Mississippi Ave,Aurora,CO,80012,39.6824,-104.742,,,,,,,,,,,,,The Avenue Church
-104.7637352,39.60514119,6,27,61,3,0,6276103283,283,https://gis.arapahoegov.com/mapsandphotos/electionprecinctpdfs/Precinct_283.pdf,AC,2022/02/02,AC,2025/10/20,1048,2025/10/20,0.05395984072,0.00010752676,The Avenue Church,13231 E Mississippi Ave,Aurora,CO,80012,39.6824,-104.742,,,,,,,,,,,,,The Avenue Church
-104.7932361,39.62568743,6,27,61,3,0,6276103289,289,https://gis.arapahoegov.com/mapsandphotos/electionprecinctpdfs/Precinct_289.pdf,AC,2022/02/02,AC,2025/10/20,0,2025/10/20,0.01104871778,0.00000665509,The Avenue Church,13231 E Mississippi Ave,Aurora,CO,80012,39.6824,-104.742,,,,,,,,,,,,,The Avenue Church
-104.7678064,39.62040452,6,27,61,3,0,6276103308,308,https://gis.arapahoegov.com/mapsandphotos/electionprecinctpdfs/Precinct_308.pdf,AC,2022/02/02,AC,2025/10/20,1201,2025/10/20,0.0333500405,0.00006598167,The Avenue Church,13231 E Mississippi Ave,Aurora,CO,80012,39.6824,-104.742,,,,,,,,,,,,,The Avenue Church
-104.7772725,39.62220727,6,27,61,3,0,6276103309,309,https://gis.arapahoegov.com/mapsandphotos/electionprecinctpdfs/Precinct_309.pdf,AC,2022/02/02,AC,2025/10/20,682,2025/10/20,0.03292280194,0.00003553398,The Avenue Church,13231 E Mississippi Ave,Aurora,CO,80012,39.6824,-104.742,,,,,,,,,,,,,The Avenue Church
-104.7583569,39.63082487,6,27,61,3,0,6276103320,320,https://gis.arapahoegov.com/mapsandphotos/electionprecinctpdfs/Precinct_320.pdf,AC,2022/02/02,AC,2025/10/20,1837,2025/10/20,0.05002740506,0.00012677751,The Avenue Church,13231 E Mississippi Ave,Aurora,CO,80012,39.6824,-104.742,,,,,,,,,,,,,The Avenue Church
-104.75854,39.61882968,6,27,61,3,0,6276103321,321,https://gis.arapahoegov.com/mapsandphotos/electionprecinctpdfs/Precinct_321.pdf,AC,2022/02/02,AC,2025/10/20,1340,2025/10/20,0.04078570469,0.00009677117,The Avenue Church,13231 E Mississippi Ave,Aurora,CO,80012,39.6824,-104.742,,,,,,,,,,,,,The Avenue Church
-104.7295265,39.58165575,6,27,61,3,0,6276103327,327,https://gis.arapahoegov.com/mapsandphotos/electionprecinctpdfs/Precinct_327.pdf,AC,2022/02/02,AC,2025/10/20,1280,2025/10/20,0.09017665027,0.00017057959,The Avenue Church,13231 E Mississippi Ave,Aurora,CO,80012,39.6824,-104.742,,,,,,,,,,,,,The Avenue Church
-104.7345949,39.59173791,6,27,61,3,0,6276103329,329,https://gis.arapahoegov.com/mapsandphotos/electionprecinctpdfs/Precinct_329.pdf,AC,2022/02/02,AC,2025/10/20,1388,2025/10/20,0.0828142259,0.00013863465,The Avenue Church,13231 E Mississippi Ave,Aurora,CO,80012,39.6824,-104.742,,,,,,,,,,,,,The Avenue Church
-104.7268636,39.59855226,6,27,61,3,0,6276103330,330,https://gis.arapahoegov.com/mapsandphotos/electionprecinctpdfs/Precinct_330.pdf,AC,2022/02/02,AC,2025/10/20,1970,2025/10/20,0.08696747247,0.00019572035,The Avenue Church,13231 E Mississippi Ave,Aurora,CO,80012,39.6824,-104.742,,,,,,,,,,,,,The Avenue Church
-104.7496695,39.61297596,6,27,61,3,0,6276103332,332,https://gis.arapahoegov.com/mapsandphotos/electionprecinctpdfs/Precinct_332.pdf,AC,2022/02/02,AC,2025/10/20,1104,2025/10/20,0.03648832373,0.00006610185,The Avenue Church,13231 E Mississippi Ave,Aurora,CO,80012,39.6824,-104.742,,,,,,,,,,,,,The Avenue Church
-104.7406408,39.60959594,6,27,61,3,1,6276103333,333,https://gis.arapahoegov.com/mapsandphotos/electionprecinctpdfs/Precinct_333.pdf,AC,2022/02/02,AC,2025/10/20,729,2025/10/20,0.03939750554,0.0000463881,The Avenue Church,13231 E Mississippi Ave,Aurora,CO,80012,39.6824,-104.742,,,,,,,,,,,,,The Avenue Church
-104.7430405,39.6213426,6,27,61,3,0,6276103338,338,https://gis.arapahoegov.com/mapsandphotos/electionprecinctpdfs/Precinct_338.pdf,AC,2022/02/02,AC,2025/10/20,1048,2025/10/20,0.0370720618,0.00005211044,The Avenue Church,13231 E Mississippi Ave,Aurora,CO,80012,39.6824,-104.742,,,,,,,,,,,,,The Avenue Church
-104.7484225,39.61901284,6,27,61,3,0,6276103339,339,https://gis.arapahoegov.com/mapsandphotos/electionprecinctpdfs/Precinct_339.pdf,AC,2022/02/02,AC,2025/10/20,1321,2025/10/20,0.0399670778,0.00006701256,The Avenue Church,13231 E Mississippi Ave,Aurora,CO,80012,39.6824,-104.742,,,,,,,,,,,,,The Avenue Church
-104.7359386,39.58846881,6,27,61,3,0,6276103379,379,https://gis.arapahoegov.com/mapsandphotos/electionprecinctpdfs/Precinct_379.pdf,AC,2022/02/02,AC,2025/10/20,1073,2025/10/20,0.05494998936,0.0000875366,The Avenue Church,13231 E Mississippi Ave,Aurora,CO,80012,39.6824,-104.742,,,,,,,,,,,,,The Avenue Church
-104.7600626,39.67857759,6,28,36,3,1,6283603311,311,https://gis.arapahoegov.com/mapsandphotos/electionprecinctpdfs/Precinct_311.pdf,AC,2022/02/02,AC,2025/10/20,1270,2025/10/20,0.03976861788,0.00009023896,The Avenue Church,13231 E Mississippi Ave,Aurora,CO,80012,39.6824,-104.742,,,,,,,,,,,,,The Avenue Church
-104.7697867,39.68009898,6,28,36,3,1,6283603322,322,https://gis.arapahoegov.com/mapsandphotos/electionprecinctpdfs/Precinct_322.pdf,AC,2022/02/02,AC,2025/10/20,628,2025/10/20,0.0240933621,0.00002285714,The Avenue Church,13231 E Mississippi Ave,Aurora,CO,80012,39.6824,-104.742,,,,,,,,,,,,,The Avenue Church
-104.7303099,39.64572257,6,28,36,3,1,6283603342,342,https://gis.arapahoegov.com/mapsandphotos/electionprecinctpdfs/Precinct_342.pdf,AC,2022/02/02,AC,2025/10/20,2028,2025/10/20,0.04756970268,0.00013465736,The Avenue Church,13231 E Mississippi Ave,Aurora,CO,80012,39.6824,-104.742,,,,,,,,,,,,,The Avenue Church
-104.7282114,39.66999417,6,28,36,3,0,6283603344,344,https://gis.arapahoegov.com/mapsandphotos/electionprecinctpdfs/Precinct_344.pdf,AC,2022/02/02,AC,2025/10/20,2231,2025/10/20,0.1762976454,0.00110246816,The Avenue Church,13231 E Mississippi Ave,Aurora,CO,80012,39.6824,-104.742,,,,,,,,,,,,,The Avenue Church
-104.7518035,39.66305179,6,28,36,3,0,6283603371,371,https://gis.arapahoegov.com/mapsandphotos/electionprecinctpdfs/Precinct_371.pdf,AC,2022/02/02,AC,2025/10/20,1061,2025/10/20,0.05666904246,0.00008613301,The Avenue Church,13231 E Mississippi Ave,Aurora,CO,80012,39.6824,-104.742,,,,,,,,,,,,,The Avenue Church
-104.7685868,39.68772293,6,28,36,3,0,6283603556,556,https://gis.arapahoegov.com/mapsandphotos/electionprecinctpdfs/Precinct_556.pdf,AC,2022/02/02,AC,2025/10/20,1607,2025/10/20,0.04305790553,0.00009503902,The Avenue Church,13231 E Mississippi Ave,Aurora,CO,80012,39.6824,-104.742,,,,,,,,,,,,,The Avenue Church
-104.7599862,39.69010157,6,28,36,3,0,6283603557,557,https://gis.arapahoegov.com/mapsandphotos/electionprecinctpdfs/Precinct_557.pdf,AC,2022/02/02,AC,2025/10/20,1840,2025/10/20,0.05856537103,0.00017622457,The Avenue Church,13231 E Mississippi Ave,Aurora,CO,80012,39.6824,-104.742,,,,,,,,,,,,,The Avenue Church
-104.7686639,39.67374069,6,28,40,3,1,6284003310,310,https://gis.arapahoegov.com/mapsandphotos/electionprecinctpdfs/Precinct_310.pdf,AC,2022/02/02,AC,2025/10/20,1093,2025/10/20,0.0319829131,0.00006068321,The Avenue Church,13231 E Mississippi Ave,Aurora,CO,80012,39.6824,-104.742,,,,,,,,,,,,,The Avenue Church
-104.7640574,39.66822782,6,28,40,3,0,6284003312,312,https://gis.arapahoegov.com/mapsandphotos/electionprecinctpdfs/Precinct_312.pdf,AC,2022/02/02,AC,2025/10/20,1898,2025/10/20,0.056559321,0.00009806324,The Avenue Church,13231 E Mississippi Ave,Aurora,CO,80012,39.6824,-104.742,,,,,,,,,,,,,The Avenue Church
-104.7687458,39.6605694,6,28,40,3,0,6284003313,313,https://gis.arapahoegov.com/mapsandphotos/electionprecinctpdfs/Precinct_313.pdf,AC,2022/02/02,AC,2025/10/20,1142,2025/10/20,0.03127594212,0.00006294056,The Avenue Church,13231 E Mississippi Ave,Aurora,CO,80012,39.6824,-104.742,,,,,,,,,,,,,The Avenue Church
-104.7642721,39.65767967,6,28,40,3,0,6284003314,314,https://gis.arapahoegov.com/mapsandphotos/electionprecinctpdfs/Precinct_314.pdf,AC,2022/02/02,AC,2025/10/20,908,2025/10/20,0.0536310659,0.0000842894,The Avenue Church,13231 E Mississippi Ave,Aurora,CO,80012,39.6824,-104.742,,,,,,,,,,,,,The Avenue Church
-104.7568904,39.65970951,6,28,40,3,0,6284003315,315,https://gis.arapahoegov.com/mapsandphotos/electionprecinctpdfs/Precinct_315.pdf,AC,2022/02/02,AC,2025/10/20,1674,2025/10/20,0.04733205797,0.00007273533,The Avenue Church,13231 E Mississippi Ave,Aurora,CO,80012,39.6824,-104.742,,,,,,,,,,,,,The Avenue Church
-104.7570023,39.67097154,6,28,40,3,1,6284003386,386,https://gis.arapahoegov.com/mapsandphotos/electionprecinctpdfs/Precinct_386.pdf,AC,2022/02/02,AC,2025/10/20,992,2025/10/20,0.0422777243,0.00004730118,The Avenue Church,13231 E Mississippi Ave,Aurora,CO,80012,39.6824,-104.742,,,,,,,,,,,,,The Avenue Church
-104.7530395,39.65084016,6,28,40,3,1,6284003389,389,https://gis.arapahoegov.com/mapsandphotos/electionprecinctpdfs/Precinct_389.pdf,AC,2022/02/02,AC,2025/10/20,108,2025/10/20,0.01077217313,0.000005688,The Avenue Church,13231 E Mississippi Ave,Aurora,CO,80012,39.6824,-104.742,,,,,,,,,,,,,The Avenue Church
-104.7693057,39.64434293,6,29,40,3,0,6294003301,301,https://gis.arapahoegov.com/mapsandphotos/electionprecinctpdfs/Precinct_301.pdf,AC,2022/02/02,AC,2025/10/20,1135,2025/10/20,0.04751396909,0.00008107657,The Avenue Church,13231 E Mississippi Ave,Aurora,CO,80012,39.6824,-104.742,,,,,,,,,,,,,The Avenue Church
-104.7616392,39.65105852,6,29,40,3,0,6294003316,316,https://gis.arapahoegov.com/mapsandphotos/electionprecinctpdfs/Precinct_316.pdf,AC,2022/02/02,AC,2025/10/20,857,2025/10/20,0.03145969813,0.0000431876,The Avenue Church,13231 E Mississippi Ave,Aurora,CO,80012,39.6824,-104.742,,,,,,,,,,,,,The Avenue Church
-104.7652062,39.64730043,6,29,40,3,0,6294003317,317,https://gis.arapahoegov.com/mapsandphotos/electionprecinctpdfs/Precinct_317.pdf,AC,2022/02/02,AC,2025/10/20,1100,2025/10/20,0.02819301366,0.00004261585,The Avenue Church,13231 E Mississippi Ave,Aurora,CO,80012,39.6824,-104.742,,,,,,,,,,,,,The Avenue Church
-104.7582379,39.64404327,6,29,40,3,0,6294003319,319,https://gis.arapahoegov.com/mapsandphotos/electionprecinctpdfs/Precinct_319.pdf,AC,2022/02/02,AC,2025/10/20,1930,2025/10/20,0.04785436749,0.00010377463,The Avenue Church,13231 E Mississippi Ave,Aurora,CO,80012,39.6824,-104.742,,,,,,,,,,,,,The Avenue Church
-104.787749,39.64181267,6,29,40,3,0,6294003449,449,https://gis.arapahoegov.com/mapsandphotos/electionprecinctpdfs/Precinct_449.pdf,AC,2022/02/02,AC,2025/10/20,1169,2025/10/20,0.03039822332,0.00005219944,The Avenue Church,13231 E Mississippi Ave,Aurora,CO,80012,39.6824,-104.742,,,,,,,,,,,,,The Avenue Church
-104.7778304,39.64210987,6,29,40,3,0,6294003450,450,https://gis.arapahoegov.com/mapsandphotos/electionprecinctpdfs/Precinct_450.pdf,AC,2022/02/02,AC,2025/10/20,1162,2025/10/20,0.03961482224,0.00007657812,The Avenue Church,13231 E Mississippi Ave,Aurora,CO,80012,39.6824,-104.742,,,,,,,,,,,,,The Avenue Church
-104.7807057,39.67099577,6,29,40,3,1,6294003452,452,https://gis.arapahoegov.com/mapsandphotos/electionprecinctpdfs/Precinct_452.pdf,AC,2022/02/02,AC,2025/10/20,1909,2025/10/20,0.05500256084,0.00013545197,The Avenue Church,13231 E Mississippi Ave,Aurora,CO,80012,39.6824,-104.742,,,,,,,,,,,,,The Avenue Church
-104.7809556,39.66317916,6,29,40,3,0,6294003454,454,https://gis.arapahoegov.com/mapsandphotos/electionprecinctpdfs/Precinct_454.pdf,AC,2022/02/02,AC,2025/10/20,939,2025/10/20,0.03235823531,0.0000454127,The Avenue Church,13231 E Mississippi Ave,Aurora,CO,80012,39.6824,-104.742,,,,,,,,,,,,,The Avenue Church
-104.77542,39.65991911,6,29,40,3,0,6294003455,455,https://gis.arapahoegov.com/mapsandphotos/electionprecinctpdfs/Precinct_455.pdf,AC,2022/02/02,AC,2025/10/20,1334,2025/10/20,0.04135698457,0.00008236641,The Avenue Church,13231 E Mississippi Ave,Aurora,CO,80012,39.6824,-104.742,,,,,,,,,,,,,The Avenue Church
-104.7873509,39.65643546,6,29,40,3,0,6294003456,456,https://gis.arapahoegov.com/mapsandphotos/electionprecinctpdfs/Precinct_456.pdf,AC,2022/02/02,AC,2025/10/20,856,2025/10/20,0.02908179655,0.00005139301,The Avenue Church,13231 E Mississippi Ave,Aurora,CO,80012,39.6824,-104.742,,,,,,,,,,,,,The Avenue Church
-104.7809194,39.65543836,6,29,40,3,0,6294003457,457,https://gis.arapahoegov.com/mapsandphotos/electionprecinctpdfs/Precinct_457.pdf,AC,2022/02/02,AC,2025/10/20,711,2025/10/20,0.02023900765,0.0000236165,The Avenue Church,13231 E Mississippi Ave,Aurora,CO,80012,39.6824,-104.742,,,,,,,,,,,,,The Avenue Church
-104.7866887,39.64971043,6,29,40,3,0,6294003458,458,https://gis.arapahoegov.com/mapsandphotos/electionprecinctpdfs/Precinct_458.pdf,AC,2022/02/02,AC,2025/10/20,1245,2025/10/20,0.04230007416,0.00006365314,The Avenue Church,13231 E Mississippi Ave,Aurora,CO,80012,39.6824,-104.742,,,,,,,,,,,,,The Avenue Church
-104.7782933,39.64869843,6,29,40,3,0,6294003459,459,https://gis.arapahoegov.com/mapsandphotos/electionprecinctpdfs/Precinct_459.pdf,AC,2022/02/02,AC,2025/10/20,1364,2025/10/20,0.04373731055,0.00008066265,The Avenue Church,13231 E Mississippi Ave,Aurora,CO,80012,39.6824,-104.742,,,,,,,,,,,,,The Avenue Church
-104.7771936,39.67892723,6,29,41,3,1,6294103473,473,https://gis.arapahoegov.com/mapsandphotos/electionprecinctpdfs/Precinct_473.pdf,AC,2022/02/02,AC,2025/10/20,1111,2025/10/20,0.02992635229,0.00005554188,The Avenue Church,13231 E Mississippi Ave,Aurora,CO,80012,39.6824,-104.742,,,,,,,,,,,,,The Avenue Church