Assigned VSPC,Voters Assigned,Precincts Assigned,Address,City,State,ZIP
Arapahoe Community College,18678,19,5900 S Santa Fe Dr,Littleton,CO,80120
Arapahoe County CentrePoint Plaza,9856,8,14980 E Alameda Dr,Aurora,CO,80012
Arapahoe County Fairgrounds,6677,10,25690 E Quincy Ave,Aurora,CO,80016
Arapahoe County Lima Plaza,10656,11,6954 S Lima St,Centennial,CO,80112
Aurora Center for Active Adults,10663,10,30 Del Mar Cir,Aurora,CO,80011
Aurora Public Schools Educational Service Center 4,1250,2,1085 Peoria St,Aurora,CO,80011
Aurora Public Schools Professional Learning & Conference Center,1067,2,15771 E 1st Ave,Aurora,CO,80011
Beck Recreation Center,9936,9,800 Telluride St,Aurora,CO,80011
Bemis Public Library,17318,18,6014 S Datura St,Littleton,CO,80120
Central Recreation Center,96,1,18150 E Vassar Pl,Aurora,CO,80013
Cherry Creek School District Instructional Support Facility,14779,16,5416 S Riviera Way,Centennial,CO,80112
City of Aurora Municipal Center,19500,23,15151 E Alameda Pkwy,Aurora,CO,80012
City of Glendale Municipal Building,10155,9,950 S. Birch Street,Glendale,CO,80246
City of Sheridan Municipal Building,9801,8,4101 S Federal Blvd,Sheridan,CO,80110
Community College of Aurora CentreTech Campus,6024,5,16000 E CentreTech Pkwy,Aurora,CO,80011
Community College of Aurora Lowry Campus,15069,17,710 Alton Way,Denver,CO,80230
Cook Park Recreation Center,9953,11,7100 Cherry Creek S Dr,Denver,CO,80224
Englewood Civic Center,15993,21,1000 Englewood Pkwy,Englewood,CO,80110
Greenwood Village City Hall,22311,22,6060 S Quebec St,Greenwood Village,CO,80111
Heather Gardens,15488,15,2888 S Heather Gardens Way,Aurora,CO,80014
Kelver Library,4433,3,585 S Main St,Byers,CO,80103
"Martin Luther King, Jr. Library",3057,2,9898 E. Colfax Ave,Aurora,CO,80010
Mission Viejo Library,9696,8,15324 E Hampden Cir,Aurora,CO,80013
Murphy Creek Golf Course,13590,9,1700 S. Old Tom Morris Rd.,Aurora,CO,80018
Parkside Village Retirement Resort,9475,8,14501 E Crestline Dr,Aurora,CO,80015
Pickens Technical College,9469,8,500 Airport Blvd Bldg E,Aurora,CO,80011
Smoky Hill Library,15086,10,5430 S Biscay Cir,Centennial,CO,80015
Southglenn Library,19688,22,6972 S Vine St,Centennial,CO,80122
Tallyns Reach Library,15491,14,23911 E Arapahoe Rd,Aurora,CO,80016
The Avenue Church,25504,22,13231 E Mississippi Ave,Aurora,CO,80012
Trails Recreation Center,51598,58,16799 E. Lake Ave.,Centennial,CO,80016
Vista PEAK,0,2,24500 E. 6th Ave,Aurora,CO,80018
