Precinct,Voters,Nearest VSPC,Distance to Nearest VSPC (mi.),Assigned VSPC,Distance to Assigned VSPC (mi.),Distance Difference (mi.),Reassigned,Voters Assigned,Precincts Assigned,Address,City,State,Zip,Precinct Map URL
155,1255,Arapahoe Community College,0.44,Arapahoe Community College,0.44,0.00,False,18678,19,5900 S Santa Fe Dr,Littleton,CO,80120,https://gis.arapahoegov.com/mapsandphotos/electionprecinctpdfs/Precinct_155.pdf
156,498,Arapahoe Community College,0.23,Arapahoe Community College,0.23,0.00,False,18678,19,5900 S Santa Fe Dr,Littleton,CO,80120,https://gis.arapahoegov.com/mapsandphotos/electionprecinctpdfs/Precinct_156.pdf
163,835,Arapahoe Community College,1.64,Arapahoe Community College,1.64,0.00,False,18678,19,5900 S Santa Fe Dr,Littleton,CO,80120,https://gis.arapahoegov.com/mapsandphotos/electionprecinctpdfs/Precinct_163.pdf
164,822,Arapahoe Community College,1.92,Arapahoe Community College,1.92,0.00,False,18678,19,5900 S Santa Fe Dr,Littleton,CO,80120,https://gis.arapahoegov.com/mapsandphotos/electionprecinctpdfs/Precinct_164.pdf
165,1050,Arapahoe Community College,0.76,Arapahoe Community College,0.76,0.00,False,18678,19,5900 S Santa Fe Dr,Littleton,CO,80120,https://gis.arapahoegov.com/mapsandphotos/electionprecinctpdfs/Precinct_165.pdf
166,458,Arapahoe Community College,1.20,Arapahoe Community College,1.20,0.00,False,18678,19,5900 S Santa Fe Dr,Littleton,CO,80120,https://gis.arapahoegov.com/mapsandphotos/electionprecinctpdfs/Precinct_166.pdf
167,947,Arapahoe Community College,0.96,Arapahoe Community College,0.96,0.00,False,18678,19,5900 S Santa Fe Dr,Littleton,CO,80120,https://gis.arapahoegov.com/mapsandphotos/electionprecinctpdfs/Precinct_167.pdf
168,962,Arapahoe Community College,0.38,Arapahoe Community College,0.38,0.00,False,18678,19,5900 S Santa Fe Dr,Littleton,CO,80120,https://gis.arapahoegov.com/mapsandphotos/electionprecinctpdfs/Precinct_168.pdf
169,1061,Arapahoe Community College,0.91,Arapahoe Community College,0.91,0.00,False,18678,19,5900 S Santa Fe Dr,Littleton,CO,80120,https://gis.arapahoegov.com/mapsandphotos/electionprecinctpdfs/Precinct_169.pdf
170,1384,Arapahoe Community College,1.99,Arapahoe Community College,1.99,0.00,False,18678,19,5900 S Santa Fe Dr,Littleton,CO,80120,https://gis.arapahoegov.com/mapsandphotos/electionprecinctpdfs/Precinct_170.pdf
171,1494,Arapahoe Community College,0.82,Arapahoe Community College,0.82,0.00,False,18678,19,5900 S Santa Fe Dr,Littleton,CO,80120,https://gis.arapahoegov.com/mapsandphotos/electionprecinctpdfs/Precinct_171.pdf
172,837,Arapahoe Community College,1.01,Arapahoe Community College,1.01,0.00,False,18678,19,5900 S Santa Fe Dr,Littleton,CO,80120,https://gis.arapahoegov.com/mapsandphotos/electionprecinctpdfs/Precinct_172.pdf
173,1378,Arapahoe Community College,1.56,Arapahoe Community College,1.56,0.00,False,18678,19,5900 S Santa Fe Dr,Littleton,CO,80120,https://gis.arapahoegov.com/mapsandphotos/electionprecinctpdfs/Precinct_173.pdf
174,723,Arapahoe Community College,1.05,Arapahoe Community College,1.05,0.00,False,18678,19,5900 S Santa Fe Dr,Littleton,CO,80120,https://gis.arapahoegov.com/mapsandphotos/electionprecinctpdfs/Precinct_174.pdf
175,1001,Arapahoe Community College,1.63,Arapahoe Community College,1.63,0.00,False,18678,19,5900 S Santa Fe Dr,Littleton,CO,80120,https://gis.arapahoegov.com/mapsandphotos/electionprecinctpdfs/Precinct_175.pdf
176,1377,Arapahoe Community College,1.35,Arapahoe Community College,1.35,0.00,False,18678,19,5900 S Santa Fe Dr,Littleton,CO,80120,https://gis.arapahoegov.com/mapsandphotos/electionprecinctpdfs/Precinct_176.pdf
177,994,Arapahoe Community College,1.56,Arapahoe Community College,1.56,0.00,False,18678,19,5900 S Santa Fe Dr,Littleton,CO,80120,https://gis.arapahoegov.com/mapsandphotos/electionprecinctpdfs/Precinct_177.pdf
178,884,Arapahoe Community College,1.43,Arapahoe Community College,1.43,0.00,False,18678,19,5900 S Santa Fe Dr,Littleton,CO,80120,https://gis.arapahoegov.com/mapsandphotos/electionprecinctpdfs/Precinct_178.pdf
179,718,Arapahoe Community College,1.58,Arapahoe Community College,1.58,0.00,False,18678,19,5900 S Santa Fe Dr,Littleton,CO,80120,https://gis.arapahoegov.com/mapsandphotos/electionprecinctpdfs/Precinct_179.pdf
322,1175,The Avenue Church,1.49,Arapahoe County CentrePoint Plaza,3.03,1.54,True,9856,8,14980 E Alameda Dr,Aurora,CO,80012,https://gis.arapahoegov.com/mapsandphotos/electionprecinctpdfs/Precinct_322.pdf
435,1478,City of Aurora Municipal Center,1.02,Arapahoe County CentrePoint Plaza,2.71,1.69,True,9856,8,14980 E Alameda Dr,Aurora,CO,80012,https://gis.arapahoegov.com/mapsandphotos/electionprecinctpdfs/Precinct_435.pdf
452,1070,The Avenue Church,2.20,Arapahoe County CentrePoint Plaza,3.57,1.37,True,9856,8,14980 E Alameda Dr,Aurora,CO,80012,https://gis.arapahoegov.com/mapsandphotos/electionprecinctpdfs/Precinct_452.pdf
473,1069,The Avenue Church,1.89,Arapahoe County CentrePoint Plaza,3.04,1.15,True,9856,8,14980 E Alameda Dr,Aurora,CO,80012,https://gis.arapahoegov.com/mapsandphotos/electionprecinctpdfs/Precinct_473.pdf
544,1557,City of Aurora Municipal Center,0.62,Arapahoe County CentrePoint Plaza,1.19,0.57,True,9856,8,14980 E Alameda Dr,Aurora,CO,80012,https://gis.arapahoegov.com/mapsandphotos/electionprecinctpdfs/Precinct_544.pdf
545,404,Arapahoe County CentrePoint Plaza,0.94,Arapahoe County CentrePoint Plaza,0.94,0.00,False,9856,8,14980 E Alameda Dr,Aurora,CO,80012,https://gis.arapahoegov.com/mapsandphotos/electionprecinctpdfs/Precinct_545.pdf
556,1327,The Avenue Church,1.46,Arapahoe County CentrePoint Plaza,2.54,1.08,True,9856,8,14980 E Alameda Dr,Aurora,CO,80012,https://gis.arapahoegov.com/mapsandphotos/electionprecinctpdfs/Precinct_556.pdf
557,1776,The Avenue Church,1.09,Arapahoe County CentrePoint Plaza,2.58,1.49,True,9856,8,14980 E Alameda Dr,Aurora,CO,80012,https://gis.arapahoegov.com/mapsandphotos/electionprecinctpdfs/Precinct_557.pdf
348,0,Arapahoe County Fairgrounds,11.10,Arapahoe County Fairgrounds,11.10,0.00,False,6677,10,25690 E Quincy Ave,Aurora,CO,80016,https://gis.arapahoegov.com/mapsandphotos/electionprecinctpdfs/Precinct_348.pdf
353,1122,Trails Recreation Center,5.26,Arapahoe County Fairgrounds,8.16,2.91,True,6677,10,25690 E Quincy Ave,Aurora,CO,80016,https://gis.arapahoegov.com/mapsandphotos/electionprecinctpdfs/Precinct_353.pdf
357,733,Arapahoe County Fairgrounds,6.65,Arapahoe County Fairgrounds,6.65,0.00,False,6677,10,25690 E Quincy Ave,Aurora,CO,80016,https://gis.arapahoegov.com/mapsandphotos/electionprecinctpdfs/Precinct_357.pdf
359,0,Arapahoe County Fairgrounds,2.18,Arapahoe County Fairgrounds,2.18,0.00,False,6677,10,25690 E Quincy Ave,Aurora,CO,80016,https://gis.arapahoegov.com/mapsandphotos/electionprecinctpdfs/Precinct_359.pdf
360,508,Arapahoe County Fairgrounds,0.85,Arapahoe County Fairgrounds,0.85,0.00,False,6677,10,25690 E Quincy Ave,Aurora,CO,80016,https://gis.arapahoegov.com/mapsandphotos/electionprecinctpdfs/Precinct_360.pdf
361,976,Arapahoe County Fairgrounds,1.51,Arapahoe County Fairgrounds,1.51,0.00,False,6677,10,25690 E Quincy Ave,Aurora,CO,80016,https://gis.arapahoegov.com/mapsandphotos/electionprecinctpdfs/Precinct_361.pdf
362,477,Arapahoe County Fairgrounds,3.87,Arapahoe County Fairgrounds,3.87,0.00,False,6677,10,25690 E Quincy Ave,Aurora,CO,80016,https://gis.arapahoegov.com/mapsandphotos/electionprecinctpdfs/Precinct_362.pdf
366,475,Arapahoe County Fairgrounds,11.18,Arapahoe County Fairgrounds,11.18,0.00,False,6677,10,25690 E Quincy Ave,Aurora,CO,80016,https://gis.arapahoegov.com/mapsandphotos/electionprecinctpdfs/Precinct_366.pdf
377,1104,Trails Recreation Center,6.49,Arapahoe County Fairgrounds,9.07,2.58,True,6677,10,25690 E Quincy Ave,Aurora,CO,80016,https://gis.arapahoegov.com/mapsandphotos/electionprecinctpdfs/Precinct_377.pdf
383,1282,Trails Recreation Center,6.06,Arapahoe County Fairgrounds,8.05,1.99,True,6677,10,25690 E Quincy Ave,Aurora,CO,80016,https://gis.arapahoegov.com/mapsandphotos/electionprecinctpdfs/Precinct_383.pdf
218,964,Arapahoe County Lima Plaza,1.52,Arapahoe County Lima Plaza,1.52,0.00,False,10656,11,6954 S Lima St,Centennial,CO,80112,https://gis.arapahoegov.com/mapsandphotos/electionprecinctpdfs/Precinct_218.pdf
220,910,Arapahoe County Lima Plaza,1.50,Arapahoe County Lima Plaza,1.50,0.00,False,10656,11,6954 S Lima St,Centennial,CO,80112,https://gis.arapahoegov.com/mapsandphotos/electionprecinctpdfs/Precinct_220.pdf
222,909,Arapahoe County Lima Plaza,1.62,Arapahoe County Lima Plaza,1.62,0.00,False,10656,11,6954 S Lima St,Centennial,CO,80112,https://gis.arapahoegov.com/mapsandphotos/electionprecinctpdfs/Precinct_222.pdf
235,733,Arapahoe County Lima Plaza,1.52,Arapahoe County Lima Plaza,1.52,0.00,False,10656,11,6954 S Lima St,Centennial,CO,80112,https://gis.arapahoegov.com/mapsandphotos/electionprecinctpdfs/Precinct_235.pdf
236,689,Arapahoe County Lima Plaza,1.20,Arapahoe County Lima Plaza,1.20,0.00,False,10656,11,6954 S Lima St,Centennial,CO,80112,https://gis.arapahoegov.com/mapsandphotos/electionprecinctpdfs/Precinct_236.pdf
237,1208,Arapahoe County Lima Plaza,1.11,Arapahoe County Lima Plaza,1.11,0.00,False,10656,11,6954 S Lima St,Centennial,CO,80112,https://gis.arapahoegov.com/mapsandphotos/electionprecinctpdfs/Precinct_237.pdf
238,885,Arapahoe County Lima Plaza,0.66,Arapahoe County Lima Plaza,0.66,0.00,False,10656,11,6954 S Lima St,Centennial,CO,80112,https://gis.arapahoegov.com/mapsandphotos/electionprecinctpdfs/Precinct_238.pdf
239,863,Arapahoe County Lima Plaza,0.96,Arapahoe County Lima Plaza,0.96,0.00,False,10656,11,6954 S Lima St,Centennial,CO,80112,https://gis.arapahoegov.com/mapsandphotos/electionprecinctpdfs/Precinct_239.pdf
240,1681,Arapahoe County Lima Plaza,0.11,Arapahoe County Lima Plaza,0.11,0.00,False,10656,11,6954 S Lima St,Centennial,CO,80112,https://gis.arapahoegov.com/mapsandphotos/electionprecinctpdfs/Precinct_240.pdf
241,1055,Arapahoe County Lima Plaza,1.02,Arapahoe County Lima Plaza,1.02,0.00,False,10656,11,6954 S Lima St,Centennial,CO,80112,https://gis.arapahoegov.com/mapsandphotos/electionprecinctpdfs/Precinct_241.pdf
242,759,Arapahoe County Lima Plaza,0.53,Arapahoe County Lima Plaza,0.53,0.00,False,10656,11,6954 S Lima St,Centennial,CO,80112,https://gis.arapahoegov.com/mapsandphotos/electionprecinctpdfs/Precinct_242.pdf
420,1751,Community College of Aurora Lowry Campus,2.23,Aurora Center for Active Adults,3.56,1.33,True,10663,10,30 Del Mar Cir,Aurora,CO,80011,https://gis.arapahoegov.com/mapsandphotos/electionprecinctpdfs/Precinct_420.pdf
504,1029,Aurora Center for Active Adults,0.60,Aurora Center for Active Adults,0.60,0.00,False,10663,10,30 Del Mar Cir,Aurora,CO,80011,https://gis.arapahoegov.com/mapsandphotos/electionprecinctpdfs/Precinct_504.pdf
505,1053,Aurora Center for Active Adults,0.61,Aurora Center for Active Adults,0.61,0.00,False,10663,10,30 Del Mar Cir,Aurora,CO,80011,https://gis.arapahoegov.com/mapsandphotos/electionprecinctpdfs/Precinct_505.pdf
506,1731,Aurora Center for Active Adults,0.65,Aurora Center for Active Adults,0.65,0.00,False,10663,10,30 Del Mar Cir,Aurora,CO,80011,https://gis.arapahoegov.com/mapsandphotos/electionprecinctpdfs/Precinct_506.pdf
507,937,Aurora Center for Active Adults,0.14,Aurora Center for Active Adults,0.14,0.00,False,10663,10,30 Del Mar Cir,Aurora,CO,80011,https://gis.arapahoegov.com/mapsandphotos/electionprecinctpdfs/Precinct_507.pdf
508,720,Aurora Center for Active Adults,0.62,Aurora Center for Active Adults,0.62,0.00,False,10663,10,30 Del Mar Cir,Aurora,CO,80011,https://gis.arapahoegov.com/mapsandphotos/electionprecinctpdfs/Precinct_508.pdf
509,658,Aurora Center for Active Adults,0.46,Aurora Center for Active Adults,0.46,0.00,False,10663,10,30 Del Mar Cir,Aurora,CO,80011,https://gis.arapahoegov.com/mapsandphotos/electionprecinctpdfs/Precinct_509.pdf
510,694,Aurora Center for Active Adults,0.75,Aurora Center for Active Adults,0.75,0.00,False,10663,10,30 Del Mar Cir,Aurora,CO,80011,https://gis.arapahoegov.com/mapsandphotos/electionprecinctpdfs/Precinct_510.pdf
511,1045,Aurora Center for Active Adults,0.93,Aurora Center for Active Adults,0.93,0.00,False,10663,10,30 Del Mar Cir,Aurora,CO,80011,https://gis.arapahoegov.com/mapsandphotos/electionprecinctpdfs/Precinct_511.pdf
513,1045,Aurora Center for Active Adults,1.23,Aurora Center for Active Adults,1.23,0.00,False,10663,10,30 Del Mar Cir,Aurora,CO,80011,https://gis.arapahoegov.com/mapsandphotos/electionprecinctpdfs/Precinct_513.pdf
528,536,Aurora Public Schools Educational Service Center 4,0.34,Aurora Public Schools Educational Service Center 4,0.34,0.00,False,1250,2,1085 Peoria St,Aurora,CO,80011,https://gis.arapahoegov.com/mapsandphotos/electionprecinctpdfs/Precinct_528.pdf
529,714,Aurora Public Schools Educational Service Center 4,0.26,Aurora Public Schools Educational Service Center 4,0.26,0.00,False,1250,2,1085 Peoria St,Aurora,CO,80011,https://gis.arapahoegov.com/mapsandphotos/electionprecinctpdfs/Precinct_529.pdf
548,509,Aurora Public Schools Professional Learning & Conference Center,0.37,Aurora Public Schools Professional Learning & Conference Center,0.37,0.00,False,1067,2,15771 E 1st Ave,Aurora,CO,80011,https://gis.arapahoegov.com/mapsandphotos/electionprecinctpdfs/Precinct_548.pdf
549,558,Aurora Public Schools Professional Learning & Conference Center,0.33,Aurora Public Schools Professional Learning & Conference Center,0.33,0.00,False,1067,2,15771 E 1st Ave,Aurora,CO,80011,https://gis.arapahoegov.com/mapsandphotos/electionprecinctpdfs/Precinct_549.pdf
437,1477,City of Aurora Municipal Center,1.62,Beck Recreation Center,3.56,1.95,True,9936,9,800 Telluride St,Aurora,CO,80011,https://gis.arapahoegov.com/mapsandphotos/electionprecinctpdfs/Precinct_437.pdf
531,873,Beck Recreation Center,0.38,Beck Recreation Center,0.38,0.00,False,9936,9,800 Telluride St,Aurora,CO,80011,https://gis.arapahoegov.com/mapsandphotos/electionprecinctpdfs/Precinct_531.pdf
537,1202,City of Aurora Municipal Center,0.79,Beck Recreation Center,2.82,2.02,True,9936,9,800 Telluride St,Aurora,CO,80011,https://gis.arapahoegov.com/mapsandphotos/electionprecinctpdfs/Precinct_537.pdf
538,1188,City of Aurora Municipal Center,0.71,Beck Recreation Center,2.85,2.14,True,9936,9,800 Telluride St,Aurora,CO,80011,https://gis.arapahoegov.com/mapsandphotos/electionprecinctpdfs/Precinct_538.pdf
539,1187,City of Aurora Municipal Center,0.67,Beck Recreation Center,2.82,2.15,True,9936,9,800 Telluride St,Aurora,CO,80011,https://gis.arapahoegov.com/mapsandphotos/electionprecinctpdfs/Precinct_539.pdf
541,762,City of Aurora Municipal Center,0.23,Beck Recreation Center,2.02,1.80,True,9936,9,800 Telluride St,Aurora,CO,80011,https://gis.arapahoegov.com/mapsandphotos/electionprecinctpdfs/Precinct_541.pdf
543,1015,City of Aurora Municipal Center,0.28,Beck Recreation Center,2.02,1.74,True,9936,9,800 Telluride St,Aurora,CO,80011,https://gis.arapahoegov.com/mapsandphotos/electionprecinctpdfs/Precinct_543.pdf
546,1145,Beck Recreation Center,0.09,Beck Recreation Center,0.09,0.00,False,9936,9,800 Telluride St,Aurora,CO,80011,https://gis.arapahoegov.com/mapsandphotos/electionprecinctpdfs/Precinct_546.pdf
547,1087,Beck Recreation Center,0.61,Beck Recreation Center,0.61,0.00,False,9936,9,800 Telluride St,Aurora,CO,80011,https://gis.arapahoegov.com/mapsandphotos/electionprecinctpdfs/Precinct_547.pdf
126,879,Bemis Public Library,2.09,Bemis Public Library,2.09,0.00,False,17318,18,6014 S Datura St,Littleton,CO,80120,https://gis.arapahoegov.com/mapsandphotos/electionprecinctpdfs/Precinct_126.pdf
141,489,Bemis Public Library,1.66,Bemis Public Library,1.66,0.00,False,17318,18,6014 S Datura St,Littleton,CO,80120,https://gis.arapahoegov.com/mapsandphotos/electionprecinctpdfs/Precinct_141.pdf
142,951,Bemis Public Library,1.30,Bemis Public Library,1.30,0.00,False,17318,18,6014 S Datura St,Littleton,CO,80120,https://gis.arapahoegov.com/mapsandphotos/electionprecinctpdfs/Precinct_142.pdf
143,828,Bemis Public Library,0.77,Bemis Public Library,0.77,0.00,False,17318,18,6014 S Datura St,Littleton,CO,80120,https://gis.arapahoegov.com/mapsandphotos/electionprecinctpdfs/Precinct_143.pdf
144,827,Bemis Public Library,1.07,Bemis Public Library,1.07,0.00,False,17318,18,6014 S Datura St,Littleton,CO,80120,https://gis.arapahoegov.com/mapsandphotos/electionprecinctpdfs/Precinct_144.pdf
146,849,Bemis Public Library,1.19,Bemis Public Library,1.19,0.00,False,17318,18,6014 S Datura St,Littleton,CO,80120,https://gis.arapahoegov.com/mapsandphotos/electionprecinctpdfs/Precinct_146.pdf
147,917,Bemis Public Library,1.43,Bemis Public Library,1.43,0.00,False,17318,18,6014 S Datura St,Littleton,CO,80120,https://gis.arapahoegov.com/mapsandphotos/electionprecinctpdfs/Precinct_147.pdf
149,1297,Bemis Public Library,0.74,Bemis Public Library,0.74,0.00,False,17318,18,6014 S Datura St,Littleton,CO,80120,https://gis.arapahoegov.com/mapsandphotos/electionprecinctpdfs/Precinct_149.pdf
150,1327,Bemis Public Library,1.11,Bemis Public Library,1.11,0.00,False,17318,18,6014 S Datura St,Littleton,CO,80120,https://gis.arapahoegov.com/mapsandphotos/electionprecinctpdfs/Precinct_150.pdf
151,1048,Bemis Public Library,1.20,Bemis Public Library,1.20,0.00,False,17318,18,6014 S Datura St,Littleton,CO,80120,https://gis.arapahoegov.com/mapsandphotos/electionprecinctpdfs/Precinct_151.pdf
152,862,Bemis Public Library,0.73,Bemis Public Library,0.73,0.00,False,17318,18,6014 S Datura St,Littleton,CO,80120,https://gis.arapahoegov.com/mapsandphotos/electionprecinctpdfs/Precinct_152.pdf
153,1503,Bemis Public Library,1.15,Bemis Public Library,1.15,0.00,False,17318,18,6014 S Datura St,Littleton,CO,80120,https://gis.arapahoegov.com/mapsandphotos/electionprecinctpdfs/Precinct_153.pdf
154,1210,Bemis Public Library,0.54,Bemis Public Library,0.54,0.00,False,17318,18,6014 S Datura St,Littleton,CO,80120,https://gis.arapahoegov.com/mapsandphotos/electionprecinctpdfs/Precinct_154.pdf
158,915,Bemis Public Library,0.91,Bemis Public Library,0.91,0.00,False,17318,18,6014 S Datura St,Littleton,CO,80120,https://gis.arapahoegov.com/mapsandphotos/electionprecinctpdfs/Precinct_158.pdf
159,792,Bemis Public Library,1.14,Bemis Public Library,1.14,0.00,False,17318,18,6014 S Datura St,Littleton,CO,80120,https://gis.arapahoegov.com/mapsandphotos/electionprecinctpdfs/Precinct_159.pdf
160,917,Bemis Public Library,1.51,Bemis Public Library,1.51,0.00,False,17318,18,6014 S Datura St,Littleton,CO,80120,https://gis.arapahoegov.com/mapsandphotos/electionprecinctpdfs/Precinct_160.pdf
161,809,Bemis Public Library,1.40,Bemis Public Library,1.40,0.00,False,17318,18,6014 S Datura St,Littleton,CO,80120,https://gis.arapahoegov.com/mapsandphotos/electionprecinctpdfs/Precinct_161.pdf
162,898,Bemis Public Library,1.75,Bemis Public Library,1.75,0.00,False,17318,18,6014 S Datura St,Littleton,CO,80120,https://gis.arapahoegov.com/mapsandphotos/electionprecinctpdfs/Precinct_162.pdf
550,96,Central Recreation Center,0.60,Central Recreation Center,0.60,0.00,False,96,1,18150 E Vassar Pl,Aurora,CO,80013,https://gis.arapahoegov.com/mapsandphotos/electionprecinctpdfs/Precinct_550.pdf
148,607,Cherry Creek School District Instructional Support Facility,0.36,Cherry Creek School District Instructional Support Facility,0.36,0.00,False,14779,16,5416 S Riviera Way,Centennial,CO,80112,https://gis.arapahoegov.com/mapsandphotos/electionprecinctpdfs/Precinct_148.pdf
157,741,Cherry Creek School District Instructional Support Facility,0.53,Cherry Creek School District Instructional Support Facility,0.53,0.00,False,14779,16,5416 S Riviera Way,Centennial,CO,80112,https://gis.arapahoegov.com/mapsandphotos/electionprecinctpdfs/Precinct_157.pdf
181,731,Cherry Creek School District Instructional Support Facility,0.68,Cherry Creek School District Instructional Support Facility,0.68,0.00,False,14779,16,5416 S Riviera Way,Centennial,CO,80112,https://gis.arapahoegov.com/mapsandphotos/electionprecinctpdfs/Precinct_181.pdf
191,888,Cherry Creek School District Instructional Support Facility,0.87,Cherry Creek School District Instructional Support Facility,0.87,0.00,False,14779,16,5416 S Riviera Way,Centennial,CO,80112,https://gis.arapahoegov.com/mapsandphotos/electionprecinctpdfs/Precinct_191.pdf
192,1077,Cherry Creek School District Instructional Support Facility,0.43,Cherry Creek School District Instructional Support Facility,0.43,0.00,False,14779,16,5416 S Riviera Way,Centennial,CO,80112,https://gis.arapahoegov.com/mapsandphotos/electionprecinctpdfs/Precinct_192.pdf
199,222,Cherry Creek School District Instructional Support Facility,0.81,Cherry Creek School District Instructional Support Facility,0.81,0.00,False,14779,16,5416 S Riviera Way,Centennial,CO,80112,https://gis.arapahoegov.com/mapsandphotos/electionprecinctpdfs/Precinct_199.pdf
209,991,Cherry Creek School District Instructional Support Facility,1.93,Cherry Creek School District Instructional Support Facility,1.93,0.00,False,14779,16,5416 S Riviera Way,Centennial,CO,80112,https://gis.arapahoegov.com/mapsandphotos/electionprecinctpdfs/Precinct_209.pdf
210,1546,Cherry Creek School District Instructional Support Facility,1.40,Cherry Creek School District Instructional Support Facility,1.40,0.00,False,14779,16,5416 S Riviera Way,Centennial,CO,80112,https://gis.arapahoegov.com/mapsandphotos/electionprecinctpdfs/Precinct_210.pdf
211,938,Cherry Creek School District Instructional Support Facility,0.84,Cherry Creek School District Instructional Support Facility,0.84,0.00,False,14779,16,5416 S Riviera Way,Centennial,CO,80112,https://gis.arapahoegov.com/mapsandphotos/electionprecinctpdfs/Precinct_211.pdf
212,1284,Cherry Creek School District Instructional Support Facility,1.03,Cherry Creek School District Instructional Support Facility,1.03,0.00,False,14779,16,5416 S Riviera Way,Centennial,CO,80112,https://gis.arapahoegov.com/mapsandphotos/electionprecinctpdfs/Precinct_212.pdf
214,876,Cherry Creek School District Instructional Support Facility,0.73,Cherry Creek School District Instructional Support Facility,0.73,0.00,False,14779,16,5416 S Riviera Way,Centennial,CO,80112,https://gis.arapahoegov.com/mapsandphotos/electionprecinctpdfs/Precinct_214.pdf
217,857,Cherry Creek School District Instructional Support Facility,1.29,Cherry Creek School District Instructional Support Facility,1.29,0.00,False,14779,16,5416 S Riviera Way,Centennial,CO,80112,https://gis.arapahoegov.com/mapsandphotos/electionprecinctpdfs/Precinct_217.pdf
219,1166,Cherry Creek School District Instructional Support Facility,1.11,Cherry Creek School District Instructional Support Facility,1.11,0.00,False,14779,16,5416 S Riviera Way,Centennial,CO,80112,https://gis.arapahoegov.com/mapsandphotos/electionprecinctpdfs/Precinct_219.pdf
221,822,Cherry Creek School District Instructional Support Facility,1.24,Cherry Creek School District Instructional Support Facility,1.24,0.00,False,14779,16,5416 S Riviera Way,Centennial,CO,80112,https://gis.arapahoegov.com/mapsandphotos/electionprecinctpdfs/Precinct_221.pdf
223,1060,Cherry Creek School District Instructional Support Facility,1.44,Cherry Creek School District Instructional Support Facility,1.44,0.00,False,14779,16,5416 S Riviera Way,Centennial,CO,80112,https://gis.arapahoegov.com/mapsandphotos/electionprecinctpdfs/Precinct_223.pdf
225,973,Cherry Creek School District Instructional Support Facility,1.78,Cherry Creek School District Instructional Support Facility,1.78,0.00,False,14779,16,5416 S Riviera Way,Centennial,CO,80112,https://gis.arapahoegov.com/mapsandphotos/electionprecinctpdfs/Precinct_225.pdf
426,758,City of Aurora Municipal Center,3.09,City of Aurora Municipal Center,3.09,0.00,False,19500,23,15151 E Alameda Pkwy,Aurora,CO,80012,https://gis.arapahoegov.com/mapsandphotos/electionprecinctpdfs/Precinct_426.pdf
439,1003,City of Aurora Municipal Center,2.18,City of Aurora Municipal Center,2.18,0.00,False,19500,23,15151 E Alameda Pkwy,Aurora,CO,80012,https://gis.arapahoegov.com/mapsandphotos/electionprecinctpdfs/Precinct_439.pdf
440,851,City of Aurora Municipal Center,2.71,City of Aurora Municipal Center,2.71,0.00,False,19500,23,15151 E Alameda Pkwy,Aurora,CO,80012,https://gis.arapahoegov.com/mapsandphotos/electionprecinctpdfs/Precinct_440.pdf
441,846,City of Aurora Municipal Center,2.96,City of Aurora Municipal Center,2.96,0.00,False,19500,23,15151 E Alameda Pkwy,Aurora,CO,80012,https://gis.arapahoegov.com/mapsandphotos/electionprecinctpdfs/Precinct_441.pdf
442,738,City of Aurora Municipal Center,3.28,City of Aurora Municipal Center,3.28,0.00,False,19500,23,15151 E Alameda Pkwy,Aurora,CO,80012,https://gis.arapahoegov.com/mapsandphotos/electionprecinctpdfs/Precinct_442.pdf
443,551,City of Aurora Municipal Center,3.28,City of Aurora Municipal Center,3.28,0.00,False,19500,23,15151 E Alameda Pkwy,Aurora,CO,80012,https://gis.arapahoegov.com/mapsandphotos/electionprecinctpdfs/Precinct_443.pdf
444,679,City of Aurora Municipal Center,2.90,City of Aurora Municipal Center,2.90,0.00,False,19500,23,15151 E Alameda Pkwy,Aurora,CO,80012,https://gis.arapahoegov.com/mapsandphotos/electionprecinctpdfs/Precinct_444.pdf
445,701,City of Aurora Municipal Center,3.13,City of Aurora Municipal Center,3.13,0.00,False,19500,23,15151 E Alameda Pkwy,Aurora,CO,80012,https://gis.arapahoegov.com/mapsandphotos/electionprecinctpdfs/Precinct_445.pdf
451,1264,City of Aurora Municipal Center,2.09,City of Aurora Municipal Center,2.09,0.00,False,19500,23,15151 E Alameda Pkwy,Aurora,CO,80012,https://gis.arapahoegov.com/mapsandphotos/electionprecinctpdfs/Precinct_451.pdf
453,573,City of Aurora Municipal Center,2.70,City of Aurora Municipal Center,2.70,0.00,False,19500,23,15151 E Alameda Pkwy,Aurora,CO,80012,https://gis.arapahoegov.com/mapsandphotos/electionprecinctpdfs/Precinct_453.pdf
465,712,City of Aurora Municipal Center,3.06,City of Aurora Municipal Center,3.06,0.00,False,19500,23,15151 E Alameda Pkwy,Aurora,CO,80012,https://gis.arapahoegov.com/mapsandphotos/electionprecinctpdfs/Precinct_465.pdf
466,939,City of Aurora Municipal Center,3.08,City of Aurora Municipal Center,3.08,0.00,False,19500,23,15151 E Alameda Pkwy,Aurora,CO,80012,https://gis.arapahoegov.com/mapsandphotos/electionprecinctpdfs/Precinct_466.pdf
467,963,City of Aurora Municipal Center,2.62,City of Aurora Municipal Center,2.62,0.00,False,19500,23,15151 E Alameda Pkwy,Aurora,CO,80012,https://gis.arapahoegov.com/mapsandphotos/electionprecinctpdfs/Precinct_467.pdf
468,909,City of Aurora Municipal Center,2.54,City of Aurora Municipal Center,2.54,0.00,False,19500,23,15151 E Alameda Pkwy,Aurora,CO,80012,https://gis.arapahoegov.com/mapsandphotos/electionprecinctpdfs/Precinct_468.pdf
469,776,City of Aurora Municipal Center,2.06,City of Aurora Municipal Center,2.06,0.00,False,19500,23,15151 E Alameda Pkwy,Aurora,CO,80012,https://gis.arapahoegov.com/mapsandphotos/electionprecinctpdfs/Precinct_469.pdf
470,1288,City of Aurora Municipal Center,1.58,City of Aurora Municipal Center,1.58,0.00,False,19500,23,15151 E Alameda Pkwy,Aurora,CO,80012,https://gis.arapahoegov.com/mapsandphotos/electionprecinctpdfs/Precinct_470.pdf
471,1107,City of Aurora Municipal Center,1.60,City of Aurora Municipal Center,1.60,0.00,False,19500,23,15151 E Alameda Pkwy,Aurora,CO,80012,https://gis.arapahoegov.com/mapsandphotos/electionprecinctpdfs/Precinct_471.pdf
472,1368,City of Aurora Municipal Center,1.76,City of Aurora Municipal Center,1.76,0.00,False,19500,23,15151 E Alameda Pkwy,Aurora,CO,80012,https://gis.arapahoegov.com/mapsandphotos/electionprecinctpdfs/Precinct_472.pdf
540,725,City of Aurora Municipal Center,0.24,City of Aurora Municipal Center,0.24,0.00,False,19500,23,15151 E Alameda Pkwy,Aurora,CO,80012,https://gis.arapahoegov.com/mapsandphotos/electionprecinctpdfs/Precinct_540.pdf
554,1125,City of Aurora Municipal Center,0.96,City of Aurora Municipal Center,0.96,0.00,False,19500,23,15151 E Alameda Pkwy,Aurora,CO,80012,https://gis.arapahoegov.com/mapsandphotos/electionprecinctpdfs/Precinct_554.pdf
558,1092,City of Aurora Municipal Center,1.10,City of Aurora Municipal Center,1.10,0.00,False,19500,23,15151 E Alameda Pkwy,Aurora,CO,80012,https://gis.arapahoegov.com/mapsandphotos/electionprecinctpdfs/Precinct_558.pdf
560,532,City of Aurora Municipal Center,1.38,City of Aurora Municipal Center,1.38,0.00,False,19500,23,15151 E Alameda Pkwy,Aurora,CO,80012,https://gis.arapahoegov.com/mapsandphotos/electionprecinctpdfs/Precinct_560.pdf
564,0,City of Aurora Municipal Center,1.17,City of Aurora Municipal Center,1.17,0.00,False,19500,23,15151 E Alameda Pkwy,Aurora,CO,80012,https://gis.arapahoegov.com/mapsandphotos/electionprecinctpdfs/Precinct_564.pdf
107,944,Englewood Civic Center,1.02,City of Glendale Municipal Building,3.65,2.63,True,10155,9,950 S. Birch Street,Glendale,CO,80246,https://gis.arapahoegov.com/mapsandphotos/electionprecinctpdfs/Precinct_107.pdf
112,935,Englewood Civic Center,0.97,City of Glendale Municipal Building,3.53,2.57,True,10155,9,950 S. Birch Street,Glendale,CO,80246,https://gis.arapahoegov.com/mapsandphotos/electionprecinctpdfs/Precinct_112.pdf
114,973,Englewood Civic Center,1.16,City of Glendale Municipal Building,3.49,2.32,True,10155,9,950 S. Birch Street,Glendale,CO,80246,https://gis.arapahoegov.com/mapsandphotos/electionprecinctpdfs/Precinct_114.pdf
115,1181,Englewood Civic Center,0.40,City of Glendale Municipal Building,4.65,4.24,True,10155,9,950 S. Birch Street,Glendale,CO,80246,https://gis.arapahoegov.com/mapsandphotos/electionprecinctpdfs/Precinct_115.pdf
132,1108,Englewood Civic Center,1.52,City of Glendale Municipal Building,3.89,2.37,True,10155,9,950 S. Birch Street,Glendale,CO,80246,https://gis.arapahoegov.com/mapsandphotos/electionprecinctpdfs/Precinct_132.pdf
407,1471,Community College of Aurora Lowry Campus,2.29,City of Glendale Municipal Building,3.47,1.19,True,10155,9,950 S. Birch Street,Glendale,CO,80246,https://gis.arapahoegov.com/mapsandphotos/electionprecinctpdfs/Precinct_407.pdf
412,1610,Community College of Aurora Lowry Campus,1.19,City of Glendale Municipal Building,3.12,1.93,True,10155,9,950 S. Birch Street,Glendale,CO,80246,https://gis.arapahoegov.com/mapsandphotos/electionprecinctpdfs/Precinct_412.pdf
460,1143,City of Glendale Municipal Building,0.47,City of Glendale Municipal Building,0.47,0.00,False,10155,9,950 S. Birch Street,Glendale,CO,80246,https://gis.arapahoegov.com/mapsandphotos/electionprecinctpdfs/Precinct_460.pdf
474,790,City of Glendale Municipal Building,0.09,City of Glendale Municipal Building,0.09,0.00,False,10155,9,950 S. Birch Street,Glendale,CO,80246,https://gis.arapahoegov.com/mapsandphotos/electionprecinctpdfs/Precinct_474.pdf
101,1503,City of Sheridan Municipal Building,0.47,City of Sheridan Municipal Building,0.47,0.00,False,9801,8,4101 S Federal Blvd,Sheridan,CO,80110,https://gis.arapahoegov.com/mapsandphotos/electionprecinctpdfs/Precinct_101.pdf
102,1326,City of Sheridan Municipal Building,0.49,City of Sheridan Municipal Building,0.49,0.00,False,9801,8,4101 S Federal Blvd,Sheridan,CO,80110,https://gis.arapahoegov.com/mapsandphotos/electionprecinctpdfs/Precinct_102.pdf
103,795,City of Sheridan Municipal Building,0.95,City of Sheridan Municipal Building,0.95,0.00,False,9801,8,4101 S Federal Blvd,Sheridan,CO,80110,https://gis.arapahoegov.com/mapsandphotos/electionprecinctpdfs/Precinct_103.pdf
104,813,City of Sheridan Municipal Building,1.22,City of Sheridan Municipal Building,1.22,0.00,False,9801,8,4101 S Federal Blvd,Sheridan,CO,80110,https://gis.arapahoegov.com/mapsandphotos/electionprecinctpdfs/Precinct_104.pdf
105,1751,Englewood Civic Center,0.97,City of Sheridan Municipal Building,1.70,0.74,True,9801,8,4101 S Federal Blvd,Sheridan,CO,80110,https://gis.arapahoegov.com/mapsandphotos/electionprecinctpdfs/Precinct_105.pdf
111,1362,Englewood Civic Center,0.67,City of Sheridan Municipal Building,2.24,1.56,True,9801,8,4101 S Federal Blvd,Sheridan,CO,80110,https://gis.arapahoegov.com/mapsandphotos/electionprecinctpdfs/Precinct_111.pdf
117,1413,Englewood Civic Center,0.46,City of Sheridan Municipal Building,2.15,1.69,True,9801,8,4101 S Federal Blvd,Sheridan,CO,80110,https://gis.arapahoegov.com/mapsandphotos/electionprecinctpdfs/Precinct_117.pdf
122,838,City of Sheridan Municipal Building,1.48,City of Sheridan Municipal Building,1.48,0.00,False,9801,8,4101 S Federal Blvd,Sheridan,CO,80110,https://gis.arapahoegov.com/mapsandphotos/electionprecinctpdfs/Precinct_122.pdf
434,1214,Heather Gardens,1.13,Community College of Aurora CentreTech Campus,2.78,1.65,True,6024,5,16000 E CentreTech Pkwy,Aurora,CO,80011,https://gis.arapahoegov.com/mapsandphotos/electionprecinctpdfs/Precinct_434.pdf
527,1172,Community College of Aurora CentreTech Campus,0.12,Community College of Aurora CentreTech Campus,0.12,0.00,False,6024,5,16000 E CentreTech Pkwy,Aurora,CO,80011,https://gis.arapahoegov.com/mapsandphotos/electionprecinctpdfs/Precinct_527.pdf
530,1129,Community College of Aurora CentreTech Campus,0.51,Community College of Aurora CentreTech Campus,0.51,0.00,False,6024,5,16000 E CentreTech Pkwy,Aurora,CO,80011,https://gis.arapahoegov.com/mapsandphotos/electionprecinctpdfs/Precinct_530.pdf
533,1433,Heather Gardens,0.76,Community College of Aurora CentreTech Campus,1.35,0.59,True,6024,5,16000 E CentreTech Pkwy,Aurora,CO,80011,https://gis.arapahoegov.com/mapsandphotos/electionprecinctpdfs/Precinct_533.pdf
534,1076,Heather Gardens,0.64,Community College of Aurora CentreTech Campus,2.06,1.42,True,6024,5,16000 E CentreTech Pkwy,Aurora,CO,80011,https://gis.arapahoegov.com/mapsandphotos/electionprecinctpdfs/Precinct_534.pdf
406,613,Community College of Aurora Lowry Campus,1.77,Community College of Aurora Lowry Campus,1.77,0.00,False,15069,17,710 Alton Way,Denver,CO,80230,https://gis.arapahoegov.com/mapsandphotos/electionprecinctpdfs/Precinct_406.pdf
409,540,Community College of Aurora Lowry Campus,0.79,Community College of Aurora Lowry Campus,0.79,0.00,False,15069,17,710 Alton Way,Denver,CO,80230,https://gis.arapahoegov.com/mapsandphotos/electionprecinctpdfs/Precinct_409.pdf
413,1244,Community College of Aurora Lowry Campus,1.28,Community College of Aurora Lowry Campus,1.28,0.00,False,15069,17,710 Alton Way,Denver,CO,80230,https://gis.arapahoegov.com/mapsandphotos/electionprecinctpdfs/Precinct_413.pdf
414,990,Community College of Aurora Lowry Campus,1.79,Community College of Aurora Lowry Campus,1.79,0.00,False,15069,17,710 Alton Way,Denver,CO,80230,https://gis.arapahoegov.com/mapsandphotos/electionprecinctpdfs/Precinct_414.pdf
417,1165,Community College of Aurora Lowry Campus,1.53,Community College of Aurora Lowry Campus,1.53,0.00,False,15069,17,710 Alton Way,Denver,CO,80230,https://gis.arapahoegov.com/mapsandphotos/electionprecinctpdfs/Precinct_417.pdf
418,932,Community College of Aurora Lowry Campus,1.92,Community College of Aurora Lowry Campus,1.92,0.00,False,15069,17,710 Alton Way,Denver,CO,80230,https://gis.arapahoegov.com/mapsandphotos/electionprecinctpdfs/Precinct_418.pdf
419,1125,Community College of Aurora Lowry Campus,2.10,Community College of Aurora Lowry Campus,2.10,0.00,False,15069,17,710 Alton Way,Denver,CO,80230,https://gis.arapahoegov.com/mapsandphotos/electionprecinctpdfs/Precinct_419.pdf
421,549,Community College of Aurora Lowry Campus,2.55,Community College of Aurora Lowry Campus,2.55,0.00,False,15069,17,710 Alton Way,Denver,CO,80230,https://gis.arapahoegov.com/mapsandphotos/electionprecinctpdfs/Precinct_421.pdf
422,716,Community College of Aurora Lowry Campus,2.72,Community College of Aurora Lowry Campus,2.72,0.00,False,15069,17,710 Alton Way,Denver,CO,80230,https://gis.arapahoegov.com/mapsandphotos/electionprecinctpdfs/Precinct_422.pdf
423,1447,Community College of Aurora Lowry Campus,2.94,Community College of Aurora Lowry Campus,2.94,0.00,False,15069,17,710 Alton Way,Denver,CO,80230,https://gis.arapahoegov.com/mapsandphotos/electionprecinctpdfs/Precinct_423.pdf
424,40,Community College of Aurora Lowry Campus,3.53,Community College of Aurora Lowry Campus,3.53,0.00,False,15069,17,710 Alton Way,Denver,CO,80230,https://gis.arapahoegov.com/mapsandphotos/electionprecinctpdfs/Precinct_424.pdf
425,1419,Community College of Aurora Lowry Campus,3.35,Community College of Aurora Lowry Campus,3.35,0.00,False,15069,17,710 Alton Way,Denver,CO,80230,https://gis.arapahoegov.com/mapsandphotos/electionprecinctpdfs/Precinct_425.pdf
514,896,Community College of Aurora Lowry Campus,1.06,Community College of Aurora Lowry Campus,1.06,0.00,False,15069,17,710 Alton Way,Denver,CO,80230,https://gis.arapahoegov.com/mapsandphotos/electionprecinctpdfs/Precinct_514.pdf
515,1026,Community College of Aurora Lowry Campus,1.54,Community College of Aurora Lowry Campus,1.54,0.00,False,15069,17,710 Alton Way,Denver,CO,80230,https://gis.arapahoegov.com/mapsandphotos/electionprecinctpdfs/Precinct_515.pdf
516,832,Community College of Aurora Lowry Campus,0.97,Community College of Aurora Lowry Campus,0.97,0.00,False,15069,17,710 Alton Way,Denver,CO,80230,https://gis.arapahoegov.com/mapsandphotos/electionprecinctpdfs/Precinct_516.pdf
517,792,Community College of Aurora Lowry Campus,1.13,Community College of Aurora Lowry Campus,1.13,0.00,False,15069,17,710 Alton Way,Denver,CO,80230,https://gis.arapahoegov.com/mapsandphotos/electionprecinctpdfs/Precinct_517.pdf
518,743,Community College of Aurora Lowry Campus,1.60,Community College of Aurora Lowry Campus,1.60,0.00,False,15069,17,710 Alton Way,Denver,CO,80230,https://gis.arapahoegov.com/mapsandphotos/electionprecinctpdfs/Precinct_518.pdf
137,904,Cook Park Recreation Center,2.24,Cook Park Recreation Center,2.24,0.00,False,9953,11,7100 Cherry Creek S Dr,Denver,CO,80224,https://gis.arapahoegov.com/mapsandphotos/electionprecinctpdfs/Precinct_137.pdf
138,443,Cook Park Recreation Center,1.66,Cook Park Recreation Center,1.66,0.00,False,9953,11,7100 Cherry Creek S Dr,Denver,CO,80224,https://gis.arapahoegov.com/mapsandphotos/electionprecinctpdfs/Precinct_138.pdf
139,720,Cook Park Recreation Center,1.68,Cook Park Recreation Center,1.68,0.00,False,9953,11,7100 Cherry Creek S Dr,Denver,CO,80224,https://gis.arapahoegov.com/mapsandphotos/electionprecinctpdfs/Precinct_139.pdf
401,1463,Cook Park Recreation Center,0.95,Cook Park Recreation Center,0.95,0.00,False,9953,11,7100 Cherry Creek S Dr,Denver,CO,80224,https://gis.arapahoegov.com/mapsandphotos/electionprecinctpdfs/Precinct_401.pdf
402,0,Cook Park Recreation Center,1.09,Cook Park Recreation Center,1.09,0.00,False,9953,11,7100 Cherry Creek S Dr,Denver,CO,80224,https://gis.arapahoegov.com/mapsandphotos/electionprecinctpdfs/Precinct_402.pdf
403,847,Cook Park Recreation Center,1.60,Cook Park Recreation Center,1.60,0.00,False,9953,11,7100 Cherry Creek S Dr,Denver,CO,80224,https://gis.arapahoegov.com/mapsandphotos/electionprecinctpdfs/Precinct_403.pdf
404,972,Cook Park Recreation Center,1.89,Cook Park Recreation Center,1.89,0.00,False,9953,11,7100 Cherry Creek S Dr,Denver,CO,80224,https://gis.arapahoegov.com/mapsandphotos/electionprecinctpdfs/Precinct_404.pdf
405,977,Cook Park Recreation Center,1.97,Cook Park Recreation Center,1.97,0.00,False,9953,11,7100 Cherry Creek S Dr,Denver,CO,80224,https://gis.arapahoegov.com/mapsandphotos/electionprecinctpdfs/Precinct_405.pdf
408,1917,Community College of Aurora Lowry Campus,0.69,Cook Park Recreation Center,1.99,1.30,True,9953,11,7100 Cherry Creek S Dr,Denver,CO,80224,https://gis.arapahoegov.com/mapsandphotos/electionprecinctpdfs/Precinct_408.pdf
411,1615,Community College of Aurora Lowry Campus,0.80,Cook Park Recreation Center,2.41,1.61,True,9953,11,7100 Cherry Creek S Dr,Denver,CO,80224,https://gis.arapahoegov.com/mapsandphotos/electionprecinctpdfs/Precinct_411.pdf
415,95,Cook Park Recreation Center,1.11,Cook Park Recreation Center,1.11,0.00,False,9953,11,7100 Cherry Creek S Dr,Denver,CO,80224,https://gis.arapahoegov.com/mapsandphotos/electionprecinctpdfs/Precinct_415.pdf
106,623,Englewood Civic Center,0.79,Englewood Civic Center,0.79,0.00,False,15993,21,1000 Englewood Pkwy,Englewood,CO,80110,https://gis.arapahoegov.com/mapsandphotos/electionprecinctpdfs/Precinct_106.pdf
108,713,Englewood Civic Center,1.30,Englewood Civic Center,1.30,0.00,False,15993,21,1000 Englewood Pkwy,Englewood,CO,80110,https://gis.arapahoegov.com/mapsandphotos/electionprecinctpdfs/Precinct_108.pdf
109,687,Englewood Civic Center,1.29,Englewood Civic Center,1.29,0.00,False,15993,21,1000 Englewood Pkwy,Englewood,CO,80110,https://gis.arapahoegov.com/mapsandphotos/electionprecinctpdfs/Precinct_109.pdf
110,530,Englewood Civic Center,1.52,Englewood Civic Center,1.52,0.00,False,15993,21,1000 Englewood Pkwy,Englewood,CO,80110,https://gis.arapahoegov.com/mapsandphotos/electionprecinctpdfs/Precinct_110.pdf
113,721,Englewood Civic Center,1.57,Englewood Civic Center,1.57,0.00,False,15993,21,1000 Englewood Pkwy,Englewood,CO,80110,https://gis.arapahoegov.com/mapsandphotos/electionprecinctpdfs/Precinct_113.pdf
116,1349,Englewood Civic Center,0.51,Englewood Civic Center,0.51,0.00,False,15993,21,1000 Englewood Pkwy,Englewood,CO,80110,https://gis.arapahoegov.com/mapsandphotos/electionprecinctpdfs/Precinct_116.pdf
118,907,Englewood Civic Center,0.28,Englewood Civic Center,0.28,0.00,False,15993,21,1000 Englewood Pkwy,Englewood,CO,80110,https://gis.arapahoegov.com/mapsandphotos/electionprecinctpdfs/Precinct_118.pdf
119,901,Englewood Civic Center,0.61,Englewood Civic Center,0.61,0.00,False,15993,21,1000 Englewood Pkwy,Englewood,CO,80110,https://gis.arapahoegov.com/mapsandphotos/electionprecinctpdfs/Precinct_119.pdf
120,793,Englewood Civic Center,0.78,Englewood Civic Center,0.78,0.00,False,15993,21,1000 Englewood Pkwy,Englewood,CO,80110,https://gis.arapahoegov.com/mapsandphotos/electionprecinctpdfs/Precinct_120.pdf
121,624,Englewood Civic Center,1.05,Englewood Civic Center,1.05,0.00,False,15993,21,1000 Englewood Pkwy,Englewood,CO,80110,https://gis.arapahoegov.com/mapsandphotos/electionprecinctpdfs/Precinct_121.pdf
123,1040,Englewood Civic Center,1.12,Englewood Civic Center,1.12,0.00,False,15993,21,1000 Englewood Pkwy,Englewood,CO,80110,https://gis.arapahoegov.com/mapsandphotos/electionprecinctpdfs/Precinct_123.pdf
124,1195,Englewood Civic Center,1.56,Englewood Civic Center,1.56,0.00,False,15993,21,1000 Englewood Pkwy,Englewood,CO,80110,https://gis.arapahoegov.com/mapsandphotos/electionprecinctpdfs/Precinct_124.pdf
125,677,Englewood Civic Center,1.85,Englewood Civic Center,1.85,0.00,False,15993,21,1000 Englewood Pkwy,Englewood,CO,80110,https://gis.arapahoegov.com/mapsandphotos/electionprecinctpdfs/Precinct_125.pdf
128,403,Englewood Civic Center,1.83,Englewood Civic Center,1.83,0.00,False,15993,21,1000 Englewood Pkwy,Englewood,CO,80110,https://gis.arapahoegov.com/mapsandphotos/electionprecinctpdfs/Precinct_128.pdf
129,672,Englewood Civic Center,1.46,Englewood Civic Center,1.46,0.00,False,15993,21,1000 Englewood Pkwy,Englewood,CO,80110,https://gis.arapahoegov.com/mapsandphotos/electionprecinctpdfs/Precinct_129.pdf
130,1053,Englewood Civic Center,1.03,Englewood Civic Center,1.03,0.00,False,15993,21,1000 Englewood Pkwy,Englewood,CO,80110,https://gis.arapahoegov.com/mapsandphotos/electionprecinctpdfs/Precinct_130.pdf
131,1051,Englewood Civic Center,1.50,Englewood Civic Center,1.50,0.00,False,15993,21,1000 Englewood Pkwy,Englewood,CO,80110,https://gis.arapahoegov.com/mapsandphotos/electionprecinctpdfs/Precinct_131.pdf
133,1022,Englewood Civic Center,2.72,Englewood Civic Center,2.72,0.00,False,15993,21,1000 Englewood Pkwy,Englewood,CO,80110,https://gis.arapahoegov.com/mapsandphotos/electionprecinctpdfs/Precinct_133.pdf
134,584,Englewood Civic Center,2.74,Englewood Civic Center,2.74,0.00,False,15993,21,1000 Englewood Pkwy,Englewood,CO,80110,https://gis.arapahoegov.com/mapsandphotos/electionprecinctpdfs/Precinct_134.pdf
198,62,Englewood Civic Center,1.91,Englewood Civic Center,1.91,0.00,False,15993,21,1000 Englewood Pkwy,Englewood,CO,80110,https://gis.arapahoegov.com/mapsandphotos/electionprecinctpdfs/Precinct_198.pdf
201,386,Englewood Civic Center,2.00,Englewood Civic Center,2.00,0.00,False,15993,21,1000 Englewood Pkwy,Englewood,CO,80110,https://gis.arapahoegov.com/mapsandphotos/electionprecinctpdfs/Precinct_201.pdf
135,388,Greenwood Village City Hall,1.95,Greenwood Village City Hall,1.95,0.00,False,22311,22,6060 S Quebec St,Greenwood Village,CO,80111,https://gis.arapahoegov.com/mapsandphotos/electionprecinctpdfs/Precinct_135.pdf
136,898,Greenwood Village City Hall,2.70,Greenwood Village City Hall,2.70,0.00,False,22311,22,6060 S Quebec St,Greenwood Village,CO,80111,https://gis.arapahoegov.com/mapsandphotos/electionprecinctpdfs/Precinct_136.pdf
224,870,Greenwood Village City Hall,1.80,Greenwood Village City Hall,1.80,0.00,False,22311,22,6060 S Quebec St,Greenwood Village,CO,80111,https://gis.arapahoegov.com/mapsandphotos/electionprecinctpdfs/Precinct_224.pdf
226,708,Greenwood Village City Hall,1.46,Greenwood Village City Hall,1.46,0.00,False,22311,22,6060 S Quebec St,Greenwood Village,CO,80111,https://gis.arapahoegov.com/mapsandphotos/electionprecinctpdfs/Precinct_226.pdf
227,680,Greenwood Village City Hall,1.65,Greenwood Village City Hall,1.65,0.00,False,22311,22,6060 S Quebec St,Greenwood Village,CO,80111,https://gis.arapahoegov.com/mapsandphotos/electionprecinctpdfs/Precinct_227.pdf
228,870,Greenwood Village City Hall,1.20,Greenwood Village City Hall,1.20,0.00,False,22311,22,6060 S Quebec St,Greenwood Village,CO,80111,https://gis.arapahoegov.com/mapsandphotos/electionprecinctpdfs/Precinct_228.pdf
229,1239,Greenwood Village City Hall,1.00,Greenwood Village City Hall,1.00,0.00,False,22311,22,6060 S Quebec St,Greenwood Village,CO,80111,https://gis.arapahoegov.com/mapsandphotos/electionprecinctpdfs/Precinct_229.pdf
230,0,Greenwood Village City Hall,1.08,Greenwood Village City Hall,1.08,0.00,False,22311,22,6060 S Quebec St,Greenwood Village,CO,80111,https://gis.arapahoegov.com/mapsandphotos/electionprecinctpdfs/Precinct_230.pdf
231,1277,Greenwood Village City Hall,0.31,Greenwood Village City Hall,0.31,0.00,False,22311,22,6060 S Quebec St,Greenwood Village,CO,80111,https://gis.arapahoegov.com/mapsandphotos/electionprecinctpdfs/Precinct_231.pdf
232,1629,Greenwood Village City Hall,0.44,Greenwood Village City Hall,0.44,0.00,False,22311,22,6060 S Quebec St,Greenwood Village,CO,80111,https://gis.arapahoegov.com/mapsandphotos/electionprecinctpdfs/Precinct_232.pdf
233,962,Greenwood Village City Hall,1.18,Greenwood Village City Hall,1.18,0.00,False,22311,22,6060 S Quebec St,Greenwood Village,CO,80111,https://gis.arapahoegov.com/mapsandphotos/electionprecinctpdfs/Precinct_233.pdf
234,1374,Greenwood Village City Hall,0.98,Greenwood Village City Hall,0.98,0.00,False,22311,22,6060 S Quebec St,Greenwood Village,CO,80111,https://gis.arapahoegov.com/mapsandphotos/electionprecinctpdfs/Precinct_234.pdf
247,1671,Greenwood Village City Hall,1.27,Greenwood Village City Hall,1.27,0.00,False,22311,22,6060 S Quebec St,Greenwood Village,CO,80111,https://gis.arapahoegov.com/mapsandphotos/electionprecinctpdfs/Precinct_247.pdf
248,660,Greenwood Village City Hall,1.00,Greenwood Village City Hall,1.00,0.00,False,22311,22,6060 S Quebec St,Greenwood Village,CO,80111,https://gis.arapahoegov.com/mapsandphotos/electionprecinctpdfs/Precinct_248.pdf
249,849,Greenwood Village City Hall,0.96,Greenwood Village City Hall,0.96,0.00,False,22311,22,6060 S Quebec St,Greenwood Village,CO,80111,https://gis.arapahoegov.com/mapsandphotos/electionprecinctpdfs/Precinct_249.pdf
250,1012,Greenwood Village City Hall,1.29,Greenwood Village City Hall,1.29,0.00,False,22311,22,6060 S Quebec St,Greenwood Village,CO,80111,https://gis.arapahoegov.com/mapsandphotos/electionprecinctpdfs/Precinct_250.pdf
251,1555,Greenwood Village City Hall,1.64,Greenwood Village City Hall,1.64,0.00,False,22311,22,6060 S Quebec St,Greenwood Village,CO,80111,https://gis.arapahoegov.com/mapsandphotos/electionprecinctpdfs/Precinct_251.pdf
252,1430,Greenwood Village City Hall,1.68,Greenwood Village City Hall,1.68,0.00,False,22311,22,6060 S Quebec St,Greenwood Village,CO,80111,https://gis.arapahoegov.com/mapsandphotos/electionprecinctpdfs/Precinct_252.pdf
253,1651,Greenwood Village City Hall,1.13,Greenwood Village City Hall,1.13,0.00,False,22311,22,6060 S Quebec St,Greenwood Village,CO,80111,https://gis.arapahoegov.com/mapsandphotos/electionprecinctpdfs/Precinct_253.pdf
254,444,Greenwood Village City Hall,1.71,Greenwood Village City Hall,1.71,0.00,False,22311,22,6060 S Quebec St,Greenwood Village,CO,80111,https://gis.arapahoegov.com/mapsandphotos/electionprecinctpdfs/Precinct_254.pdf
255,1072,Greenwood Village City Hall,2.65,Greenwood Village City Hall,2.65,0.00,False,22311,22,6060 S Quebec St,Greenwood Village,CO,80111,https://gis.arapahoegov.com/mapsandphotos/electionprecinctpdfs/Precinct_255.pdf
258,1072,Greenwood Village City Hall,2.52,Greenwood Village City Hall,2.52,0.00,False,22311,22,6060 S Quebec St,Greenwood Village,CO,80111,https://gis.arapahoegov.com/mapsandphotos/electionprecinctpdfs/Precinct_258.pdf
427,1549,Heather Gardens,2.90,Heather Gardens,2.90,0.00,False,15488,15,2888 S Heather Gardens Way,Aurora,CO,80014,https://gis.arapahoegov.com/mapsandphotos/electionprecinctpdfs/Precinct_427.pdf
428,1109,Heather Gardens,2.69,Heather Gardens,2.69,0.00,False,15488,15,2888 S Heather Gardens Way,Aurora,CO,80014,https://gis.arapahoegov.com/mapsandphotos/electionprecinctpdfs/Precinct_428.pdf
429,898,Heather Gardens,2.52,Heather Gardens,2.52,0.00,False,15488,15,2888 S Heather Gardens Way,Aurora,CO,80014,https://gis.arapahoegov.com/mapsandphotos/electionprecinctpdfs/Precinct_429.pdf
430,1191,Heather Gardens,2.24,Heather Gardens,2.24,0.00,False,15488,15,2888 S Heather Gardens Way,Aurora,CO,80014,https://gis.arapahoegov.com/mapsandphotos/electionprecinctpdfs/Precinct_430.pdf
431,629,Heather Gardens,2.18,Heather Gardens,2.18,0.00,False,15488,15,2888 S Heather Gardens Way,Aurora,CO,80014,https://gis.arapahoegov.com/mapsandphotos/electionprecinctpdfs/Precinct_431.pdf
432,1335,Heather Gardens,1.86,Heather Gardens,1.86,0.00,False,15488,15,2888 S Heather Gardens Way,Aurora,CO,80014,https://gis.arapahoegov.com/mapsandphotos/electionprecinctpdfs/Precinct_432.pdf
433,997,Heather Gardens,1.64,Heather Gardens,1.64,0.00,False,15488,15,2888 S Heather Gardens Way,Aurora,CO,80014,https://gis.arapahoegov.com/mapsandphotos/electionprecinctpdfs/Precinct_433.pdf
436,1517,Heather Gardens,1.57,Heather Gardens,1.57,0.00,False,15488,15,2888 S Heather Gardens Way,Aurora,CO,80014,https://gis.arapahoegov.com/mapsandphotos/electionprecinctpdfs/Precinct_436.pdf
519,878,Heather Gardens,1.73,Heather Gardens,1.73,0.00,False,15488,15,2888 S Heather Gardens Way,Aurora,CO,80014,https://gis.arapahoegov.com/mapsandphotos/electionprecinctpdfs/Precinct_519.pdf
520,1015,Heather Gardens,1.29,Heather Gardens,1.29,0.00,False,15488,15,2888 S Heather Gardens Way,Aurora,CO,80014,https://gis.arapahoegov.com/mapsandphotos/electionprecinctpdfs/Precinct_520.pdf
521,863,Heather Gardens,1.02,Heather Gardens,1.02,0.00,False,15488,15,2888 S Heather Gardens Way,Aurora,CO,80014,https://gis.arapahoegov.com/mapsandphotos/electionprecinctpdfs/Precinct_521.pdf
532,998,Heather Gardens,0.95,Heather Gardens,0.95,0.00,False,15488,15,2888 S Heather Gardens Way,Aurora,CO,80014,https://gis.arapahoegov.com/mapsandphotos/electionprecinctpdfs/Precinct_532.pdf
535,903,Heather Gardens,0.20,Heather Gardens,0.20,0.00,False,15488,15,2888 S Heather Gardens Way,Aurora,CO,80014,https://gis.arapahoegov.com/mapsandphotos/electionprecinctpdfs/Precinct_535.pdf
536,802,Heather Gardens,0.61,Heather Gardens,0.61,0.00,False,15488,15,2888 S Heather Gardens Way,Aurora,CO,80014,https://gis.arapahoegov.com/mapsandphotos/electionprecinctpdfs/Precinct_536.pdf
542,804,Heather Gardens,0.38,Heather Gardens,0.38,0.00,False,15488,15,2888 S Heather Gardens Way,Aurora,CO,80014,https://gis.arapahoegov.com/mapsandphotos/electionprecinctpdfs/Precinct_542.pdf
363,1914,Kelver Library,7.84,Kelver Library,7.84,0.00,False,4433,3,585 S Main St,Byers,CO,80103,https://gis.arapahoegov.com/mapsandphotos/electionprecinctpdfs/Precinct_363.pdf
364,1509,Kelver Library,3.25,Kelver Library,3.25,0.00,False,4433,3,585 S Main St,Byers,CO,80103,https://gis.arapahoegov.com/mapsandphotos/electionprecinctpdfs/Precinct_364.pdf
365,1010,Kelver Library,16.27,Kelver Library,16.27,0.00,False,4433,3,585 S Main St,Byers,CO,80103,https://gis.arapahoegov.com/mapsandphotos/electionprecinctpdfs/Precinct_365.pdf
410,1230,Community College of Aurora Lowry Campus,1.48,"Martin Luther King, Jr. Library",4.04,2.56,True,3057,2,9898 E. Colfax Ave,Aurora,CO,80010,https://gis.arapahoegov.com/mapsandphotos/electionprecinctpdfs/Precinct_410.pdf
503,1827,"Martin Luther King, Jr. Library",0.24,"Martin Luther King, Jr. Library",0.24,0.00,False,3057,2,9898 E. Colfax Ave,Aurora,CO,80010,https://gis.arapahoegov.com/mapsandphotos/electionprecinctpdfs/Precinct_503.pdf
447,1614,Trails Recreation Center,2.60,Mission Viejo Library,4.55,1.94,True,9696,8,15324 E Hampden Cir,Aurora,CO,80013,https://gis.arapahoegov.com/mapsandphotos/electionprecinctpdfs/Precinct_447.pdf
450,1338,Trails Recreation Center,2.39,Mission Viejo Library,4.57,2.17,True,9696,8,15324 E Hampden Cir,Aurora,CO,80013,https://gis.arapahoegov.com/mapsandphotos/electionprecinctpdfs/Precinct_450.pdf
463,1477,Trails Recreation Center,2.44,Mission Viejo Library,4.36,1.92,True,9696,8,15324 E Hampden Cir,Aurora,CO,80013,https://gis.arapahoegov.com/mapsandphotos/electionprecinctpdfs/Precinct_463.pdf
551,868,Mission Viejo Library,1.31,Mission Viejo Library,1.31,0.00,False,9696,8,15324 E Hampden Cir,Aurora,CO,80013,https://gis.arapahoegov.com/mapsandphotos/electionprecinctpdfs/Precinct_551.pdf
552,1085,Mission Viejo Library,0.33,Mission Viejo Library,0.33,0.00,False,9696,8,15324 E Hampden Cir,Aurora,CO,80013,https://gis.arapahoegov.com/mapsandphotos/electionprecinctpdfs/Precinct_552.pdf
553,1458,Mission Viejo Library,0.66,Mission Viejo Library,0.66,0.00,False,9696,8,15324 E Hampden Cir,Aurora,CO,80013,https://gis.arapahoegov.com/mapsandphotos/electionprecinctpdfs/Precinct_553.pdf
555,971,Mission Viejo Library,1.23,Mission Viejo Library,1.23,0.00,False,9696,8,15324 E Hampden Cir,Aurora,CO,80013,https://gis.arapahoegov.com/mapsandphotos/electionprecinctpdfs/Precinct_555.pdf
559,885,Mission Viejo Library,1.55,Mission Viejo Library,1.55,0.00,False,9696,8,15324 E Hampden Cir,Aurora,CO,80013,https://gis.arapahoegov.com/mapsandphotos/electionprecinctpdfs/Precinct_559.pdf
302,1809,Trails Recreation Center,2.07,Murphy Creek Golf Course,4.79,2.73,True,13590,9,1700 S. Old Tom Morris Rd.,Aurora,CO,80018,https://gis.arapahoegov.com/mapsandphotos/electionprecinctpdfs/Precinct_302.pdf
320,1791,Trails Recreation Center,2.44,Murphy Creek Golf Course,4.49,2.04,True,13590,9,1700 S. Old Tom Morris Rd.,Aurora,CO,80018,https://gis.arapahoegov.com/mapsandphotos/electionprecinctpdfs/Precinct_320.pdf
330,1887,Trails Recreation Center,3.76,Murphy Creek Golf Course,5.96,2.20,True,13590,9,1700 S. Old Tom Morris Rd.,Aurora,CO,80018,https://gis.arapahoegov.com/mapsandphotos/electionprecinctpdfs/Precinct_330.pdf
335,1697,Trails Recreation Center,3.79,Murphy Creek Golf Course,5.23,1.44,True,13590,9,1700 S. Old Tom Morris Rd.,Aurora,CO,80018,https://gis.arapahoegov.com/mapsandphotos/electionprecinctpdfs/Precinct_335.pdf
336,1616,Trails Recreation Center,3.98,Murphy Creek Golf Course,4.58,0.60,True,13590,9,1700 S. Old Tom Morris Rd.,Aurora,CO,80018,https://gis.arapahoegov.com/mapsandphotos/electionprecinctpdfs/Precinct_336.pdf
369,1690,Trails Recreation Center,3.18,Murphy Creek Golf Course,3.91,0.73,True,13590,9,1700 S. Old Tom Morris Rd.,Aurora,CO,80018,https://gis.arapahoegov.com/mapsandphotos/electionprecinctpdfs/Precinct_369.pdf
370,1656,Trails Recreation Center,2.81,Murphy Creek Golf Course,4.41,1.60,True,13590,9,1700 S. Old Tom Morris Rd.,Aurora,CO,80018,https://gis.arapahoegov.com/mapsandphotos/electionprecinctpdfs/Precinct_370.pdf
501,1444,Murphy Creek Golf Course,0.88,Murphy Creek Golf Course,0.88,0.00,False,13590,9,1700 S. Old Tom Morris Rd.,Aurora,CO,80018,https://gis.arapahoegov.com/mapsandphotos/electionprecinctpdfs/Precinct_501.pdf
562,0,Murphy Creek Golf Course,0.63,Murphy Creek Golf Course,0.63,0.00,False,13590,9,1700 S. Old Tom Morris Rd.,Aurora,CO,80018,https://gis.arapahoegov.com/mapsandphotos/electionprecinctpdfs/Precinct_562.pdf
334,1441,Trails Recreation Center,3.27,Parkside Village Retirement Resort,6.88,3.61,True,9475,8,14501 E Crestline Dr,Aurora,CO,80015,https://gis.arapahoegov.com/mapsandphotos/electionprecinctpdfs/Precinct_334.pdf
337,1473,Trails Recreation Center,3.48,Parkside Village Retirement Resort,6.17,2.69,True,9475,8,14501 E Crestline Dr,Aurora,CO,80015,https://gis.arapahoegov.com/mapsandphotos/electionprecinctpdfs/Precinct_337.pdf
338,991,Trails Recreation Center,2.91,Parkside Village Retirement Resort,6.20,3.29,True,9475,8,14501 E Crestline Dr,Aurora,CO,80015,https://gis.arapahoegov.com/mapsandphotos/electionprecinctpdfs/Precinct_338.pdf
342,1931,The Avenue Church,2.61,Parkside Village Retirement Resort,4.43,1.82,True,9475,8,14501 E Crestline Dr,Aurora,CO,80015,https://gis.arapahoegov.com/mapsandphotos/electionprecinctpdfs/Precinct_342.pdf
368,748,Trails Recreation Center,4.10,Parkside Village Retirement Resort,7.10,3.00,True,9475,8,14501 E Crestline Dr,Aurora,CO,80015,https://gis.arapahoegov.com/mapsandphotos/electionprecinctpdfs/Precinct_368.pdf
380,1008,Trails Recreation Center,4.57,Parkside Village Retirement Resort,7.97,3.41,True,9475,8,14501 E Crestline Dr,Aurora,CO,80015,https://gis.arapahoegov.com/mapsandphotos/electionprecinctpdfs/Precinct_380.pdf
382,589,Trails Recreation Center,3.25,Parkside Village Retirement Resort,6.53,3.29,True,9475,8,14501 E Crestline Dr,Aurora,CO,80015,https://gis.arapahoegov.com/mapsandphotos/electionprecinctpdfs/Precinct_382.pdf
502,1294,Parkside Village Retirement Resort,0.55,Parkside Village Retirement Resort,0.55,0.00,False,9475,8,14501 E Crestline Dr,Aurora,CO,80015,https://gis.arapahoegov.com/mapsandphotos/electionprecinctpdfs/Precinct_502.pdf
416,1659,Community College of Aurora Lowry Campus,1.40,Pickens Technical College,2.72,1.32,True,9469,8,500 Airport Blvd Bldg E,Aurora,CO,80011,https://gis.arapahoegov.com/mapsandphotos/electionprecinctpdfs/Precinct_416.pdf
438,1502,City of Aurora Municipal Center,2.21,Pickens Technical College,3.88,1.67,True,9469,8,500 Airport Blvd Bldg E,Aurora,CO,80011,https://gis.arapahoegov.com/mapsandphotos/electionprecinctpdfs/Precinct_438.pdf
512,1096,Pickens Technical College,1.06,Pickens Technical College,1.06,0.00,False,9469,8,500 Airport Blvd Bldg E,Aurora,CO,80011,https://gis.arapahoegov.com/mapsandphotos/electionprecinctpdfs/Precinct_512.pdf
522,1090,Pickens Technical College,1.57,Pickens Technical College,1.57,0.00,False,9469,8,500 Airport Blvd Bldg E,Aurora,CO,80011,https://gis.arapahoegov.com/mapsandphotos/electionprecinctpdfs/Precinct_522.pdf
523,1312,Pickens Technical College,0.92,Pickens Technical College,0.92,0.00,False,9469,8,500 Airport Blvd Bldg E,Aurora,CO,80011,https://gis.arapahoegov.com/mapsandphotos/electionprecinctpdfs/Precinct_523.pdf
524,997,Pickens Technical College,0.46,Pickens Technical College,0.46,0.00,False,9469,8,500 Airport Blvd Bldg E,Aurora,CO,80011,https://gis.arapahoegov.com/mapsandphotos/electionprecinctpdfs/Precinct_524.pdf
525,918,Pickens Technical College,0.20,Pickens Technical College,0.20,0.00,False,9469,8,500 Airport Blvd Bldg E,Aurora,CO,80011,https://gis.arapahoegov.com/mapsandphotos/electionprecinctpdfs/Precinct_525.pdf
526,895,Pickens Technical College,0.20,Pickens Technical College,0.20,0.00,False,9469,8,500 Airport Blvd Bldg E,Aurora,CO,80011,https://gis.arapahoegov.com/mapsandphotos/electionprecinctpdfs/Precinct_526.pdf
243,1472,Smoky Hill Library,1.73,Smoky Hill Library,1.73,0.00,False,15086,10,5430 S Biscay Cir,Centennial,CO,80015,https://gis.arapahoegov.com/mapsandphotos/electionprecinctpdfs/Precinct_243.pdf
244,1395,Smoky Hill Library,1.67,Smoky Hill Library,1.67,0.00,False,15086,10,5430 S Biscay Cir,Centennial,CO,80015,https://gis.arapahoegov.com/mapsandphotos/electionprecinctpdfs/Precinct_244.pdf
245,494,Smoky Hill Library,1.84,Smoky Hill Library,1.84,0.00,False,15086,10,5430 S Biscay Cir,Centennial,CO,80015,https://gis.arapahoegov.com/mapsandphotos/electionprecinctpdfs/Precinct_245.pdf
246,1137,Smoky Hill Library,1.47,Smoky Hill Library,1.47,0.00,False,15086,10,5430 S Biscay Cir,Centennial,CO,80015,https://gis.arapahoegov.com/mapsandphotos/electionprecinctpdfs/Precinct_246.pdf
259,1827,Trails Recreation Center,1.87,Smoky Hill Library,3.12,1.24,True,15086,10,5430 S Biscay Cir,Centennial,CO,80015,https://gis.arapahoegov.com/mapsandphotos/electionprecinctpdfs/Precinct_259.pdf
260,1959,Trails Recreation Center,2.56,Smoky Hill Library,3.75,1.19,True,15086,10,5430 S Biscay Cir,Centennial,CO,80015,https://gis.arapahoegov.com/mapsandphotos/electionprecinctpdfs/Precinct_260.pdf
261,1572,Trails Recreation Center,0.80,Smoky Hill Library,4.36,3.56,True,15086,10,5430 S Biscay Cir,Centennial,CO,80015,https://gis.arapahoegov.com/mapsandphotos/electionprecinctpdfs/Precinct_261.pdf
282,1563,Trails Recreation Center,0.77,Smoky Hill Library,4.81,4.03,True,15086,10,5430 S Biscay Cir,Centennial,CO,80015,https://gis.arapahoegov.com/mapsandphotos/electionprecinctpdfs/Precinct_282.pdf
286,1932,Smoky Hill Library,0.04,Smoky Hill Library,0.04,0.00,False,15086,10,5430 S Biscay Cir,Centennial,CO,80015,https://gis.arapahoegov.com/mapsandphotos/electionprecinctpdfs/Precinct_286.pdf
448,1735,Trails Recreation Center,2.66,Smoky Hill Library,4.72,2.06,True,15086,10,5430 S Biscay Cir,Centennial,CO,80015,https://gis.arapahoegov.com/mapsandphotos/electionprecinctpdfs/Precinct_448.pdf
127,139,Southglenn Library,1.62,Southglenn Library,1.62,0.00,False,19688,22,6972 S Vine St,Centennial,CO,80122,https://gis.arapahoegov.com/mapsandphotos/electionprecinctpdfs/Precinct_127.pdf
140,487,Southglenn Library,1.62,Southglenn Library,1.62,0.00,False,19688,22,6972 S Vine St,Centennial,CO,80122,https://gis.arapahoegov.com/mapsandphotos/electionprecinctpdfs/Precinct_140.pdf
145,729,Southglenn Library,1.12,Southglenn Library,1.12,0.00,False,19688,22,6972 S Vine St,Centennial,CO,80122,https://gis.arapahoegov.com/mapsandphotos/electionprecinctpdfs/Precinct_145.pdf
180,805,Southglenn Library,1.71,Southglenn Library,1.71,0.00,False,19688,22,6972 S Vine St,Centennial,CO,80122,https://gis.arapahoegov.com/mapsandphotos/electionprecinctpdfs/Precinct_180.pdf
182,980,Southglenn Library,1.58,Southglenn Library,1.58,0.00,False,19688,22,6972 S Vine St,Centennial,CO,80122,https://gis.arapahoegov.com/mapsandphotos/electionprecinctpdfs/Precinct_182.pdf
183,1370,Southglenn Library,1.19,Southglenn Library,1.19,0.00,False,19688,22,6972 S Vine St,Centennial,CO,80122,https://gis.arapahoegov.com/mapsandphotos/electionprecinctpdfs/Precinct_183.pdf
184,731,Southglenn Library,1.05,Southglenn Library,1.05,0.00,False,19688,22,6972 S Vine St,Centennial,CO,80122,https://gis.arapahoegov.com/mapsandphotos/electionprecinctpdfs/Precinct_184.pdf
185,953,Southglenn Library,0.71,Southglenn Library,0.71,0.00,False,19688,22,6972 S Vine St,Centennial,CO,80122,https://gis.arapahoegov.com/mapsandphotos/electionprecinctpdfs/Precinct_185.pdf
186,960,Southglenn Library,1.34,Southglenn Library,1.34,0.00,False,19688,22,6972 S Vine St,Centennial,CO,80122,https://gis.arapahoegov.com/mapsandphotos/electionprecinctpdfs/Precinct_186.pdf
187,949,Southglenn Library,0.87,Southglenn Library,0.87,0.00,False,19688,22,6972 S Vine St,Centennial,CO,80122,https://gis.arapahoegov.com/mapsandphotos/electionprecinctpdfs/Precinct_187.pdf
188,656,Southglenn Library,1.50,Southglenn Library,1.50,0.00,False,19688,22,6972 S Vine St,Centennial,CO,80122,https://gis.arapahoegov.com/mapsandphotos/electionprecinctpdfs/Precinct_188.pdf
189,1137,Southglenn Library,1.16,Southglenn Library,1.16,0.00,False,19688,22,6972 S Vine St,Centennial,CO,80122,https://gis.arapahoegov.com/mapsandphotos/electionprecinctpdfs/Precinct_189.pdf
190,1293,Southglenn Library,0.84,Southglenn Library,0.84,0.00,False,19688,22,6972 S Vine St,Centennial,CO,80122,https://gis.arapahoegov.com/mapsandphotos/electionprecinctpdfs/Precinct_190.pdf
193,883,Southglenn Library,0.39,Southglenn Library,0.39,0.00,False,19688,22,6972 S Vine St,Centennial,CO,80122,https://gis.arapahoegov.com/mapsandphotos/electionprecinctpdfs/Precinct_193.pdf
194,1190,Southglenn Library,0.32,Southglenn Library,0.32,0.00,False,19688,22,6972 S Vine St,Centennial,CO,80122,https://gis.arapahoegov.com/mapsandphotos/electionprecinctpdfs/Precinct_194.pdf
195,1036,Southglenn Library,0.24,Southglenn Library,0.24,0.00,False,19688,22,6972 S Vine St,Centennial,CO,80122,https://gis.arapahoegov.com/mapsandphotos/electionprecinctpdfs/Precinct_195.pdf
196,640,Southglenn Library,0.56,Southglenn Library,0.56,0.00,False,19688,22,6972 S Vine St,Centennial,CO,80122,https://gis.arapahoegov.com/mapsandphotos/electionprecinctpdfs/Precinct_196.pdf
197,743,Southglenn Library,0.74,Southglenn Library,0.74,0.00,False,19688,22,6972 S Vine St,Centennial,CO,80122,https://gis.arapahoegov.com/mapsandphotos/electionprecinctpdfs/Precinct_197.pdf
202,373,Southglenn Library,2.43,Southglenn Library,2.43,0.00,False,19688,22,6972 S Vine St,Centennial,CO,80122,https://gis.arapahoegov.com/mapsandphotos/electionprecinctpdfs/Precinct_202.pdf
203,764,Southglenn Library,2.45,Southglenn Library,2.45,0.00,False,19688,22,6972 S Vine St,Centennial,CO,80122,https://gis.arapahoegov.com/mapsandphotos/electionprecinctpdfs/Precinct_203.pdf
204,1677,Southglenn Library,2.42,Southglenn Library,2.42,0.00,False,19688,22,6972 S Vine St,Centennial,CO,80122,https://gis.arapahoegov.com/mapsandphotos/electionprecinctpdfs/Precinct_204.pdf
208,1193,Southglenn Library,1.67,Southglenn Library,1.67,0.00,False,19688,22,6972 S Vine St,Centennial,CO,80122,https://gis.arapahoegov.com/mapsandphotos/electionprecinctpdfs/Precinct_208.pdf
349,0,Tallyns Reach Library,2.58,Tallyns Reach Library,2.58,0.00,False,15491,14,23911 E Arapahoe Rd,Aurora,CO,80016,https://gis.arapahoegov.com/mapsandphotos/electionprecinctpdfs/Precinct_349.pdf
350,12,Tallyns Reach Library,3.44,Tallyns Reach Library,3.44,0.00,False,15491,14,23911 E Arapahoe Rd,Aurora,CO,80016,https://gis.arapahoegov.com/mapsandphotos/electionprecinctpdfs/Precinct_350.pdf
351,1958,Tallyns Reach Library,4.02,Tallyns Reach Library,4.02,0.00,False,15491,14,23911 E Arapahoe Rd,Aurora,CO,80016,https://gis.arapahoegov.com/mapsandphotos/electionprecinctpdfs/Precinct_351.pdf
352,1915,Trails Recreation Center,4.85,Tallyns Reach Library,5.31,0.46,True,15491,14,23911 E Arapahoe Rd,Aurora,CO,80016,https://gis.arapahoegov.com/mapsandphotos/electionprecinctpdfs/Precinct_352.pdf
354,1724,Trails Recreation Center,5.52,Tallyns Reach Library,6.75,1.23,True,15491,14,23911 E Arapahoe Rd,Aurora,CO,80016,https://gis.arapahoegov.com/mapsandphotos/electionprecinctpdfs/Precinct_354.pdf
355,1989,Tallyns Reach Library,6.41,Tallyns Reach Library,6.41,0.00,False,15491,14,23911 E Arapahoe Rd,Aurora,CO,80016,https://gis.arapahoegov.com/mapsandphotos/electionprecinctpdfs/Precinct_355.pdf
358,2,Tallyns Reach Library,2.23,Tallyns Reach Library,2.23,0.00,False,15491,14,23911 E Arapahoe Rd,Aurora,CO,80016,https://gis.arapahoegov.com/mapsandphotos/electionprecinctpdfs/Precinct_358.pdf
372,773,Tallyns Reach Library,4.44,Tallyns Reach Library,4.44,0.00,False,15491,14,23911 E Arapahoe Rd,Aurora,CO,80016,https://gis.arapahoegov.com/mapsandphotos/electionprecinctpdfs/Precinct_372.pdf
373,1204,Tallyns Reach Library,5.27,Tallyns Reach Library,5.27,0.00,False,15491,14,23911 E Arapahoe Rd,Aurora,CO,80016,https://gis.arapahoegov.com/mapsandphotos/electionprecinctpdfs/Precinct_373.pdf
375,1485,Trails Recreation Center,4.70,Tallyns Reach Library,6.93,2.23,True,15491,14,23911 E Arapahoe Rd,Aurora,CO,80016,https://gis.arapahoegov.com/mapsandphotos/electionprecinctpdfs/Precinct_375.pdf
378,1849,Tallyns Reach Library,5.59,Tallyns Reach Library,5.59,0.00,False,15491,14,23911 E Arapahoe Rd,Aurora,CO,80016,https://gis.arapahoegov.com/mapsandphotos/electionprecinctpdfs/Precinct_378.pdf
384,513,Tallyns Reach Library,6.33,Tallyns Reach Library,6.33,0.00,False,15491,14,23911 E Arapahoe Rd,Aurora,CO,80016,https://gis.arapahoegov.com/mapsandphotos/electionprecinctpdfs/Precinct_384.pdf
385,774,Tallyns Reach Library,4.17,Tallyns Reach Library,4.17,0.00,False,15491,14,23911 E Arapahoe Rd,Aurora,CO,80016,https://gis.arapahoegov.com/mapsandphotos/electionprecinctpdfs/Precinct_385.pdf
388,1293,Tallyns Reach Library,7.66,Tallyns Reach Library,7.66,0.00,False,15491,14,23911 E Arapahoe Rd,Aurora,CO,80016,https://gis.arapahoegov.com/mapsandphotos/electionprecinctpdfs/Precinct_388.pdf
310,1022,The Avenue Church,1.54,The Avenue Church,1.54,0.00,False,25504,22,13231 E Mississippi Ave,Aurora,CO,80012,https://gis.arapahoegov.com/mapsandphotos/electionprecinctpdfs/Precinct_310.pdf
311,1218,The Avenue Church,1.00,The Avenue Church,1.00,0.00,False,25504,22,13231 E Mississippi Ave,Aurora,CO,80012,https://gis.arapahoegov.com/mapsandphotos/electionprecinctpdfs/Precinct_311.pdf
312,1775,The Avenue Church,1.53,The Avenue Church,1.53,0.00,False,25504,22,13231 E Mississippi Ave,Aurora,CO,80012,https://gis.arapahoegov.com/mapsandphotos/electionprecinctpdfs/Precinct_312.pdf
313,1116,The Avenue Church,2.07,The Avenue Church,2.07,0.00,False,25504,22,13231 E Mississippi Ave,Aurora,CO,80012,https://gis.arapahoegov.com/mapsandphotos/electionprecinctpdfs/Precinct_313.pdf
314,876,The Avenue Church,2.08,The Avenue Church,2.08,0.00,False,25504,22,13231 E Mississippi Ave,Aurora,CO,80012,https://gis.arapahoegov.com/mapsandphotos/electionprecinctpdfs/Precinct_314.pdf
315,1601,The Avenue Church,1.76,The Avenue Church,1.76,0.00,False,25504,22,13231 E Mississippi Ave,Aurora,CO,80012,https://gis.arapahoegov.com/mapsandphotos/electionprecinctpdfs/Precinct_315.pdf
316,816,The Avenue Church,2.40,The Avenue Church,2.40,0.00,False,25504,22,13231 E Mississippi Ave,Aurora,CO,80012,https://gis.arapahoegov.com/mapsandphotos/electionprecinctpdfs/Precinct_316.pdf
317,1069,The Avenue Church,2.72,The Avenue Church,2.72,0.00,False,25504,22,13231 E Mississippi Ave,Aurora,CO,80012,https://gis.arapahoegov.com/mapsandphotos/electionprecinctpdfs/Precinct_317.pdf
318,957,The Avenue Church,2.32,The Avenue Church,2.32,0.00,False,25504,22,13231 E Mississippi Ave,Aurora,CO,80012,https://gis.arapahoegov.com/mapsandphotos/electionprecinctpdfs/Precinct_318.pdf
319,1863,The Avenue Church,2.79,The Avenue Church,2.79,0.00,False,25504,22,13231 E Mississippi Ave,Aurora,CO,80012,https://gis.arapahoegov.com/mapsandphotos/electionprecinctpdfs/Precinct_319.pdf
340,1780,The Avenue Church,3.53,The Avenue Church,3.53,0.00,False,25504,22,13231 E Mississippi Ave,Aurora,CO,80012,https://gis.arapahoegov.com/mapsandphotos/electionprecinctpdfs/Precinct_340.pdf
341,1830,The Avenue Church,2.77,The Avenue Church,2.77,0.00,False,25504,22,13231 E Mississippi Ave,Aurora,CO,80012,https://gis.arapahoegov.com/mapsandphotos/electionprecinctpdfs/Precinct_341.pdf
343,1370,The Avenue Church,2.50,The Avenue Church,2.50,0.00,False,25504,22,13231 E Mississippi Ave,Aurora,CO,80012,https://gis.arapahoegov.com/mapsandphotos/electionprecinctpdfs/Precinct_343.pdf
344,1681,The Avenue Church,1.13,The Avenue Church,1.13,0.00,False,25504,22,13231 E Mississippi Ave,Aurora,CO,80012,https://gis.arapahoegov.com/mapsandphotos/electionprecinctpdfs/Precinct_344.pdf
371,999,The Avenue Church,1.43,The Avenue Church,1.43,0.00,False,25504,22,13231 E Mississippi Ave,Aurora,CO,80012,https://gis.arapahoegov.com/mapsandphotos/electionprecinctpdfs/Precinct_371.pdf
386,1012,The Avenue Church,1.12,The Avenue Church,1.12,0.00,False,25504,22,13231 E Mississippi Ave,Aurora,CO,80012,https://gis.arapahoegov.com/mapsandphotos/electionprecinctpdfs/Precinct_386.pdf
387,1141,The Avenue Church,3.72,The Avenue Church,3.72,0.00,False,25504,22,13231 E Mississippi Ave,Aurora,CO,80012,https://gis.arapahoegov.com/mapsandphotos/electionprecinctpdfs/Precinct_387.pdf
389,107,The Avenue Church,2.26,The Avenue Church,2.26,0.00,False,25504,22,13231 E Mississippi Ave,Aurora,CO,80012,https://gis.arapahoegov.com/mapsandphotos/electionprecinctpdfs/Precinct_389.pdf
454,1119,The Avenue Church,2.46,The Avenue Church,2.46,0.00,False,25504,22,13231 E Mississippi Ave,Aurora,CO,80012,https://gis.arapahoegov.com/mapsandphotos/electionprecinctpdfs/Precinct_454.pdf
455,927,The Avenue Church,2.36,The Avenue Church,2.36,0.00,False,25504,22,13231 E Mississippi Ave,Aurora,CO,80012,https://gis.arapahoegov.com/mapsandphotos/electionprecinctpdfs/Precinct_455.pdf
456,1225,The Avenue Church,3.01,The Avenue Church,3.01,0.00,False,25504,22,13231 E Mississippi Ave,Aurora,CO,80012,https://gis.arapahoegov.com/mapsandphotos/electionprecinctpdfs/Precinct_456.pdf
457,0,The Avenue Church,2.78,The Avenue Church,2.78,0.00,False,25504,22,13231 E Mississippi Ave,Aurora,CO,80012,https://gis.arapahoegov.com/mapsandphotos/electionprecinctpdfs/Precinct_457.pdf
205,710,Trails Recreation Center,1.81,Trails Recreation Center,1.81,0.00,False,51598,58,16799 E. Lake Ave.,Centennial,CO,80016,https://gis.arapahoegov.com/mapsandphotos/electionprecinctpdfs/Precinct_205.pdf
206,763,Trails Recreation Center,1.27,Trails Recreation Center,1.27,0.00,False,51598,58,16799 E. Lake Ave.,Centennial,CO,80016,https://gis.arapahoegov.com/mapsandphotos/electionprecinctpdfs/Precinct_206.pdf
207,1176,Trails Recreation Center,1.70,Trails Recreation Center,1.70,0.00,False,51598,58,16799 E. Lake Ave.,Centennial,CO,80016,https://gis.arapahoegov.com/mapsandphotos/electionprecinctpdfs/Precinct_207.pdf
213,1052,Trails Recreation Center,2.42,Trails Recreation Center,2.42,0.00,False,51598,58,16799 E. Lake Ave.,Centennial,CO,80016,https://gis.arapahoegov.com/mapsandphotos/electionprecinctpdfs/Precinct_213.pdf
215,699,Trails Recreation Center,3.69,Trails Recreation Center,3.69,0.00,False,51598,58,16799 E. Lake Ave.,Centennial,CO,80016,https://gis.arapahoegov.com/mapsandphotos/electionprecinctpdfs/Precinct_215.pdf
216,946,Trails Recreation Center,3.27,Trails Recreation Center,3.27,0.00,False,51598,58,16799 E. Lake Ave.,Centennial,CO,80016,https://gis.arapahoegov.com/mapsandphotos/electionprecinctpdfs/Precinct_216.pdf
256,522,Trails Recreation Center,1.47,Trails Recreation Center,1.47,0.00,False,51598,58,16799 E. Lake Ave.,Centennial,CO,80016,https://gis.arapahoegov.com/mapsandphotos/electionprecinctpdfs/Precinct_256.pdf
257,1321,Trails Recreation Center,0.47,Trails Recreation Center,0.47,0.00,False,51598,58,16799 E. Lake Ave.,Centennial,CO,80016,https://gis.arapahoegov.com/mapsandphotos/electionprecinctpdfs/Precinct_257.pdf
262,1338,Trails Recreation Center,0.42,Trails Recreation Center,0.42,0.00,False,51598,58,16799 E. Lake Ave.,Centennial,CO,80016,https://gis.arapahoegov.com/mapsandphotos/electionprecinctpdfs/Precinct_262.pdf
263,1074,Trails Recreation Center,0.55,Trails Recreation Center,0.55,0.00,False,51598,58,16799 E. Lake Ave.,Centennial,CO,80016,https://gis.arapahoegov.com/mapsandphotos/electionprecinctpdfs/Precinct_263.pdf
264,1252,Trails Recreation Center,0.86,Trails Recreation Center,0.86,0.00,False,51598,58,16799 E. Lake Ave.,Centennial,CO,80016,https://gis.arapahoegov.com/mapsandphotos/electionprecinctpdfs/Precinct_264.pdf
265,1082,Trails Recreation Center,2.89,Trails Recreation Center,2.89,0.00,False,51598,58,16799 E. Lake Ave.,Centennial,CO,80016,https://gis.arapahoegov.com/mapsandphotos/electionprecinctpdfs/Precinct_265.pdf
266,1151,Trails Recreation Center,5.85,Trails Recreation Center,5.85,0.00,False,51598,58,16799 E. Lake Ave.,Centennial,CO,80016,https://gis.arapahoegov.com/mapsandphotos/electionprecinctpdfs/Precinct_266.pdf
267,1118,Trails Recreation Center,2.15,Trails Recreation Center,2.15,0.00,False,51598,58,16799 E. Lake Ave.,Centennial,CO,80016,https://gis.arapahoegov.com/mapsandphotos/electionprecinctpdfs/Precinct_267.pdf
268,881,Trails Recreation Center,5.13,Trails Recreation Center,5.13,0.00,False,51598,58,16799 E. Lake Ave.,Centennial,CO,80016,https://gis.arapahoegov.com/mapsandphotos/electionprecinctpdfs/Precinct_268.pdf
269,1095,Trails Recreation Center,2.32,Trails Recreation Center,2.32,0.00,False,51598,58,16799 E. Lake Ave.,Centennial,CO,80016,https://gis.arapahoegov.com/mapsandphotos/electionprecinctpdfs/Precinct_269.pdf
270,981,Trails Recreation Center,2.02,Trails Recreation Center,2.02,0.00,False,51598,58,16799 E. Lake Ave.,Centennial,CO,80016,https://gis.arapahoegov.com/mapsandphotos/electionprecinctpdfs/Precinct_270.pdf
271,798,Trails Recreation Center,1.74,Trails Recreation Center,1.74,0.00,False,51598,58,16799 E. Lake Ave.,Centennial,CO,80016,https://gis.arapahoegov.com/mapsandphotos/electionprecinctpdfs/Precinct_271.pdf
272,890,Trails Recreation Center,2.00,Trails Recreation Center,2.00,0.00,False,51598,58,16799 E. Lake Ave.,Centennial,CO,80016,https://gis.arapahoegov.com/mapsandphotos/electionprecinctpdfs/Precinct_272.pdf
273,906,Trails Recreation Center,1.63,Trails Recreation Center,1.63,0.00,False,51598,58,16799 E. Lake Ave.,Centennial,CO,80016,https://gis.arapahoegov.com/mapsandphotos/electionprecinctpdfs/Precinct_273.pdf
274,1236,Trails Recreation Center,1.15,Trails Recreation Center,1.15,0.00,False,51598,58,16799 E. Lake Ave.,Centennial,CO,80016,https://gis.arapahoegov.com/mapsandphotos/electionprecinctpdfs/Precinct_274.pdf
275,663,Trails Recreation Center,1.37,Trails Recreation Center,1.37,0.00,False,51598,58,16799 E. Lake Ave.,Centennial,CO,80016,https://gis.arapahoegov.com/mapsandphotos/electionprecinctpdfs/Precinct_275.pdf
276,324,Trails Recreation Center,1.01,Trails Recreation Center,1.01,0.00,False,51598,58,16799 E. Lake Ave.,Centennial,CO,80016,https://gis.arapahoegov.com/mapsandphotos/electionprecinctpdfs/Precinct_276.pdf
277,886,Trails Recreation Center,0.85,Trails Recreation Center,0.85,0.00,False,51598,58,16799 E. Lake Ave.,Centennial,CO,80016,https://gis.arapahoegov.com/mapsandphotos/electionprecinctpdfs/Precinct_277.pdf
278,525,Trails Recreation Center,0.57,Trails Recreation Center,0.57,0.00,False,51598,58,16799 E. Lake Ave.,Centennial,CO,80016,https://gis.arapahoegov.com/mapsandphotos/electionprecinctpdfs/Precinct_278.pdf
279,951,Trails Recreation Center,1.05,Trails Recreation Center,1.05,0.00,False,51598,58,16799 E. Lake Ave.,Centennial,CO,80016,https://gis.arapahoegov.com/mapsandphotos/electionprecinctpdfs/Precinct_279.pdf
280,1215,Trails Recreation Center,1.43,Trails Recreation Center,1.43,0.00,False,51598,58,16799 E. Lake Ave.,Centennial,CO,80016,https://gis.arapahoegov.com/mapsandphotos/electionprecinctpdfs/Precinct_280.pdf
281,1217,Trails Recreation Center,0.72,Trails Recreation Center,0.72,0.00,False,51598,58,16799 E. Lake Ave.,Centennial,CO,80016,https://gis.arapahoegov.com/mapsandphotos/electionprecinctpdfs/Precinct_281.pdf
283,969,Trails Recreation Center,1.75,Trails Recreation Center,1.75,0.00,False,51598,58,16799 E. Lake Ave.,Centennial,CO,80016,https://gis.arapahoegov.com/mapsandphotos/electionprecinctpdfs/Precinct_283.pdf
284,785,Trails Recreation Center,0.94,Trails Recreation Center,0.94,0.00,False,51598,58,16799 E. Lake Ave.,Centennial,CO,80016,https://gis.arapahoegov.com/mapsandphotos/electionprecinctpdfs/Precinct_284.pdf
285,793,Trails Recreation Center,1.27,Trails Recreation Center,1.27,0.00,False,51598,58,16799 E. Lake Ave.,Centennial,CO,80016,https://gis.arapahoegov.com/mapsandphotos/electionprecinctpdfs/Precinct_285.pdf
287,214,Trails Recreation Center,1.34,Trails Recreation Center,1.34,0.00,False,51598,58,16799 E. Lake Ave.,Centennial,CO,80016,https://gis.arapahoegov.com/mapsandphotos/electionprecinctpdfs/Precinct_287.pdf
288,0,Trails Recreation Center,1.07,Trails Recreation Center,1.07,0.00,False,51598,58,16799 E. Lake Ave.,Centennial,CO,80016,https://gis.arapahoegov.com/mapsandphotos/electionprecinctpdfs/Precinct_288.pdf
289,0,Trails Recreation Center,1.07,Trails Recreation Center,1.07,0.00,False,51598,58,16799 E. Lake Ave.,Centennial,CO,80016,https://gis.arapahoegov.com/mapsandphotos/electionprecinctpdfs/Precinct_289.pdf
290,0,Trails Recreation Center,1.56,Trails Recreation Center,1.56,0.00,False,51598,58,16799 E. Lake Ave.,Centennial,CO,80016,https://gis.arapahoegov.com/mapsandphotos/electionprecinctpdfs/Precinct_290.pdf
291,0,Trails Recreation Center,1.86,Trails Recreation Center,1.86,0.00,False,51598,58,16799 E. Lake Ave.,Centennial,CO,80016,https://gis.arapahoegov.com/mapsandphotos/electionprecinctpdfs/Precinct_291.pdf
301,686,Trails Recreation Center,2.74,Trails Recreation Center,2.74,0.00,False,51598,58,16799 E. Lake Ave.,Centennial,CO,80016,https://gis.arapahoegov.com/mapsandphotos/electionprecinctpdfs/Precinct_301.pdf
303,936,Trails Recreation Center,1.69,Trails Recreation Center,1.69,0.00,False,51598,58,16799 E. Lake Ave.,Centennial,CO,80016,https://gis.arapahoegov.com/mapsandphotos/electionprecinctpdfs/Precinct_303.pdf
304,933,Trails Recreation Center,1.24,Trails Recreation Center,1.24,0.00,False,51598,58,16799 E. Lake Ave.,Centennial,CO,80016,https://gis.arapahoegov.com/mapsandphotos/electionprecinctpdfs/Precinct_304.pdf
305,1341,Trails Recreation Center,1.43,Trails Recreation Center,1.43,0.00,False,51598,58,16799 E. Lake Ave.,Centennial,CO,80016,https://gis.arapahoegov.com/mapsandphotos/electionprecinctpdfs/Precinct_305.pdf
306,847,Trails Recreation Center,1.95,Trails Recreation Center,1.95,0.00,False,51598,58,16799 E. Lake Ave.,Centennial,CO,80016,https://gis.arapahoegov.com/mapsandphotos/electionprecinctpdfs/Precinct_306.pdf
307,763,Trails Recreation Center,1.75,Trails Recreation Center,1.75,0.00,False,51598,58,16799 E. Lake Ave.,Centennial,CO,80016,https://gis.arapahoegov.com/mapsandphotos/electionprecinctpdfs/Precinct_307.pdf
308,1246,Trails Recreation Center,1.65,Trails Recreation Center,1.65,0.00,False,51598,58,16799 E. Lake Ave.,Centennial,CO,80016,https://gis.arapahoegov.com/mapsandphotos/electionprecinctpdfs/Precinct_308.pdf
309,1333,Trails Recreation Center,1.28,Trails Recreation Center,1.28,0.00,False,51598,58,16799 E. Lake Ave.,Centennial,CO,80016,https://gis.arapahoegov.com/mapsandphotos/electionprecinctpdfs/Precinct_309.pdf
321,1365,Trails Recreation Center,2.07,Trails Recreation Center,2.07,0.00,False,51598,58,16799 E. Lake Ave.,Centennial,CO,80016,https://gis.arapahoegov.com/mapsandphotos/electionprecinctpdfs/Precinct_321.pdf
327,1245,Trails Recreation Center,4.05,Trails Recreation Center,4.05,0.00,False,51598,58,16799 E. Lake Ave.,Centennial,CO,80016,https://gis.arapahoegov.com/mapsandphotos/electionprecinctpdfs/Precinct_327.pdf
329,1384,Trails Recreation Center,3.51,Trails Recreation Center,3.51,0.00,False,51598,58,16799 E. Lake Ave.,Centennial,CO,80016,https://gis.arapahoegov.com/mapsandphotos/electionprecinctpdfs/Precinct_329.pdf
332,1139,Trails Recreation Center,2.46,Trails Recreation Center,2.46,0.00,False,51598,58,16799 E. Lake Ave.,Centennial,CO,80016,https://gis.arapahoegov.com/mapsandphotos/electionprecinctpdfs/Precinct_332.pdf
333,692,Trails Recreation Center,2.94,Trails Recreation Center,2.94,0.00,False,51598,58,16799 E. Lake Ave.,Centennial,CO,80016,https://gis.arapahoegov.com/mapsandphotos/electionprecinctpdfs/Precinct_333.pdf
339,1306,Trails Recreation Center,2.59,Trails Recreation Center,2.59,0.00,False,51598,58,16799 E. Lake Ave.,Centennial,CO,80016,https://gis.arapahoegov.com/mapsandphotos/electionprecinctpdfs/Precinct_339.pdf
379,1016,Trails Recreation Center,3.53,Trails Recreation Center,3.53,0.00,False,51598,58,16799 E. Lake Ave.,Centennial,CO,80016,https://gis.arapahoegov.com/mapsandphotos/electionprecinctpdfs/Precinct_379.pdf
446,816,Trails Recreation Center,2.91,Trails Recreation Center,2.91,0.00,False,51598,58,16799 E. Lake Ave.,Centennial,CO,80016,https://gis.arapahoegov.com/mapsandphotos/electionprecinctpdfs/Precinct_446.pdf
449,623,Trails Recreation Center,2.21,Trails Recreation Center,2.21,0.00,False,51598,58,16799 E. Lake Ave.,Centennial,CO,80016,https://gis.arapahoegov.com/mapsandphotos/electionprecinctpdfs/Precinct_449.pdf
458,0,Trails Recreation Center,2.76,Trails Recreation Center,2.76,0.00,False,51598,58,16799 E. Lake Ave.,Centennial,CO,80016,https://gis.arapahoegov.com/mapsandphotos/electionprecinctpdfs/Precinct_458.pdf
459,924,Trails Recreation Center,2.81,Trails Recreation Center,2.81,0.00,False,51598,58,16799 E. Lake Ave.,Centennial,CO,80016,https://gis.arapahoegov.com/mapsandphotos/electionprecinctpdfs/Precinct_459.pdf
461,1325,Trails Recreation Center,2.11,Trails Recreation Center,2.11,0.00,False,51598,58,16799 E. Lake Ave.,Centennial,CO,80016,https://gis.arapahoegov.com/mapsandphotos/electionprecinctpdfs/Precinct_461.pdf
462,1215,Trails Recreation Center,2.56,Trails Recreation Center,2.56,0.00,False,51598,58,16799 E. Lake Ave.,Centennial,CO,80016,https://gis.arapahoegov.com/mapsandphotos/electionprecinctpdfs/Precinct_462.pdf
464,930,Trails Recreation Center,2.83,Trails Recreation Center,2.83,0.00,False,51598,58,16799 E. Lake Ave.,Centennial,CO,80016,https://gis.arapahoegov.com/mapsandphotos/electionprecinctpdfs/Precinct_464.pdf
561,0,Vista PEAK,0.56,Vista PEAK,0.56,0.00,False,0,2,24500 E. 6th Ave,Aurora,CO,80018,https://gis.arapahoegov.com/mapsandphotos/electionprecinctpdfs/Precinct_561.pdf
563,0,Vista PEAK,0.62,Vista PEAK,0.62,0.00,False,0,2,24500 E. 6th Ave,Aurora,CO,80018,https://gis.arapahoegov.com/mapsandphotos/electionprecinctpdfs/Precinct_563.pdf
